{"type": "FeatureCollection", "features": [{"type": "Feature", "geometry": {"type": "Point", "coordinates": [7.86676, 45.93692]}, "properties": {"name": "Dufourspitze", "elevation_m": 4634}}, {"type": "Feature", "geometry": {"type": "Point", "coordinates": [7.86777, 45.93688]}, "properties": {"name": "Dunantspitze", "elevation_m": 4631}}, {"type": "Feature", "geometry": {"type": "Point", "coordinates": [7.86844, 45.93672]}, "properties": {"name": "Grenzgipfel", "elevation_m": 4618}}, {"type": "Feature", "geometry": {"type": "Point", "coordinates": [7.86993, 45.94199]}, "properties": {"name": "Nordendspitze", "elevation_m": 4609}}, {"type": "Feature", "geometry": {"type": "Point", "coordinates": [7.87141, 45.93217]}, "properties": {"name": "Zumsteinspitze", "elevation_m": 4562}}, {"type": "Feature", "geometry": {"type": "Point", "coordinates": [7.87714, 45.92716]}, "properties": {"name": "Punta Gnifetti / Signalkuppe", "elevation_m": 4554}}, {"type": "Feature", "geometry": {"type": "Point", "coordinates": [7.85887, 46.09391]}, "properties": {"name": "Dom", "elevation_m": 4545}}, {"type": "Feature", "geometry": {"type": "Point", "coordinates": [7.83559, 45.92248]}, "properties": {"name": "Liskamm Ostgipfel", "elevation_m": 4527}}, {"type": "Feature", "geometry": {"type": "Point", "coordinates": [7.71607, 46.10125]}, "properties": {"name": "Weisshorn", "elevation_m": 4505}}, {"type": "Feature", "geometry": {"type": "Point", "coordinates": [7.85719, 46.08343]}, "properties": {"name": "T\u00e4schhorn", "elevation_m": 4490}}, {"type": "Feature", "geometry": {"type": "Point", "coordinates": [7.82323, 45.9265]}, "properties": {"name": "Liskamm Westgipfel", "elevation_m": 4479}}, {"type": "Feature", "geometry": {"type": "Point", "coordinates": [7.6586, 45.97643]}, "properties": {"name": "Matterhorn", "elevation_m": 4478}}, {"type": "Feature", "geometry": {"type": "Point", "coordinates": [7.86205, 46.09591]}, "properties": {"name": "Grand Gendarme", "elevation_m": 4468}}, {"type": "Feature", "geometry": {"type": "Point", "coordinates": [7.82043, 45.92701]}, "properties": {"name": "Liskamm westlicher Vorgipfel", "elevation_m": 4447}}, {"type": "Feature", "geometry": {"type": "Point", "coordinates": [7.87141, 45.91989]}, "properties": {"name": "Parrotspitze / Punta Parrot", "elevation_m": 4443}}, {"type": "Feature", "geometry": {"type": "Point", "coordinates": [7.82898, 45.9254]}, "properties": {"name": "Sattelkuppe", "elevation_m": 4430}}, {"type": "Feature", "geometry": {"type": "Point", "coordinates": [7.61193, 46.03418]}, "properties": {"name": "Dent Blanche", "elevation_m": 4358}}, {"type": "Feature", "geometry": {"type": "Point", "coordinates": [7.86348, 45.91671]}, "properties": {"name": "Ludwigsh\u00f6he", "elevation_m": 4342}}, {"type": "Feature", "geometry": {"type": "Point", "coordinates": [7.84369, 45.92174]}, "properties": {"name": "Cima di Scoperta", "elevation_m": 4335}}, {"type": "Feature", "geometry": {"type": "Point", "coordinates": [7.71177, 46.10722]}, "properties": {"name": "Grand Gendarme", "elevation_m": 4329}}, {"type": "Feature", "geometry": {"type": "Point", "coordinates": [7.86406, 46.10888]}, "properties": {"name": "Nadelhorn", "elevation_m": 4327}}, {"type": "Feature", "geometry": {"type": "Point", "coordinates": [7.86401, 46.10903]}, "properties": {"name": "Nadelhorn Vorgipfel", "elevation_m": 4325}}, {"type": "Feature", "geometry": {"type": "Point", "coordinates": [7.86198, 45.91497]}, "properties": {"name": "Corno Nero", "elevation_m": 4322}}, {"type": "Feature", "geometry": {"type": "Point", "coordinates": [7.8686, 46.10454]}, "properties": {"name": "Lenzspitze", "elevation_m": 4294}}, {"type": "Feature", "geometry": {"type": "Point", "coordinates": [7.83507, 45.91671]}, "properties": {"name": "Naso del Liskamm", "elevation_m": 4272}}, {"type": "Feature", "geometry": {"type": "Point", "coordinates": [7.66033, 45.97569]}, "properties": {"name": "\u00c9paule de Furggen", "elevation_m": 4243}}, {"type": "Feature", "geometry": {"type": "Point", "coordinates": [7.8595, 46.1115]}, "properties": {"name": "Stecknadelhorn", "elevation_m": 4241}}, {"type": "Feature", "geometry": {"type": "Point", "coordinates": [7.65372, 45.97429]}, "properties": {"name": "Pic Tyndall", "elevation_m": 4241}}, {"type": "Feature", "geometry": {"type": "Point", "coordinates": [7.79327, 45.92085]}, "properties": {"name": "Castor", "elevation_m": 4228}}, {"type": "Feature", "geometry": {"type": "Point", "coordinates": [7.69012, 46.06483]}, "properties": {"name": "Zinalrothorn", "elevation_m": 4221}}, {"type": "Feature", "geometry": {"type": "Point", "coordinates": [7.85388, 46.11255]}, "properties": {"name": "Hohberghorn", "elevation_m": 4219}}, {"type": "Feature", "geometry": {"type": "Point", "coordinates": [7.86131, 45.90811]}, "properties": {"name": "Piramide Vincent", "elevation_m": 4215}}, {"type": "Feature", "geometry": {"type": "Point", "coordinates": [7.86385, 46.06288]}, "properties": {"name": "Alphubel", "elevation_m": 4206}}, {"type": "Feature", "geometry": {"type": "Point", "coordinates": [7.79329, 45.92201]}, "properties": {"name": "Castor Nordgipfel", "elevation_m": 4205}}, {"type": "Feature", "geometry": {"type": "Point", "coordinates": [7.88396, 46.02313]}, "properties": {"name": "Rimpfischhorn", "elevation_m": 4198}}, {"type": "Feature", "geometry": {"type": "Point", "coordinates": [7.90217, 46.01315]}, "properties": {"name": "Strahlhorn", "elevation_m": 4190}}, {"type": "Feature", "geometry": {"type": "Point", "coordinates": [7.66102, 45.97541]}, "properties": {"name": "Picco Muzio", "elevation_m": 4187}}, {"type": "Feature", "geometry": {"type": "Point", "coordinates": [7.85168, 45.92099]}, "properties": {"name": "Entdeckungsfelsen", "elevation_m": 4178}}, {"type": "Feature", "geometry": {"type": "Point", "coordinates": [7.60503, 45.96998]}, "properties": {"name": "Dent d'H\u00e9rens", "elevation_m": 4171}}, {"type": "Feature", "geometry": {"type": "Point", "coordinates": [7.85813, 45.91384]}, "properties": {"name": "Balmenhorn", "elevation_m": 4167}}, {"type": "Feature", "geometry": {"type": "Point", "coordinates": [7.74773, 45.94101]}, "properties": {"name": "Breithorn Occidentale / Westgipfel", "elevation_m": 4164}}, {"type": "Feature", "geometry": {"type": "Point", "coordinates": [7.75677, 45.93877]}, "properties": {"name": "Breithorn Centrale", "elevation_m": 4159}}, {"type": "Feature", "geometry": {"type": "Point", "coordinates": [7.71496, 46.11792]}, "properties": {"name": "Bishorn", "elevation_m": 4149}}, {"type": "Feature", "geometry": {"type": "Point", "coordinates": [7.76711, 45.9375]}, "properties": {"name": "Breithorn Orientale / Ostgipfel", "elevation_m": 4139}}, {"type": "Feature", "geometry": {"type": "Point", "coordinates": [7.71802, 46.11869]}, "properties": {"name": "Pointe Burnaby", "elevation_m": 4134}}, {"type": "Feature", "geometry": {"type": "Point", "coordinates": [7.77036, 45.93584]}, "properties": {"name": "Gemello del Breithorn", "elevation_m": 4106}}, {"type": "Feature", "geometry": {"type": "Point", "coordinates": [7.61064, 46.02977]}, "properties": {"name": "Grand Gendarme", "elevation_m": 4097}}, {"type": "Feature", "geometry": {"type": "Point", "coordinates": [7.78531, 45.92781]}, "properties": {"name": "Pollux", "elevation_m": 4092}}, {"type": "Feature", "geometry": {"type": "Point", "coordinates": [7.80391, 45.91673]}, "properties": {"name": "Felikhorn", "elevation_m": 4087}}, {"type": "Feature", "geometry": {"type": "Point", "coordinates": [7.77513, 45.9327]}, "properties": {"name": "Roccia Nera", "elevation_m": 4075}}, {"type": "Feature", "geometry": {"type": "Point", "coordinates": [7.66804, 46.0386]}, "properties": {"name": "Ober Gabelhorn", "elevation_m": 4073}}, {"type": "Feature", "geometry": {"type": "Point", "coordinates": [7.8678, 45.90576]}, "properties": {"name": "Punta Giordani", "elevation_m": 4046}}, {"type": "Feature", "geometry": {"type": "Point", "coordinates": [7.84823, 46.11965]}, "properties": {"name": "Dirruhorn", "elevation_m": 4035}}, {"type": "Feature", "geometry": {"type": "Point", "coordinates": [7.89459, 46.04609]}, "properties": {"name": "Allalinhorn", "elevation_m": 4027}}, {"type": "Feature", "geometry": {"type": "Point", "coordinates": [7.6876, 46.06939]}, "properties": {"name": "L'Epaule du Rothorn", "elevation_m": 4016}}, {"type": "Feature", "geometry": {"type": "Point", "coordinates": [7.88896, 46.00918]}, "properties": {"name": "Adlerhorn", "elevation_m": 3988}}, {"type": "Feature", "geometry": {"type": "Point", "coordinates": [7.70494, 46.08435]}, "properties": {"name": "Schalihorn", "elevation_m": 3974}}, {"type": "Feature", "geometry": {"type": "Point", "coordinates": [7.87718, 45.95256]}, "properties": {"name": "J\u00e4gerhorn", "elevation_m": 3970}}, {"type": "Feature", "geometry": {"type": "Point", "coordinates": [7.61157, 46.05213]}, "properties": {"name": "Grand Cornier", "elevation_m": 3969}}, {"type": "Feature", "geometry": {"type": "Point", "coordinates": [7.6952, 46.07276]}, "properties": {"name": "Cr\u00eate Sud de Moming", "elevation_m": 3963}}, {"type": "Feature", "geometry": {"type": "Point", "coordinates": [7.87653, 46.11776]}, "properties": {"name": "Ulrichshorn", "elevation_m": 3925}}, {"type": "Feature", "geometry": {"type": "Point", "coordinates": [7.61322, 45.97058]}, "properties": {"name": "Punta Bianca", "elevation_m": 3918}}, {"type": "Feature", "geometry": {"type": "Point", "coordinates": [7.79368, 45.91163]}, "properties": {"name": "Punta Perazzi - Perazzisp\u00e9tz", "elevation_m": 3906}}, {"type": "Feature", "geometry": {"type": "Point", "coordinates": [7.67786, 46.04199]}, "properties": {"name": "Wellenkuppe", "elevation_m": 3903}}, {"type": "Feature", "geometry": {"type": "Point", "coordinates": [7.73509, 45.92397]}, "properties": {"name": "Gobba di Rollin", "elevation_m": 3899}}, {"type": "Feature", "geometry": {"type": "Point", "coordinates": [7.65387, 45.98049]}, "properties": {"name": "Zmuttz\u00e4hne", "elevation_m": 3894}}, {"type": "Feature", "geometry": {"type": "Point", "coordinates": [7.88339, 46.04862]}, "properties": {"name": "Feechopf", "elevation_m": 3888}}, {"type": "Feature", "geometry": {"type": "Point", "coordinates": [7.72989, 45.93836]}, "properties": {"name": "Klein Matterhorn", "elevation_m": 3883}}, {"type": "Feature", "geometry": {"type": "Point", "coordinates": [7.5972, 45.94564]}, "properties": {"name": "Punta Giordano", "elevation_m": 3878}}, {"type": "Feature", "geometry": {"type": "Point", "coordinates": [7.67324, 46.04069]}, "properties": {"name": "Grand Gendarme", "elevation_m": 3868}}, {"type": "Feature", "geometry": {"type": "Point", "coordinates": [7.69974, 46.07763]}, "properties": {"name": "Cr\u00eate Nord de Moming", "elevation_m": 3862}}, {"type": "Feature", "geometry": {"type": "Point", "coordinates": [7.60144, 45.94995]}, "properties": {"name": "Punta dei Cors", "elevation_m": 3849}}, {"type": "Feature", "geometry": {"type": "Point", "coordinates": [7.61597, 45.97134]}, "properties": {"name": "Punta Carrel", "elevation_m": 3841}}, {"type": "Feature", "geometry": {"type": "Point", "coordinates": [7.68458, 46.05731]}, "properties": {"name": "Pointe du Mountet", "elevation_m": 3839}}, {"type": "Feature", "geometry": {"type": "Point", "coordinates": [7.54545, 45.98226]}, "properties": {"name": "Dents des Bouquetins - Sommet Central", "elevation_m": 3838}}, {"type": "Feature", "geometry": {"type": "Point", "coordinates": [7.5458, 45.98289]}, "properties": {"name": "Dents des Bouquetins - Faux Sommet", "elevation_m": 3824}}, {"type": "Feature", "geometry": {"type": "Point", "coordinates": [7.59891, 45.94694]}, "properties": {"name": "Punta Lioy", "elevation_m": 3816}}, {"type": "Feature", "geometry": {"type": "Point", "coordinates": [7.89451, 45.98091]}, "properties": {"name": "Cima di Jazzi", "elevation_m": 3803}}, {"type": "Feature", "geometry": {"type": "Point", "coordinates": [7.91548, 46.02121]}, "properties": {"name": "Fluchthorn", "elevation_m": 3802}}, {"type": "Feature", "geometry": {"type": "Point", "coordinates": [7.58167, 45.97462]}, "properties": {"name": "T\u00eate de Valpelline", "elevation_m": 3802}}, {"type": "Feature", "geometry": {"type": "Point", "coordinates": [7.59156, 45.94184]}, "properties": {"name": "Becca de Guin", "elevation_m": 3802}}, {"type": "Feature", "geometry": {"type": "Point", "coordinates": [7.617, 45.9713]}, "properties": {"name": "Punta Maquignaz", "elevation_m": 3801}}, {"type": "Feature", "geometry": {"type": "Point", "coordinates": [7.63046, 46.02721]}, "properties": {"name": "Pointe de Zinal", "elevation_m": 3790}}, {"type": "Feature", "geometry": {"type": "Point", "coordinates": [7.54476, 45.98754]}, "properties": {"name": "Dents des Bouquetins - Sommet Nord", "elevation_m": 3779}}, {"type": "Feature", "geometry": {"type": "Point", "coordinates": [7.83401, 46.07719]}, "properties": {"name": "Kinhorn", "elevation_m": 3750}}, {"type": "Feature", "geometry": {"type": "Point", "coordinates": [7.84106, 46.10364]}, "properties": {"name": "Hohgw\u00e4chte", "elevation_m": 3740}}, {"type": "Feature", "geometry": {"type": "Point", "coordinates": [7.6783, 46.05146]}, "properties": {"name": "Trifthorn", "elevation_m": 3737}}, {"type": "Feature", "geometry": {"type": "Point", "coordinates": [7.50275, 45.96441]}, "properties": {"name": "L'Ev\u00eaque", "elevation_m": 3716}}, {"type": "Feature", "geometry": {"type": "Point", "coordinates": [7.64366, 45.97131]}, "properties": {"name": "Testa del Leone", "elevation_m": 3715}}, {"type": "Feature", "geometry": {"type": "Point", "coordinates": [7.65051, 46.03372]}, "properties": {"name": "Mont Durand", "elevation_m": 3712}}, {"type": "Feature", "geometry": {"type": "Point", "coordinates": [7.57533, 45.98659]}, "properties": {"name": "T\u00eate Blanche", "elevation_m": 3710}}, {"type": "Feature", "geometry": {"type": "Point", "coordinates": [7.62037, 45.97222]}, "properties": {"name": "Punta Maria Cristina", "elevation_m": 3704}}, {"type": "Feature", "geometry": {"type": "Point", "coordinates": [7.69034, 46.11853]}, "properties": {"name": "T\u00eate de Milon", "elevation_m": 3693}}, {"type": "Feature", "geometry": {"type": "Point", "coordinates": [7.67651, 46.03333]}, "properties": {"name": "Mittler Gabelhorn", "elevation_m": 3685}}, {"type": "Feature", "geometry": {"type": "Point", "coordinates": [7.88105, 45.9632]}, "properties": {"name": "Grosses Fillarhorn", "elevation_m": 3676}}, {"type": "Feature", "geometry": {"type": "Point", "coordinates": [7.52319, 46.03929]}, "properties": {"name": "Dent de Perroc", "elevation_m": 3676}}, {"type": "Feature", "geometry": {"type": "Point", "coordinates": [7.52594, 46.03711]}, "properties": {"name": "Pointe des Genevois", "elevation_m": 3674}}, {"type": "Feature", "geometry": {"type": "Point", "coordinates": [7.5064, 45.96884]}, "properties": {"name": "Mitre de l'Eveque", "elevation_m": 3672}}, {"type": "Feature", "geometry": {"type": "Point", "coordinates": [7.5648, 45.98638]}, "properties": {"name": "T\u00eate de Chavanne", "elevation_m": 3671}}, {"type": "Feature", "geometry": {"type": "Point", "coordinates": [7.6499, 46.02876]}, "properties": {"name": "Hohw\u00e4nghorn", "elevation_m": 3671}}, {"type": "Feature", "geometry": {"type": "Point", "coordinates": [7.54216, 45.97784]}, "properties": {"name": "Dents des Bouquetins - Sommet Sud", "elevation_m": 3670}}, {"type": "Feature", "geometry": {"type": "Point", "coordinates": [7.52232, 46.02143]}, "properties": {"name": "Aiguille de la Tsa", "elevation_m": 3668}}, {"type": "Feature", "geometry": {"type": "Point", "coordinates": [7.70767, 46.06056]}, "properties": {"name": "Ober \u00c4schhorn", "elevation_m": 3668}}, {"type": "Feature", "geometry": {"type": "Point", "coordinates": [7.65878, 46.07776]}, "properties": {"name": "Besso", "elevation_m": 3667}}, {"type": "Feature", "geometry": {"type": "Point", "coordinates": [7.52149, 46.01819]}, "properties": {"name": "Pointe Nord des Douves Blanches", "elevation_m": 3664}}, {"type": "Feature", "geometry": {"type": "Point", "coordinates": [7.6645, 46.0737]}, "properties": {"name": "Blanc de Moming", "elevation_m": 3660}}, {"type": "Feature", "geometry": {"type": "Point", "coordinates": [7.66696, 46.07165]}, "properties": {"name": "D\u00f4me", "elevation_m": 3650}}, {"type": "Feature", "geometry": {"type": "Point", "coordinates": [7.5234, 46.04168]}, "properties": {"name": "Blanche de Perroc", "elevation_m": 3648}}, {"type": "Feature", "geometry": {"type": "Point", "coordinates": [7.52101, 46.01533]}, "properties": {"name": "Pointe Sud des Douves Blanches", "elevation_m": 3642}}, {"type": "Feature", "geometry": {"type": "Point", "coordinates": [7.90353, 45.98871]}, "properties": {"name": "Neue Weisstorspitze", "elevation_m": 3639}}, {"type": "Feature", "geometry": {"type": "Point", "coordinates": [7.50772, 45.97728]}, "properties": {"name": "Mont Collon", "elevation_m": 3637}}, {"type": "Feature", "geometry": {"type": "Point", "coordinates": [7.58611, 45.93424]}, "properties": {"name": "Punta Budden", "elevation_m": 3631}}, {"type": "Feature", "geometry": {"type": "Point", "coordinates": [7.87947, 45.9729]}, "properties": {"name": "Torre di Castelfranco", "elevation_m": 3627}}, {"type": "Feature", "geometry": {"type": "Point", "coordinates": [7.87787, 45.95974]}, "properties": {"name": "Kleines Fillarhorn", "elevation_m": 3621}}, {"type": "Feature", "geometry": {"type": "Point", "coordinates": [7.88248, 46.10959]}, "properties": {"name": "Schwarzhorn", "elevation_m": 3619}}, {"type": "Feature", "geometry": {"type": "Point", "coordinates": [7.71487, 46.05831]}, "properties": {"name": "Unter \u00c4schhorn", "elevation_m": 3617}}, {"type": "Feature", "geometry": {"type": "Point", "coordinates": [7.88018, 45.96923]}, "properties": {"name": "Cima Brioschi", "elevation_m": 3616}}, {"type": "Feature", "geometry": {"type": "Point", "coordinates": [7.59038, 46.06797]}, "properties": {"name": "Dent des Rosses", "elevation_m": 3613}}, {"type": "Feature", "geometry": {"type": "Point", "coordinates": [7.54147, 45.97629]}, "properties": {"name": "Pointe Barnes", "elevation_m": 3612}}, {"type": "Feature", "geometry": {"type": "Point", "coordinates": [7.90865, 45.99704]}, "properties": {"name": "Schwarzberghorn", "elevation_m": 3609}}, {"type": "Feature", "geometry": {"type": "Point", "coordinates": [7.89958, 46.05239]}, "properties": {"name": "P3596", "elevation_m": 3596}}, {"type": "Feature", "geometry": {"type": "Point", "coordinates": [7.53836, 45.95495]}, "properties": {"name": "Mont Br\u00fbl\u00e9", "elevation_m": 3591}}, {"type": "Feature", "geometry": {"type": "Point", "coordinates": [7.52322, 46.02412]}, "properties": {"name": "Dent de Tsalion", "elevation_m": 3589}}, {"type": "Feature", "geometry": {"type": "Point", "coordinates": [7.6019, 46.00193]}, "properties": {"name": "Wandfluehorn", "elevation_m": 3589}}, {"type": "Feature", "geometry": {"type": "Point", "coordinates": [7.87515, 45.95877]}, "properties": {"name": "Fillarjoch", "elevation_m": 3586}}, {"type": "Feature", "geometry": {"type": "Point", "coordinates": [7.58529, 45.92614]}, "properties": {"name": "Tour de Cr\u00e9ton", "elevation_m": 3584}}, {"type": "Feature", "geometry": {"type": "Point", "coordinates": [7.59175, 46.0625]}, "properties": {"name": "Pointe de Bricolla", "elevation_m": 3573}}, {"type": "Feature", "geometry": {"type": "Point", "coordinates": [7.58644, 45.93177]}, "properties": {"name": "Poite des Petites Murailles", "elevation_m": 3566}}, {"type": "Feature", "geometry": {"type": "Point", "coordinates": [7.91906, 45.9959]}, "properties": {"name": "Roffelhorn Westgipfel / Cima di Roffel occidentale", "elevation_m": 3563}}, {"type": "Feature", "geometry": {"type": "Point", "coordinates": [7.5861, 46.07243]}, "properties": {"name": "Pointe du Mourti Orientale", "elevation_m": 3563}}, {"type": "Feature", "geometry": {"type": "Point", "coordinates": [7.53898, 45.99744]}, "properties": {"name": "Dent Nord de Bertol", "elevation_m": 3547}}, {"type": "Feature", "geometry": {"type": "Point", "coordinates": [7.83782, 45.98565]}, "properties": {"name": "Stockhorn", "elevation_m": 3532}}, {"type": "Feature", "geometry": {"type": "Point", "coordinates": [7.58093, 46.07336]}, "properties": {"name": "Pointe du Mourti Occidentale", "elevation_m": 3529}}, {"type": "Feature", "geometry": {"type": "Point", "coordinates": [7.53629, 45.99414]}, "properties": {"name": "Dent Sud de Bertol", "elevation_m": 3524}}, {"type": "Feature", "geometry": {"type": "Point", "coordinates": [7.5228, 46.0286]}, "properties": {"name": "Pointe de Tsalion", "elevation_m": 3512}}, {"type": "Feature", "geometry": {"type": "Point", "coordinates": [7.52822, 46.00958]}, "properties": {"name": "Pointe de Bertol", "elevation_m": 3499}}, {"type": "Feature", "geometry": {"type": "Point", "coordinates": [7.52808, 45.9565]}, "properties": {"name": "Punta Kurz", "elevation_m": 3498}}, {"type": "Feature", "geometry": {"type": "Point", "coordinates": [7.92353, 45.92121]}, "properties": {"name": "Punta Grober", "elevation_m": 3497}}, {"type": "Feature", "geometry": {"type": "Point", "coordinates": [7.68126, 45.95682]}, "properties": {"name": "Furggen", "elevation_m": 3492}}, {"type": "Feature", "geometry": {"type": "Point", "coordinates": [7.57705, 45.91613]}, "properties": {"name": "Ch\u00e2teau des Dames", "elevation_m": 3489}}, {"type": "Feature", "geometry": {"type": "Point", "coordinates": [7.70807, 45.93414]}, "properties": {"name": "Testa Grigia", "elevation_m": 3480}}, {"type": "Feature", "geometry": {"type": "Point", "coordinates": [7.92757, 45.99715]}, "properties": {"name": "Roffelhorn Ostgipfel / Cima di Roffel orientale", "elevation_m": 3478}}, {"type": "Feature", "geometry": {"type": "Point", "coordinates": [7.7084, 45.94931]}, "properties": {"name": "Theodulhorn", "elevation_m": 3472}}, {"type": "Feature", "geometry": {"type": "Point", "coordinates": [7.65358, 46.02072]}, "properties": {"name": "\u00c4bihorn", "elevation_m": 3472}}, {"type": "Feature", "geometry": {"type": "Point", "coordinates": [7.90488, 46.05755]}, "properties": {"name": "Mittelallalin", "elevation_m": 3456}}, {"type": "Feature", "geometry": {"type": "Point", "coordinates": [7.6995, 45.95415]}, "properties": {"name": "Furgghorn", "elevation_m": 3451}}, {"type": "Feature", "geometry": {"type": "Point", "coordinates": [7.87825, 45.8968]}, "properties": {"name": "Punta Vittoria", "elevation_m": 3435}}, {"type": "Feature", "geometry": {"type": "Point", "coordinates": [7.88389, 46.10368]}, "properties": {"name": "Eggfluh", "elevation_m": 3429}}, {"type": "Feature", "geometry": {"type": "Point", "coordinates": [7.90709, 45.92602]}, "properties": {"name": "Punta Tre Amici", "elevation_m": 3425}}, {"type": "Feature", "geometry": {"type": "Point", "coordinates": [7.52801, 46.05079]}, "properties": {"name": "Grande Dent de Veisivi", "elevation_m": 3418}}, {"type": "Feature", "geometry": {"type": "Point", "coordinates": [7.8128, 46.02754]}, "properties": {"name": "Oberrothorn", "elevation_m": 3413}}, {"type": "Feature", "geometry": {"type": "Point", "coordinates": [7.74166, 46.05565]}, "properties": {"name": "Mettelhorn", "elevation_m": 3410}}, {"type": "Feature", "geometry": {"type": "Point", "coordinates": [7.58532, 45.91825]}, "properties": {"name": "Mont Blanc du Cr\u00e9ton", "elevation_m": 3409}}, {"type": "Feature", "geometry": {"type": "Point", "coordinates": [7.82059, 46.07328]}, "properties": {"name": "Leiterspitzen", "elevation_m": 3409}}, {"type": "Feature", "geometry": {"type": "Point", "coordinates": [7.8234, 45.98664]}, "properties": {"name": "Stockhorn", "elevation_m": 3405}}, {"type": "Feature", "geometry": {"type": "Point", "coordinates": [7.69678, 46.02619]}, "properties": {"name": "Unter Gabelhorn", "elevation_m": 3398}}, {"type": "Feature", "geometry": {"type": "Point", "coordinates": [7.98432, 46.11861]}, "properties": {"name": "Trifthorn", "elevation_m": 3396}}, {"type": "Feature", "geometry": {"type": "Point", "coordinates": [7.61076, 46.08294]}, "properties": {"name": "Pigne de la L\u00e9", "elevation_m": 3396}}, {"type": "Feature", "geometry": {"type": "Point", "coordinates": [7.72221, 46.05398]}, "properties": {"name": "Furgghorn", "elevation_m": 3391}}, {"type": "Feature", "geometry": {"type": "Point", "coordinates": [7.5262, 46.00363]}, "properties": {"name": "Pointe de Chamois", "elevation_m": 3387}}, {"type": "Feature", "geometry": {"type": "Point", "coordinates": [7.55562, 45.90596]}, "properties": {"name": "Pointes des Fontanelles - Sud", "elevation_m": 3384}}, {"type": "Feature", "geometry": {"type": "Point", "coordinates": [7.55716, 45.90819]}, "properties": {"name": "Pointes des Fontanelles - Nord", "elevation_m": 3379}}, {"type": "Feature", "geometry": {"type": "Point", "coordinates": [7.52732, 46.00405]}, "properties": {"name": "Pointe de la Cr\u00eate du Plan", "elevation_m": 3375}}, {"type": "Feature", "geometry": {"type": "Point", "coordinates": [7.51789, 45.94931]}, "properties": {"name": "Pointe du Laurier Noir", "elevation_m": 3373}}, {"type": "Feature", "geometry": {"type": "Point", "coordinates": [7.82039, 46.09352]}, "properties": {"name": "Grabenhorn", "elevation_m": 3372}}, {"type": "Feature", "geometry": {"type": "Point", "coordinates": [7.74313, 46.09384]}, "properties": {"name": "Wisse Schijen", "elevation_m": 3369}}, {"type": "Feature", "geometry": {"type": "Point", "coordinates": [7.57331, 46.07817]}, "properties": {"name": "Tsa de l'Ano", "elevation_m": 3368}}, {"type": "Feature", "geometry": {"type": "Point", "coordinates": [7.93013, 46.07518]}, "properties": {"name": "Egginer", "elevation_m": 3367}}, {"type": "Feature", "geometry": {"type": "Point", "coordinates": [7.8304, 45.94977]}, "properties": {"name": "Blattje", "elevation_m": 3361}}, {"type": "Feature", "geometry": {"type": "Point", "coordinates": [7.51325, 45.94277]}, "properties": {"name": "Becca de la Vanette", "elevation_m": 3361}}, {"type": "Feature", "geometry": {"type": "Point", "coordinates": [7.5242, 45.9362]}, "properties": {"name": "Grande Vanne", "elevation_m": 3361}}, {"type": "Feature", "geometry": {"type": "Point", "coordinates": [7.6968, 46.05047]}, "properties": {"name": "Eseltschuggen", "elevation_m": 3359}}, {"type": "Feature", "geometry": {"type": "Point", "coordinates": [7.55666, 45.90656]}, "properties": {"name": "Pointes des Fontanelles - Centrale", "elevation_m": 3358}}, {"type": "Feature", "geometry": {"type": "Point", "coordinates": [7.99574, 46.03823]}, "properties": {"name": "Stelli", "elevation_m": 3357}}, {"type": "Feature", "geometry": {"type": "Point", "coordinates": [7.5446, 45.96851]}, "properties": {"name": "Pointe de la Grande Ar\u00eate", "elevation_m": 3355}}, {"type": "Feature", "geometry": {"type": "Point", "coordinates": [7.53862, 45.94283]}, "properties": {"name": "Pointes des Noires", "elevation_m": 3355}}, {"type": "Feature", "geometry": {"type": "Point", "coordinates": [7.56184, 45.91193]}, "properties": {"name": "Mont Dragon", "elevation_m": 3351}}, {"type": "Feature", "geometry": {"type": "Point", "coordinates": [7.55149, 45.88256]}, "properties": {"name": "Dome du Tsan - Nord", "elevation_m": 3349}}, {"type": "Feature", "geometry": {"type": "Point", "coordinates": [7.5513, 45.88126]}, "properties": {"name": "Dome du Tsan - Centrale", "elevation_m": 3348}}, {"type": "Feature", "geometry": {"type": "Point", "coordinates": [7.7364, 46.05371]}, "properties": {"name": "Platthorn", "elevation_m": 3345}}, {"type": "Feature", "geometry": {"type": "Point", "coordinates": [7.93262, 45.99599]}, "properties": {"name": "Steinchalchhorn / Cresta di Stenigalchi", "elevation_m": 3345}}, {"type": "Feature", "geometry": {"type": "Point", "coordinates": [7.52752, 46.00679]}, "properties": {"name": "Clocher de Bertol", "elevation_m": 3343}}, {"type": "Feature", "geometry": {"type": "Point", "coordinates": [7.68099, 45.88723]}, "properties": {"name": "Mont Roisetta (Punta Nord)", "elevation_m": 3334}}, {"type": "Feature", "geometry": {"type": "Point", "coordinates": [7.52171, 45.93842]}, "properties": {"name": "Pointe Merendi", "elevation_m": 3334}}, {"type": "Feature", "geometry": {"type": "Point", "coordinates": [7.9374, 45.99692]}, "properties": {"name": "Steinchalchhorn", "elevation_m": 3333}}, {"type": "Feature", "geometry": {"type": "Point", "coordinates": [7.92061, 46.06325]}, "properties": {"name": "Hinter Allalin", "elevation_m": 3330}}, {"type": "Feature", "geometry": {"type": "Point", "coordinates": [7.99421, 46.08688]}, "properties": {"name": "Almagellerhorn", "elevation_m": 3327}}, {"type": "Feature", "geometry": {"type": "Point", "coordinates": [7.54916, 45.88011]}, "properties": {"name": "Dome du Tsan - Sud", "elevation_m": 3324}}, {"type": "Feature", "geometry": {"type": "Point", "coordinates": [7.6789, 45.88475]}, "properties": {"name": "Mont Roisetta (Punta Sud)", "elevation_m": 3324}}, {"type": "Feature", "geometry": {"type": "Point", "coordinates": [7.7384, 45.90526]}, "properties": {"name": "Rocca di Verra", "elevation_m": 3321}}, {"type": "Feature", "geometry": {"type": "Point", "coordinates": [7.82831, 46.02329]}, "properties": {"name": "Fluehorn", "elevation_m": 3317}}, {"type": "Feature", "geometry": {"type": "Point", "coordinates": [7.55358, 45.88914]}, "properties": {"name": "Pointe de Balanselmo", "elevation_m": 3316}}, {"type": "Feature", "geometry": {"type": "Point", "coordinates": [7.84768, 46.01649]}, "properties": {"name": "Pfulwe", "elevation_m": 3314}}, {"type": "Feature", "geometry": {"type": "Point", "coordinates": [7.55357, 45.88586]}, "properties": {"name": "Pointe de Tsignana", "elevation_m": 3311}}, {"type": "Feature", "geometry": {"type": "Point", "coordinates": [7.57683, 46.08419]}, "properties": {"name": "Pointe de Moiry", "elevation_m": 3303}}, {"type": "Feature", "geometry": {"type": "Point", "coordinates": [7.55314, 45.88497]}, "properties": {"name": "Pointe Innomee", "elevation_m": 3302}}, {"type": "Feature", "geometry": {"type": "Point", "coordinates": [7.70861, 45.91464]}, "properties": {"name": "Punta di Rollin", "elevation_m": 3296}}, {"type": "Feature", "geometry": {"type": "Point", "coordinates": [7.54519, 45.9597]}, "properties": {"name": "Punta di Tsa de Tsan", "elevation_m": 3292}}, {"type": "Feature", "geometry": {"type": "Point", "coordinates": [7.80223, 45.98901]}, "properties": {"name": "Hoht\u00e4lli", "elevation_m": 3286}}, {"type": "Feature", "geometry": {"type": "Point", "coordinates": [7.55382, 45.89103]}, "properties": {"name": "Pic Innomee", "elevation_m": 3281}}, {"type": "Feature", "geometry": {"type": "Point", "coordinates": [7.5536, 45.88771]}, "properties": {"name": "Pointe Gianett", "elevation_m": 3270}}, {"type": "Feature", "geometry": {"type": "Point", "coordinates": [7.55445, 45.89334]}, "properties": {"name": "Pointes de Valcorniere - Centrale", "elevation_m": 3265}}, {"type": "Feature", "geometry": {"type": "Point", "coordinates": [7.55444, 45.89254]}, "properties": {"name": "Pointes de Valcorniere - Sud", "elevation_m": 3264}}, {"type": "Feature", "geometry": {"type": "Point", "coordinates": [7.74376, 46.09034]}, "properties": {"name": "Wisse Schijen S\u00fcdgipfel", "elevation_m": 3264}}, {"type": "Feature", "geometry": {"type": "Point", "coordinates": [7.84085, 46.01782]}, "properties": {"name": "Spitzi Flue", "elevation_m": 3260}}, {"type": "Feature", "geometry": {"type": "Point", "coordinates": [7.80297, 46.03828]}, "properties": {"name": "B\u00f6sentrift", "elevation_m": 3253}}, {"type": "Feature", "geometry": {"type": "Point", "coordinates": [7.52403, 45.88215]}, "properties": {"name": "Punta Chanoux", "elevation_m": 3250}}, {"type": "Feature", "geometry": {"type": "Point", "coordinates": [7.80279, 46.04253]}, "properties": {"name": "B\u00f6sentrift", "elevation_m": 3248}}, {"type": "Feature", "geometry": {"type": "Point", "coordinates": [7.81245, 45.98714]}, "properties": {"name": "Rote Nase", "elevation_m": 3247}}, {"type": "Feature", "geometry": {"type": "Point", "coordinates": [7.8668, 46.00827]}, "properties": {"name": "Strahlchnubel", "elevation_m": 3243}}, {"type": "Feature", "geometry": {"type": "Point", "coordinates": [7.5853, 45.90699]}, "properties": {"name": "Mont Rous", "elevation_m": 3240}}, {"type": "Feature", "geometry": {"type": "Point", "coordinates": [7.5549, 45.89546]}, "properties": {"name": "Pointes de Valcorniere - Nord", "elevation_m": 3238}}, {"type": "Feature", "geometry": {"type": "Point", "coordinates": [7.52668, 45.88694]}, "properties": {"name": "Mont Arpettaz", "elevation_m": 3235}}, {"type": "Feature", "geometry": {"type": "Point", "coordinates": [7.51804, 45.96269]}, "properties": {"name": "La Vierge", "elevation_m": 3232}}, {"type": "Feature", "geometry": {"type": "Point", "coordinates": [7.95116, 45.99717]}, "properties": {"name": "Rothhorn / Corno Rosso", "elevation_m": 3230}}, {"type": "Feature", "geometry": {"type": "Point", "coordinates": [7.57624, 45.94948]}, "properties": {"name": "T\u00eate des Ro\u00e8ses", "elevation_m": 3216}}, {"type": "Feature", "geometry": {"type": "Point", "coordinates": [7.93974, 45.93718]}, "properties": {"name": "Pizzo Bianco", "elevation_m": 3215}}, {"type": "Feature", "geometry": {"type": "Point", "coordinates": [7.813, 46.07338]}, "properties": {"name": "Horn", "elevation_m": 3214}}, {"type": "Feature", "geometry": {"type": "Point", "coordinates": [7.95902, 45.99649]}, "properties": {"name": "Seewjinenhorn / Corno di Seewjinen", "elevation_m": 3205}}, {"type": "Feature", "geometry": {"type": "Point", "coordinates": [7.86528, 45.8822]}, "properties": {"name": "Stolemberg", "elevation_m": 3202}}, {"type": "Feature", "geometry": {"type": "Point", "coordinates": [7.93869, 45.91225]}, "properties": {"name": "Punta Rizzetti", "elevation_m": 3196}}, {"type": "Feature", "geometry": {"type": "Point", "coordinates": [7.84231, 46.05907]}, "properties": {"name": "Wissgrat", "elevation_m": 3195}}, {"type": "Feature", "geometry": {"type": "Point", "coordinates": [7.98823, 46.05087]}, "properties": {"name": "Nollenhorn", "elevation_m": 3185}}, {"type": "Feature", "geometry": {"type": "Point", "coordinates": [7.8347, 45.8833]}, "properties": {"name": "Alta Luce", "elevation_m": 3184}}, {"type": "Feature", "geometry": {"type": "Point", "coordinates": [7.51829, 46.05806]}, "properties": {"name": "Petite Dent de Veisivi", "elevation_m": 3184}}, {"type": "Feature", "geometry": {"type": "Point", "coordinates": [7.63449, 46.00751]}, "properties": {"name": "Gemsspitz", "elevation_m": 3182}}, {"type": "Feature", "geometry": {"type": "Point", "coordinates": [7.67704, 45.91435]}, "properties": {"name": "Gran Sometta", "elevation_m": 3166}}, {"type": "Feature", "geometry": {"type": "Point", "coordinates": [7.80385, 46.04635]}, "properties": {"name": "Sattelspitz", "elevation_m": 3162}}, {"type": "Feature", "geometry": {"type": "Point", "coordinates": [7.57065, 46.0917]}, "properties": {"name": "Couronne de Br\u00e9ona", "elevation_m": 3159}}, {"type": "Feature", "geometry": {"type": "Point", "coordinates": [7.99545, 46.01528]}, "properties": {"name": "Sp\u00e4hnh\u00f6rner", "elevation_m": 3146}}, {"type": "Feature", "geometry": {"type": "Point", "coordinates": [7.94131, 45.90969]}, "properties": {"name": "Punta Calderini", "elevation_m": 3145}}, {"type": "Feature", "geometry": {"type": "Point", "coordinates": [7.93773, 46.08457]}, "properties": {"name": "Mittaghorn", "elevation_m": 3143}}, {"type": "Feature", "geometry": {"type": "Point", "coordinates": [7.66638, 46.1108]}, "properties": {"name": "Pointe d'Arpitetta", "elevation_m": 3132}}, {"type": "Feature", "geometry": {"type": "Point", "coordinates": [7.94278, 45.90682]}, "properties": {"name": "Corno di Faller", "elevation_m": 3128}}, {"type": "Feature", "geometry": {"type": "Point", "coordinates": [7.79754, 46.02083]}, "properties": {"name": "Unterrothorn", "elevation_m": 3103}}, {"type": "Feature", "geometry": {"type": "Point", "coordinates": [7.65355, 46.06372]}, "properties": {"name": "Le Mammouth", "elevation_m": 3100}}, {"type": "Feature", "geometry": {"type": "Point", "coordinates": [7.78434, 45.98361]}, "properties": {"name": "Gornergrat", "elevation_m": 3100}}, {"type": "Feature", "geometry": {"type": "Point", "coordinates": [7.81977, 46.09843]}, "properties": {"name": "Chli Haupt", "elevation_m": 3098}}, {"type": "Feature", "geometry": {"type": "Point", "coordinates": [7.61044, 45.9944]}, "properties": {"name": "Stockje", "elevation_m": 3097}}, {"type": "Feature", "geometry": {"type": "Point", "coordinates": [7.52566, 45.89317]}, "properties": {"name": "Monte Poudzo", "elevation_m": 3094}}, {"type": "Feature", "geometry": {"type": "Point", "coordinates": [7.54892, 46.10939]}, "properties": {"name": "Pointe du Tsat\u00e9", "elevation_m": 3078}}, {"type": "Feature", "geometry": {"type": "Point", "coordinates": [7.55785, 46.1042]}, "properties": {"name": "Pointe du Bandon", "elevation_m": 3074}}, {"type": "Feature", "geometry": {"type": "Point", "coordinates": [7.94472, 46.00985]}, "properties": {"name": "Gr\u00fcnberghorn", "elevation_m": 3074}}, {"type": "Feature", "geometry": {"type": "Point", "coordinates": [7.93739, 46.0596]}, "properties": {"name": "Klein Allalin", "elevation_m": 3070}}, {"type": "Feature", "geometry": {"type": "Point", "coordinates": [7.63705, 46.0069]}, "properties": {"name": "Unterer Blausatz", "elevation_m": 3066}}, {"type": "Feature", "geometry": {"type": "Point", "coordinates": [7.83188, 45.97938]}, "properties": {"name": "Stockchnubel", "elevation_m": 3047}}, {"type": "Feature", "geometry": {"type": "Point", "coordinates": [7.50331, 46.01592]}, "properties": {"name": "La Maya (d'Arolla)", "elevation_m": 3040}}, {"type": "Feature", "geometry": {"type": "Point", "coordinates": [7.98907, 45.99593]}, "properties": {"name": "Joderhorn", "elevation_m": 3036}}, {"type": "Feature", "geometry": {"type": "Point", "coordinates": [7.76504, 45.88326]}, "properties": {"name": "Monte Rosso Di Verra", "elevation_m": 3034}}, {"type": "Feature", "geometry": {"type": "Point", "coordinates": [7.93657, 46.04116]}, "properties": {"name": "\u00dcssere Turu", "elevation_m": 3030}}, {"type": "Feature", "geometry": {"type": "Point", "coordinates": [7.66648, 45.91652]}, "properties": {"name": "Motta di Plet\u00e9 Orientale", "elevation_m": 3018}}, {"type": "Feature", "geometry": {"type": "Point", "coordinates": [7.94648, 46.0173]}, "properties": {"name": "Signal", "elevation_m": 3015}}, {"type": "Feature", "geometry": {"type": "Point", "coordinates": [7.67854, 45.90702]}, "properties": {"name": "Bec Carre'", "elevation_m": 3003}}, {"type": "Feature", "geometry": {"type": "Point", "coordinates": [7.54381, 46.11848]}, "properties": {"name": "Pointe du Pr\u00e9let", "elevation_m": 3000}}, {"type": "Feature", "geometry": {"type": "Point", "coordinates": [7.97499, 45.99919]}, "properties": {"name": "Monte Moro", "elevation_m": 2985}}, {"type": "Feature", "geometry": {"type": "Point", "coordinates": [7.56126, 46.09742]}, "properties": {"name": "Cherra Neire", "elevation_m": 2985}}, {"type": "Feature", "geometry": {"type": "Point", "coordinates": [7.67926, 45.90323]}, "properties": {"name": "Pointe Sud", "elevation_m": 2973}}, {"type": "Feature", "geometry": {"type": "Point", "coordinates": [7.54508, 45.93699]}, "properties": {"name": "Becca des Noires", "elevation_m": 2973}}, {"type": "Feature", "geometry": {"type": "Point", "coordinates": [7.89324, 46.1004]}, "properties": {"name": "Guglen", "elevation_m": 2966}}, {"type": "Feature", "geometry": {"type": "Point", "coordinates": [7.75165, 46.09251]}, "properties": {"name": "Schwarzh\u00f6rnli", "elevation_m": 2963}}, {"type": "Feature", "geometry": {"type": "Point", "coordinates": [7.99621, 46.00372]}, "properties": {"name": "Pizzo Mondelli / Punta Mondelli", "elevation_m": 2958}}, {"type": "Feature", "geometry": {"type": "Point", "coordinates": [7.7345, 46.03695]}, "properties": {"name": "Wisshorn", "elevation_m": 2936}}, {"type": "Feature", "geometry": {"type": "Point", "coordinates": [7.99918, 45.9854]}, "properties": {"name": "Battel", "elevation_m": 2928}}, {"type": "Feature", "geometry": {"type": "Point", "coordinates": [7.75779, 45.98114]}, "properties": {"name": "Riffelhorn", "elevation_m": 2927}}, {"type": "Feature", "geometry": {"type": "Point", "coordinates": [7.56969, 45.93677]}, "properties": {"name": "Petite T\u00eate de Bella Tsa", "elevation_m": 2917}}, {"type": "Feature", "geometry": {"type": "Point", "coordinates": [7.57576, 45.93547]}, "properties": {"name": "Grande T\u00eate de Bella Tsa", "elevation_m": 2917}}, {"type": "Feature", "geometry": {"type": "Point", "coordinates": [7.5582, 46.0286]}, "properties": {"name": "Mont Min\u00e9", "elevation_m": 2914}}, {"type": "Feature", "geometry": {"type": "Point", "coordinates": [7.88673, 45.88777]}, "properties": {"name": "La Malfatta", "elevation_m": 2912}}, {"type": "Feature", "geometry": {"type": "Point", "coordinates": [7.98281, 45.99452]}, "properties": {"name": "Punta San Pietro", "elevation_m": 2905}}, {"type": "Feature", "geometry": {"type": "Point", "coordinates": [7.96134, 45.89724]}, "properties": {"name": "Corno Piglim\u00f2", "elevation_m": 2894}}, {"type": "Feature", "geometry": {"type": "Point", "coordinates": [7.75622, 46.11682]}, "properties": {"name": "Gross Kastel", "elevation_m": 2893}}, {"type": "Feature", "geometry": {"type": "Point", "coordinates": [7.69688, 45.99024]}, "properties": {"name": "Hirli", "elevation_m": 2890}}, {"type": "Feature", "geometry": {"type": "Point", "coordinates": [7.5314, 45.90294]}, "properties": {"name": "Monte Charvin", "elevation_m": 2888}}, {"type": "Feature", "geometry": {"type": "Point", "coordinates": [7.81509, 46.09872]}, "properties": {"name": "Gross Haupt", "elevation_m": 2872}}, {"type": "Feature", "geometry": {"type": "Point", "coordinates": [7.65385, 45.91823]}, "properties": {"name": "Motta di Plet\u00e9 Centrale", "elevation_m": 2870}}, {"type": "Feature", "geometry": {"type": "Point", "coordinates": [7.94273, 46.0436]}, "properties": {"name": "Schwarzbergchopf", "elevation_m": 2869}}, {"type": "Feature", "geometry": {"type": "Point", "coordinates": [7.571, 46.0531]}, "properties": {"name": "La Maya", "elevation_m": 2867}}, {"type": "Feature", "geometry": {"type": "Point", "coordinates": [7.75128, 46.06516]}, "properties": {"name": "Getschung", "elevation_m": 2863}}, {"type": "Feature", "geometry": {"type": "Point", "coordinates": [7.55491, 45.9182]}, "properties": {"name": "Petit Mont Dragon", "elevation_m": 2856}}, {"type": "Feature", "geometry": {"type": "Point", "coordinates": [7.98202, 46.02104]}, "properties": {"name": "Galmenhorn", "elevation_m": 2846}}, {"type": "Feature", "geometry": {"type": "Point", "coordinates": [7.64874, 45.91246]}, "properties": {"name": "Motta di Pl\u00e9t\u00e9 Occidentale", "elevation_m": 2840}}, {"type": "Feature", "geometry": {"type": "Point", "coordinates": [7.97787, 46.09222]}, "properties": {"name": "Unters Horn", "elevation_m": 2811}}, {"type": "Feature", "geometry": {"type": "Point", "coordinates": [7.89933, 46.10956]}, "properties": {"name": "Oberes Distelhorn", "elevation_m": 2806}}, {"type": "Feature", "geometry": {"type": "Point", "coordinates": [7.96322, 45.88431]}, "properties": {"name": "Corno Mud", "elevation_m": 2802}}, {"type": "Feature", "geometry": {"type": "Point", "coordinates": [7.99948, 45.91283]}, "properties": {"name": "Pizzo Montevecchio", "elevation_m": 2789}}, {"type": "Feature", "geometry": {"type": "Point", "coordinates": [7.75332, 46.11338]}, "properties": {"name": "Chli Kastel", "elevation_m": 2786}}, {"type": "Feature", "geometry": {"type": "Point", "coordinates": [7.93242, 45.94791]}, "properties": {"name": "Punta Battisti", "elevation_m": 2754}}, {"type": "Feature", "geometry": {"type": "Point", "coordinates": [7.59719, 45.89949]}, "properties": {"name": "Mont Seriola", "elevation_m": 2752}}, {"type": "Feature", "geometry": {"type": "Point", "coordinates": [7.8993, 46.11266]}, "properties": {"name": "T\u00e4llihorn", "elevation_m": 2749}}, {"type": "Feature", "geometry": {"type": "Point", "coordinates": [7.96327, 45.89243]}, "properties": {"name": "Punta Chiara", "elevation_m": 2747}}, {"type": "Feature", "geometry": {"type": "Point", "coordinates": [7.9545, 45.94757]}, "properties": {"name": "Pizzo Nero", "elevation_m": 2738}}, {"type": "Feature", "geometry": {"type": "Point", "coordinates": [7.76802, 45.99803]}, "properties": {"name": "Gugle", "elevation_m": 2721}}, {"type": "Feature", "geometry": {"type": "Point", "coordinates": [7.90924, 46.11856]}, "properties": {"name": "M\u00e4llig", "elevation_m": 2700}}, {"type": "Feature", "geometry": {"type": "Point", "coordinates": [7.89762, 45.94725]}, "properties": {"name": "Crestone Marinelli", "elevation_m": 2675}}, {"type": "Feature", "geometry": {"type": "Point", "coordinates": [7.71321, 45.89328]}, "properties": {"name": "Palon di Tzere", "elevation_m": 2671}}, {"type": "Feature", "geometry": {"type": "Point", "coordinates": [7.90145, 46.10784]}, "properties": {"name": "Unteres Distelhorn", "elevation_m": 2638}}, {"type": "Feature", "geometry": {"type": "Point", "coordinates": [7.97009, 45.90319]}, "properties": {"name": "Piccolo Altare", "elevation_m": 2627}}, {"type": "Feature", "geometry": {"type": "Point", "coordinates": [7.64059, 45.91959]}, "properties": {"name": "Bec Pio Merlo", "elevation_m": 2620}}, {"type": "Feature", "geometry": {"type": "Point", "coordinates": [7.60207, 45.88373]}, "properties": {"name": "Monte Pancherot", "elevation_m": 2614}}, {"type": "Feature", "geometry": {"type": "Point", "coordinates": [7.98881, 45.91276]}, "properties": {"name": "Il V\u00e8", "elevation_m": 2606}}, {"type": "Feature", "geometry": {"type": "Point", "coordinates": [7.64519, 46.11892]}, "properties": {"name": "Roc de la Vache", "elevation_m": 2581}}, {"type": "Feature", "geometry": {"type": "Point", "coordinates": [7.74439, 45.9859]}, "properties": {"name": "Gagenhaupt", "elevation_m": 2568}}, {"type": "Feature", "geometry": {"type": "Point", "coordinates": [7.97742, 45.98777]}, "properties": {"name": "Ruppenstein", "elevation_m": 2501}}, {"type": "Feature", "geometry": {"type": "Point", "coordinates": [7.94968, 45.9833]}, "properties": {"name": "Faderhorn", "elevation_m": 2475}}, {"type": "Feature", "geometry": {"type": "Point", "coordinates": [7.7985, 46.08339]}, "properties": {"name": "Tro\u00e4re", "elevation_m": 2396}}, {"type": "Feature", "geometry": {"type": "Point", "coordinates": [7.50796, 46.07132]}, "properties": {"name": "Roc Vieux", "elevation_m": 2213}}, {"type": "Feature", "geometry": {"type": "Point", "coordinates": [7.98571, 45.88561]}, "properties": {"name": "Corno di Rima", "elevation_m": 2122}}]}