<?xml version="1.0" encoding="UTF-8"?>
<gpx version="1.1" creator="OnlyMapJS example data" xmlns="http://www.topografix.com/GPX/1/1">
  <metadata><name>Schwarzsee to the Hoernli ridge</name></metadata>
  <wpt lat="45.9822" lon="7.67701"><name>Hörnlihütte</name><ele>3260</ele></wpt>
  <wpt lat="45.99024" lon="7.69688"><name>Hirli</name><ele>2890</ele></wpt>
  <trk><name>Schwarzsee to the Hoernli ridge</name><trkseg>
    <trkpt lat="45.994679" lon="7.682291"><ele>2525</ele></trkpt>
    <trkpt lat="45.994642" lon="7.682446"><ele>2525</ele></trkpt>
    <trkpt lat="45.994606" lon="7.682696"><ele>2524</ele></trkpt>
    <trkpt lat="45.994603" lon="7.682865"><ele>2524</ele></trkpt>
    <trkpt lat="45.994567" lon="7.683045"><ele>2524</ele></trkpt>
    <trkpt lat="45.994445" lon="7.683018"><ele>2524</ele></trkpt>
    <trkpt lat="45.994319" lon="7.683032"><ele>2524</ele></trkpt>
    <trkpt lat="45.994209" lon="7.683267"><ele>2524</ele></trkpt>
    <trkpt lat="45.994114" lon="7.683350"><ele>2578</ele></trkpt>
    <trkpt lat="45.994026" lon="7.683497"><ele>2578</ele></trkpt>
    <trkpt lat="45.993910" lon="7.683875"><ele>2578</ele></trkpt>
    <trkpt lat="45.993730" lon="7.684145"><ele>2578</ele></trkpt>
    <trkpt lat="45.993542" lon="7.684428"><ele>2558</ele></trkpt>
    <trkpt lat="45.993485" lon="7.684569"><ele>2558</ele></trkpt>
    <trkpt lat="45.993256" lon="7.685052"><ele>2596</ele></trkpt>
    <trkpt lat="45.993117" lon="7.685288"><ele>2596</ele></trkpt>
    <trkpt lat="45.992879" lon="7.685817"><ele>2596</ele></trkpt>
    <trkpt lat="45.992798" lon="7.686112"><ele>2595</ele></trkpt>
    <trkpt lat="45.992699" lon="7.686300"><ele>2595</ele></trkpt>
    <trkpt lat="45.992683" lon="7.686642"><ele>2595</ele></trkpt>
    <trkpt lat="45.992569" lon="7.686771"><ele>2595</ele></trkpt>
    <trkpt lat="45.992356" lon="7.686771"><ele>2634</ele></trkpt>
    <trkpt lat="45.992163" lon="7.686915"><ele>2634</ele></trkpt>
    <trkpt lat="45.992045" lon="7.686938"><ele>2634</ele></trkpt>
    <trkpt lat="45.991933" lon="7.686861"><ele>2634</ele></trkpt>
    <trkpt lat="45.991856" lon="7.686740"><ele>2634</ele></trkpt>
    <trkpt lat="45.991767" lon="7.686606"><ele>2632</ele></trkpt>
    <trkpt lat="45.991724" lon="7.686773"><ele>2634</ele></trkpt>
    <trkpt lat="45.991603" lon="7.686901"><ele>2666</ele></trkpt>
    <trkpt lat="45.991437" lon="7.686909"><ele>2666</ele></trkpt>
    <trkpt lat="45.991333" lon="7.687073"><ele>2666</ele></trkpt>
    <trkpt lat="45.991301" lon="7.687256"><ele>2666</ele></trkpt>
    <trkpt lat="45.991126" lon="7.687244"><ele>2666</ele></trkpt>
    <trkpt lat="45.991009" lon="7.687268"><ele>2666</ele></trkpt>
    <trkpt lat="45.990986" lon="7.687463"><ele>2666</ele></trkpt>
    <trkpt lat="45.990837" lon="7.687397"><ele>2666</ele></trkpt>
    <trkpt lat="45.990706" lon="7.687482"><ele>2722</ele></trkpt>
    <trkpt lat="45.990409" lon="7.687242"><ele>2722</ele></trkpt>
    <trkpt lat="45.990286" lon="7.687572"><ele>2726</ele></trkpt>
    <trkpt lat="45.990249" lon="7.687853"><ele>2726</ele></trkpt>
    <trkpt lat="45.990115" lon="7.687797"><ele>2726</ele></trkpt>
    <trkpt lat="45.990007" lon="7.687775"><ele>2726</ele></trkpt>
    <trkpt lat="45.989899" lon="7.687714"><ele>2780</ele></trkpt>
    <trkpt lat="45.989778" lon="7.687681"><ele>2780</ele></trkpt>
    <trkpt lat="45.989689" lon="7.687576"><ele>2780</ele></trkpt>
    <trkpt lat="45.989573" lon="7.687508"><ele>2780</ele></trkpt>
    <trkpt lat="45.989410" lon="7.687426"><ele>2772</ele></trkpt>
    <trkpt lat="45.989296" lon="7.687411"><ele>2772</ele></trkpt>
    <trkpt lat="45.989160" lon="7.687435"><ele>2772</ele></trkpt>
    <trkpt lat="45.989048" lon="7.687419"><ele>2800</ele></trkpt>
    <trkpt lat="45.988900" lon="7.687416"><ele>2800</ele></trkpt>
    <trkpt lat="45.988744" lon="7.687429"><ele>2800</ele></trkpt>
    <trkpt lat="45.988608" lon="7.687462"><ele>2800</ele></trkpt>
    <trkpt lat="45.988459" lon="7.687400"><ele>2800</ele></trkpt>
    <trkpt lat="45.988339" lon="7.687396"><ele>2800</ele></trkpt>
    <trkpt lat="45.988110" lon="7.687348"><ele>2840</ele></trkpt>
    <trkpt lat="45.988002" lon="7.687323"><ele>2840</ele></trkpt>
    <trkpt lat="45.987840" lon="7.687310"><ele>2840</ele></trkpt>
    <trkpt lat="45.987688" lon="7.687267"><ele>2840</ele></trkpt>
    <trkpt lat="45.987572" lon="7.687206"><ele>2840</ele></trkpt>
    <trkpt lat="45.987465" lon="7.687152"><ele>2891</ele></trkpt>
    <trkpt lat="45.987302" lon="7.687004"><ele>2891</ele></trkpt>
    <trkpt lat="45.987178" lon="7.686884"><ele>2891</ele></trkpt>
    <trkpt lat="45.987075" lon="7.686745"><ele>2891</ele></trkpt>
    <trkpt lat="45.986987" lon="7.686606"><ele>2884</ele></trkpt>
    <trkpt lat="45.986839" lon="7.686503"><ele>2884</ele></trkpt>
    <trkpt lat="45.986759" lon="7.686353"><ele>2884</ele></trkpt>
    <trkpt lat="45.986628" lon="7.686216"><ele>2925</ele></trkpt>
    <trkpt lat="45.986737" lon="7.686610"><ele>2884</ele></trkpt>
    <trkpt lat="45.987043" lon="7.687416"><ele>2891</ele></trkpt>
    <trkpt lat="45.987892" lon="7.688691"><ele>2891</ele></trkpt>
    <trkpt lat="45.988067" lon="7.689205"><ele>2903</ele></trkpt>
    <trkpt lat="45.988226" lon="7.689830"><ele>2903</ele></trkpt>
    <trkpt lat="45.988333" lon="7.690190"><ele>2881</ele></trkpt>
    <trkpt lat="45.988436" lon="7.690414"><ele>2881</ele></trkpt>
    <trkpt lat="45.988472" lon="7.690597"><ele>2881</ele></trkpt>
    <trkpt lat="45.988512" lon="7.691088"><ele>2890</ele></trkpt>
    <trkpt lat="45.988529" lon="7.691443"><ele>2890</ele></trkpt>
    <trkpt lat="45.988507" lon="7.691611"><ele>2890</ele></trkpt>
    <trkpt lat="45.988513" lon="7.692115"><ele>2880</ele></trkpt>
    <trkpt lat="45.988527" lon="7.692362"><ele>2880</ele></trkpt>
    <trkpt lat="45.988467" lon="7.692697"><ele>2857</ele></trkpt>
    <trkpt lat="45.988735" lon="7.692565"><ele>2857</ele></trkpt>
    <trkpt lat="45.988607" lon="7.692921"><ele>2857</ele></trkpt>
    <trkpt lat="45.988547" lon="7.693399"><ele>2845</ele></trkpt>
    <trkpt lat="45.988475" lon="7.693552"><ele>2845</ele></trkpt>
    <trkpt lat="45.988459" lon="7.693722"><ele>2845</ele></trkpt>
    <trkpt lat="45.988363" lon="7.693810"><ele>2845</ele></trkpt>
    <trkpt lat="45.988404" lon="7.693657"><ele>2845</ele></trkpt>
    <trkpt lat="45.988379" lon="7.693497"><ele>2845</ele></trkpt>
    <trkpt lat="45.988324" lon="7.693350"><ele>2849</ele></trkpt>
    <trkpt lat="45.988305" lon="7.692995"><ele>2867</ele></trkpt>
    <trkpt lat="45.988265" lon="7.693213"><ele>2867</ele></trkpt>
    <trkpt lat="45.988168" lon="7.692812"><ele>2867</ele></trkpt>
    <trkpt lat="45.988108" lon="7.693015"><ele>2867</ele></trkpt>
    <trkpt lat="45.988128" lon="7.693194"><ele>2867</ele></trkpt>
    <trkpt lat="45.988187" lon="7.693505"><ele>2849</ele></trkpt>
    <trkpt lat="45.988207" lon="7.693907"><ele>2849</ele></trkpt>
    <trkpt lat="45.988254" lon="7.694055"><ele>2849</ele></trkpt>
    <trkpt lat="45.988236" lon="7.694244"><ele>2841</ele></trkpt>
    <trkpt lat="45.988352" lon="7.694818"><ele>2860</ele></trkpt>
    <trkpt lat="45.988383" lon="7.695033"><ele>2877</ele></trkpt>
    <trkpt lat="45.988868" lon="7.696173"><ele>2857</ele></trkpt>
    <trkpt lat="45.989332" lon="7.696896"><ele>2845</ele></trkpt>
    <trkpt lat="45.989597" lon="7.697794"><ele>2790</ele></trkpt>
    <trkpt lat="45.989613" lon="7.697986"><ele>2790</ele></trkpt>
    <trkpt lat="45.989668" lon="7.698126"><ele>2790</ele></trkpt>
    <trkpt lat="45.989620" lon="7.698302"><ele>2790</ele></trkpt>
    <trkpt lat="45.989633" lon="7.698641"><ele>2756</ele></trkpt>
    <trkpt lat="45.989592" lon="7.698836"><ele>2756</ele></trkpt>
    <trkpt lat="45.989526" lon="7.698996"><ele>2756</ele></trkpt>
    <trkpt lat="45.989194" lon="7.698783"><ele>2756</ele></trkpt>
    <trkpt lat="45.989004" lon="7.698724"><ele>2760</ele></trkpt>
    <trkpt lat="45.988783" lon="7.698478"><ele>2760</ele></trkpt>
    <trkpt lat="45.988593" lon="7.698355"><ele>2760</ele></trkpt>
    <trkpt lat="45.988481" lon="7.698163"><ele>2762</ele></trkpt>
    <trkpt lat="45.988232" lon="7.697602"><ele>2757</ele></trkpt>
    <trkpt lat="45.988090" lon="7.697363"><ele>2757</ele></trkpt>
    <trkpt lat="45.987854" lon="7.697206"><ele>2757</ele></trkpt>
    <trkpt lat="45.987685" lon="7.697054"><ele>2757</ele></trkpt>
    <trkpt lat="45.987451" lon="7.696639"><ele>2744</ele></trkpt>
    <trkpt lat="45.987221" lon="7.696176"><ele>2744</ele></trkpt>
    <trkpt lat="45.986933" lon="7.695911"><ele>2744</ele></trkpt>
    <trkpt lat="45.986714" lon="7.695370"><ele>2749</ele></trkpt>
    <trkpt lat="45.986463" lon="7.695049"><ele>2734</ele></trkpt>
    <trkpt lat="45.986317" lon="7.694762"><ele>2728</ele></trkpt>
    <trkpt lat="45.986221" lon="7.694573"><ele>2728</ele></trkpt>
    <trkpt lat="45.985932" lon="7.694318"><ele>2728</ele></trkpt>
    <trkpt lat="45.985656" lon="7.693981"><ele>2698</ele></trkpt>
    <trkpt lat="45.985449" lon="7.693706"><ele>2698</ele></trkpt>
    <trkpt lat="45.985274" lon="7.693436"><ele>2698</ele></trkpt>
    <trkpt lat="45.984996" lon="7.693239"><ele>2698</ele></trkpt>
    <trkpt lat="45.984878" lon="7.693231"><ele>2678</ele></trkpt>
    <trkpt lat="45.984692" lon="7.693328"><ele>2686</ele></trkpt>
    <trkpt lat="45.984524" lon="7.693406"><ele>2686</ele></trkpt>
    <trkpt lat="45.984386" lon="7.693456"><ele>2686</ele></trkpt>
    <trkpt lat="45.984400" lon="7.693230"><ele>2678</ele></trkpt>
    <trkpt lat="45.984216" lon="7.692926"><ele>2678</ele></trkpt>
    <trkpt lat="45.984098" lon="7.692586"><ele>2682</ele></trkpt>
    <trkpt lat="45.984032" lon="7.692404"><ele>2678</ele></trkpt>
    <trkpt lat="45.984038" lon="7.692236"><ele>2678</ele></trkpt>
    <trkpt lat="45.983949" lon="7.692026"><ele>2678</ele></trkpt>
    <trkpt lat="45.983771" lon="7.691834"><ele>2678</ele></trkpt>
    <trkpt lat="45.983634" lon="7.691575"><ele>2678</ele></trkpt>
    <trkpt lat="45.983501" lon="7.691364"><ele>2678</ele></trkpt>
    <trkpt lat="45.983338" lon="7.691187"><ele>2678</ele></trkpt>
    <trkpt lat="45.983089" lon="7.690854"><ele>2681</ele></trkpt>
    <trkpt lat="45.982920" lon="7.690575"><ele>2682</ele></trkpt>
  </trkseg></trk>
</gpx>
