<?xml version="1.0" encoding="UTF-8"?>
<gpx version="1.1" creator="test" xmlns="http://www.topografix.com/GPX/1/1">
  <wpt lat="37.778" lon="-122.42"><name>Start</name><ele>15.5</ele><sat>8</sat></wpt>
  <wpt lat="37.801" lon="-122.41"><name>0012</name></wpt>
  <trk><name>Morning hike</name><trkseg>
    <trkpt lat="37.778" lon="-122.42"><ele>10</ele></trkpt>
    <trkpt lat="37.779" lon="-122.419"><ele>12</ele></trkpt>
    <trkpt lat="37.781" lon="-122.415"><ele>20</ele></trkpt>
  </trkseg></trk>
  <rte><name>Route A</name><rtept lat="37.77" lon="-122.43"></rtept><rtept lat="37.79" lon="-122.40"></rtept></rte>
</gpx>
