{
 "type": "FeatureCollection",
 "features": [
  {
   "type": "Feature",
   "id": "north-beach",
   "properties": {
    "name": "North Beach",
    "population": 12400,
    "area_km2": 0.9,
    "founded": 1847
   },
   "geometry": {
    "type": "Polygon",
    "coordinates": [
     [
      [
       -122.416,
       37.8064
      ],
      [
       -122.4046,
       37.8064
      ],
      [
       -122.4046,
       37.7996
      ],
      [
       -122.4088,
       37.7976
      ],
      [
       -122.4142,
       37.7986
      ],
      [
       -122.416,
       37.8022
      ],
      [
       -122.416,
       37.8064
      ]
     ]
    ]
   }
  },
  {
   "type": "Feature",
   "id": "mission",
   "properties": {
    "name": "Mission",
    "population": 58900,
    "area_km2": 3.8,
    "founded": 1776
   },
   "geometry": {
    "type": "Polygon",
    "coordinates": [
     [
      [
       -122.4265,
       37.7695
      ],
      [
       -122.4158,
       37.7695
      ],
      [
       -122.4108,
       37.7648
      ],
      [
       -122.4065,
       37.7648
      ],
      [
       -122.4065,
       37.7476
      ],
      [
       -122.4247,
       37.7476
      ],
      [
       -122.4265,
       37.7592
      ],
      [
       -122.4265,
       37.7695
      ]
     ]
    ]
   }
  },
  {
   "type": "Feature",
   "id": "sunset",
   "properties": {
    "name": "Sunset",
    "population": 85300,
    "area_km2": 10.0,
    "founded": 1890
   },
   "geometry": {
    "type": "Polygon",
    "coordinates": [
     [
      [
       -122.5105,
       37.7655
      ],
      [
       -122.4757,
       37.7655
      ],
      [
       -122.4757,
       37.7345
      ],
      [
       -122.5048,
       37.7345
      ],
      [
       -122.5088,
       37.7455
      ],
      [
       -122.51,
       37.756
      ],
      [
       -122.5105,
       37.7655
      ]
     ]
    ]
   }
  }
 ]
}
