{"type":"FeatureCollection","features":[{"type":"Feature","geometry":{"type":"Point","coordinates":[103.800959,1.440637]},"properties":{"name":"Admiralty","name_zh":"\u6d77\u519b\u90e8","codes":"NS10","line":"NS","color":"#DF2518","network":"mrt","year":1996}},{"type":"Feature","geometry":{"type":"Point","coordinates":[103.882909,1.316452]},"properties":{"name":"Aljunied","name_zh":"\u963f\u88d5\u5c3c","codes":"EW9","line":"EW","color":"#009D57","network":"mrt","year":1989}},{"type":"Feature","geometry":{"type":"Point","coordinates":[103.849523,1.37008]},"properties":{"name":"Ang Mo Kio","name_zh":"\u5b8f\u8302\u6865","codes":"NS16","line":"NS","color":"#DF2518","network":"mrt","year":1987}},{"type":"Feature","geometry":{"type":"Point","coordinates":[103.905418,1.388008]},"properties":{"name":"Bakau","name_zh":"\u7801\u9ad8","codes":"SE3","line":"SE","color":"#748477","network":"lrt","year":2003}},{"type":"Feature","geometry":{"type":"Point","coordinates":[103.77265,1.380041]},"properties":{"name":"Bangkit","name_zh":"\u4e07\u5409","codes":"BP9","line":"BP","color":"#748477","network":"lrt","year":1999}},{"type":"Feature","geometry":{"type":"Point","coordinates":[103.879704,1.342907]},"properties":{"name":"Bartley","name_zh":"\u5df4\u7279\u793c","codes":"CC12","line":"CC","color":"#F79F07","network":"mrt","year":2009}},{"type":"Feature","geometry":{"type":"Point","coordinates":[103.859681,1.282602]},"properties":{"name":"Bayfront","name_zh":"\u6d77\u6e7e\u822b","codes":"DT16-CE1","line":"DT","color":"#03529F","network":"mrt","year":2012}},{"type":"Feature","geometry":{"type":"Point","coordinates":[103.942309,1.312834]},"properties":{"name":"Bayshore","name_zh":"\u78a7\u6e7e","codes":"TE29","line":"TE","color":"#9D5B25","network":"mrt","year":2024}},{"type":"Feature","geometry":{"type":"Point","coordinates":[103.775878,1.341091]},"properties":{"name":"Beauty World","name_zh":"\u7f8e\u4e16\u754c","codes":"DT5","line":"DT","color":"#03529F","network":"mrt","year":2015}},{"type":"Feature","geometry":{"type":"Point","coordinates":[103.930217,1.323967]},"properties":{"name":"Bedok","name_zh":"\u52ff\u6d1b","codes":"EW5","line":"EW","color":"#009D57","network":"mrt","year":1989}},{"type":"Feature","geometry":{"type":"Point","coordinates":[103.918312,1.334599]},"properties":{"name":"Bedok North","name_zh":"\u52ff\u6d1b\u5317","codes":"DT29","line":"DT","color":"#03529F","network":"mrt","year":2017}},{"type":"Feature","geometry":{"type":"Point","coordinates":[103.932465,1.336604]},"properties":{"name":"Bedok Reservoir","name_zh":"\u52ff\u6d1b\u84c4\u6c34\u6c60","codes":"DT30","line":"DT","color":"#03529F","network":"mrt","year":2017}},{"type":"Feature","geometry":{"type":"Point","coordinates":[103.85028,1.29852]},"properties":{"name":"Bencoolen","name_zh":"\u660e\u53e4\u8fde","codes":"DT21","line":"DT","color":"#03529F","network":"mrt","year":2017}},{"type":"Feature","geometry":{"type":"Point","coordinates":[103.862725,1.313636]},"properties":{"name":"Bendemeer","name_zh":"\u660e\u5730\u8ff7\u4e9a","codes":"DT23","line":"DT","color":"#03529F","network":"mrt","year":2017}},{"type":"Feature","geometry":{"type":"Point","coordinates":[103.849039,1.350989]},"properties":{"name":"Bishan","name_zh":"\u78a7\u5c71","codes":"NS17-CC15","line":"NS","color":"#DF2518","network":"mrt","year":1987}},{"type":"Feature","geometry":{"type":"Point","coordinates":[103.861555,1.319133]},"properties":{"name":"Boon Keng","name_zh":"\u6587\u5e86","codes":"NE9","line":"NE","color":"#851197","network":"mrt","year":2003}},{"type":"Feature","geometry":{"type":"Point","coordinates":[103.705812,1.33855]},"properties":{"name":"Boon Lay","name_zh":"\u6587\u793c","codes":"EW27","line":"EW","color":"#009D57","network":"mrt","year":1990}},{"type":"Feature","geometry":{"type":"Point","coordinates":[103.815647,1.322103]},"properties":{"name":"Botanic Gardens","name_zh":"\u690d\u7269\u56ed","codes":"CC19-DT9","line":"CC","color":"#F79F07","network":"mrt","year":2015}},{"type":"Feature","geometry":{"type":"Point","coordinates":[103.846923,1.340302]},"properties":{"name":"Braddell","name_zh":"\u5e03\u83b1\u5fb7","codes":"NS18","line":"NS","color":"#DF2518","network":"mrt","year":1987}},{"type":"Feature","geometry":{"type":"Point","coordinates":[103.850749,1.296877]},"properties":{"name":"Bras Basah","name_zh":"\u767e\u80dc","codes":"CC2","line":"CC","color":"#F79F07","network":"mrt","year":2010}},{"type":"Feature","geometry":{"type":"Point","coordinates":[103.834818,1.363063]},"properties":{"name":"Bright Hill","name_zh":"\u5149\u660e\u5c71","codes":"TE7","line":"TE","color":"#9D5B25","network":"mrt","year":2021}},{"type":"Feature","geometry":{"type":"Point","coordinates":[103.893135,1.382974]},"properties":{"name":"Buangkok","name_zh":"\u4e07\u56fd","codes":"NE15","line":"NE","color":"#851197","network":"mrt","year":2006}},{"type":"Feature","geometry":{"type":"Point","coordinates":[103.856275,1.299946]},"properties":{"name":"Bugis","name_zh":"\u6b66\u5409\u58eb","codes":"EW12-DT14","line":"EW","color":"#009D57","network":"mrt","year":1989}},{"type":"Feature","geometry":{"type":"Point","coordinates":[103.749591,1.349057]},"properties":{"name":"Bukit Batok","name_zh":"\u6b66\u5409\u5df4\u7763","codes":"NS2","line":"NS","color":"#DF2518","network":"mrt","year":1990}},{"type":"Feature","geometry":{"type":"Point","coordinates":[103.751825,1.358893]},"properties":{"name":"Bukit Gombak","name_zh":"\u6b66\u5409\u7518\u67cf","codes":"NS3","line":"NS","color":"#DF2518","network":"mrt","year":1990}},{"type":"Feature","geometry":{"type":"Point","coordinates":[103.761534,1.379101]},"properties":{"name":"Bukit Panjang","name_zh":"\u6b66\u5409\u73ed\u8ba9","codes":"DT1-BP6","line":"DT","color":"#03529F","network":"mrt","year":2015}},{"type":"Feature","geometry":{"type":"Point","coordinates":[103.790345,1.306626]},"properties":{"name":"Buona Vista","name_zh":"\u6ce2\u90a3\u7ef4\u65af\u8fbe","codes":"EW21-CC22","line":"EW","color":"#009D57","network":"mrt","year":1988}},{"type":"Feature","geometry":{"type":"Point","coordinates":[103.839814,1.337367]},"properties":{"name":"Caldecott","name_zh":"\u52a0\u5229\u8c37","codes":"CC17-TE9","line":"CC","color":"#F79F07","network":"mrt","year":2011}},{"type":"Feature","geometry":{"type":"Point","coordinates":[103.82963,1.443213]},"properties":{"name":"Canberra","name_zh":"\u574e\u8d1d\u62c9","codes":"NS12","line":"NS","color":"#DF2518","network":"mrt","year":2019}},{"type":"Feature","geometry":{"type":"Point","coordinates":[103.76473,1.36936]},"properties":{"name":"Cashew","name_zh":"\u51ef\u79c0","codes":"DT2","line":"DT","color":"#03529F","network":"mrt","year":2015}},{"type":"Feature","geometry":{"type":"Point","coordinates":[103.988533,1.357573]},"properties":{"name":"Changi Airport","name_zh":"\u6a1f\u5b9c\u673a\u573a","codes":"CG2","line":"CG","color":"#009D57","network":"mrt","year":2002}},{"type":"Feature","geometry":{"type":"Point","coordinates":[103.89379,1.396292]},"properties":{"name":"Cheng Lim","name_zh":"\u632f\u6797","codes":"SW1","line":"SW","color":"#748477","network":"lrt","year":2005}},{"type":"Feature","geometry":{"type":"Point","coordinates":[103.844135,1.284688]},"properties":{"name":"Chinatown","name_zh":"\u725b\u8f66\u6c34","codes":"NE4-DT19","line":"NE","color":"#851197","network":"mrt","year":2003}},{"type":"Feature","geometry":{"type":"Point","coordinates":[103.732547,1.342414]},"properties":{"name":"Chinese Garden","name_zh":"\u88d5\u534e\u56ed","codes":"EW25","line":"EW","color":"#009D57","network":"mrt","year":1988}},{"type":"Feature","geometry":{"type":"Point","coordinates":[103.744534,1.384749]},"properties":{"name":"Choa Chu Kang","name_zh":"\u8521\u539d\u6e2f","codes":"NS4-BP1","line":"NS","color":"#DF2518","network":"mrt","year":1990}},{"type":"Feature","geometry":{"type":"Point","coordinates":[103.852618,1.293047]},"properties":{"name":"City Hall","name_zh":"\u653f\u5e9c\u5927\u53a6","codes":"NS25-EW13","line":"NS","color":"#DF2518","network":"mrt","year":1987}},{"type":"Feature","geometry":{"type":"Point","coordinates":[103.846598,1.28826]},"properties":{"name":"Clarke Quay","name_zh":"\u514b\u62c9\u7801\u5934","codes":"NE5","line":"NE","color":"#851197","network":"mrt","year":2003}},{"type":"Feature","geometry":{"type":"Point","coordinates":[103.765904,1.316134]},"properties":{"name":"Clementi","name_zh":"\u91d1\u6587\u6cf0","codes":"EW23","line":"EW","color":"#009D57","network":"mrt","year":1988}},{"type":"Feature","geometry":{"type":"Point","coordinates":[103.798309,1.302443]},"properties":{"name":"Commonwealth","name_zh":"\u8054\u90a6","codes":"EW20","line":"EW","color":"#009D57","network":"mrt","year":1988}},{"type":"Feature","geometry":{"type":"Point","coordinates":[103.900435,1.394518]},"properties":{"name":"Compassvale","name_zh":"\u5eb7\u57d4\u6866","codes":"SE1","line":"SE","color":"#748477","network":"lrt","year":2003}},{"type":"Feature","geometry":{"type":"Point","coordinates":[103.912667,1.39385]},"properties":{"name":"Coral Edge","name_zh":"\u73ca\u745a","codes":"PE3","line":"PE","color":"#748477","network":"lrt","year":2005}},{"type":"Feature","geometry":{"type":"Point","coordinates":[103.905802,1.399461]},"properties":{"name":"Cove","name_zh":"\u6d77\u6e7e","codes":"PE1","line":"PE","color":"#748477","network":"lrt","year":2005}},{"type":"Feature","geometry":{"type":"Point","coordinates":[103.888616,1.308431]},"properties":{"name":"Dakota","name_zh":"\u8fbe\u79d1\u8fbe","codes":"CC8","line":"CC","color":"#F79F07","network":"mrt","year":2010}},{"type":"Feature","geometry":{"type":"Point","coordinates":[103.908618,1.405241]},"properties":{"name":"Damai","name_zh":"\u8fbe\u8fc8","codes":"PE7","line":"PE","color":"#748477","network":"lrt","year":2005}},{"type":"Feature","geometry":{"type":"Point","coordinates":[103.845554,1.299602]},"properties":{"name":"Dhoby Ghaut","name_zh":"\u591a\u7f8e\u6b4c","codes":"NS24-NE6-CC1","line":"NS","color":"#DF2518","network":"mrt","year":1987}},{"type":"Feature","geometry":{"type":"Point","coordinates":[103.778611,1.311416]},"properties":{"name":"Dover","name_zh":"\u675c\u5f17","codes":"EW22","line":"EW","color":"#009D57","network":"mrt","year":2001}},{"type":"Feature","geometry":{"type":"Point","coordinates":[103.852791,1.279511]},"properties":{"name":"Downtown","name_zh":"\u5e02\u4e2d\u5fc3","codes":"DT17","line":"DT","color":"#03529F","network":"mrt","year":2013}},{"type":"Feature","geometry":{"type":"Point","coordinates":[103.855528,1.293441]},"properties":{"name":"Esplanade","name_zh":"\u6ee8\u6d77\u4e2d\u5fc3","codes":"CC3","line":"CC","color":"#F79F07","network":"mrt","year":2010}},{"type":"Feature","geometry":{"type":"Point","coordinates":[103.902889,1.319802]},"properties":{"name":"Eunos","name_zh":"\u53cb\u8bfa\u58eb","codes":"EW7","line":"EW","color":"#009D57","network":"mrt","year":1989}},{"type":"Feature","geometry":{"type":"Point","coordinates":[103.96266,1.335077]},"properties":{"name":"Expo","name_zh":"\u535a\u89c8","codes":"DT35-CG1","line":"DT","color":"#03529F","network":"mrt","year":2001}},{"type":"Feature","geometry":{"type":"Point","coordinates":[103.770875,1.384593]},"properties":{"name":"Fajar","name_zh":"\u6cd5\u5609","codes":"BP10","line":"BP","color":"#748477","network":"lrt","year":1999}},{"type":"Feature","geometry":{"type":"Point","coordinates":[103.889224,1.397195]},"properties":{"name":"Farmway","name_zh":"\u519c\u9053","codes":"SW2","line":"SW","color":"#748477","network":"lrt","year":2005}},{"type":"Feature","geometry":{"type":"Point","coordinates":[103.854337,1.31249]},"properties":{"name":"Farrer Park","name_zh":"\u82b1\u62c9\u516c\u56ed","codes":"NE8","line":"NE","color":"#851197","network":"mrt","year":2003}},{"type":"Feature","geometry":{"type":"Point","coordinates":[103.807489,1.317455]},"properties":{"name":"Farrer Road","name_zh":"\u82b1\u62c9\u8def","codes":"CC20","line":"CC","color":"#F79F07","network":"mrt","year":2011}},{"type":"Feature","geometry":{"type":"Point","coordinates":[103.876279,1.391904]},"properties":{"name":"Fernvale","name_zh":"\u82ac\u5fae","codes":"SW5","line":"SW","color":"#748477","network":"lrt","year":2005}},{"type":"Feature","geometry":{"type":"Point","coordinates":[103.844346,1.292488]},"properties":{"name":"Fort Canning","name_zh":"\u798f\u5eb7\u5b81","codes":"DT20","line":"DT","color":"#03529F","network":"mrt","year":2017}},{"type":"Feature","geometry":{"type":"Point","coordinates":[103.867945,1.279231]},"properties":{"name":"Gardens by the Bay","name_zh":"\u6ee8\u6d77\u6e7e\u82b1\u56ed","codes":"TE22","line":"TE","color":"#9D5B25","network":"mrt","year":2022}},{"type":"Feature","geometry":{"type":"Point","coordinates":[103.871959,1.321505]},"properties":{"name":"Geylang Bahru","name_zh":"\u82bd\u7b3c\u5cc7\u9c81","codes":"DT24","line":"DT","color":"#03529F","network":"mrt","year":2017}},{"type":"Feature","geometry":{"type":"Point","coordinates":[103.833341,1.294615]},"properties":{"name":"Great World","name_zh":"\u5927\u4e16\u754c","codes":"TE15","line":"TE","color":"#9D5B25","network":"mrt","year":2022}},{"type":"Feature","geometry":{"type":"Point","coordinates":[103.660655,1.319635]},"properties":{"name":"Gul Circle","name_zh":"\u5361\u5c14\u5708","codes":"EW30","line":"EW","color":"#009D57","network":"mrt","year":2017}},{"type":"Feature","geometry":{"type":"Point","coordinates":[103.821552,1.265362]},"properties":{"name":"HarbourFront","name_zh":"\u6e2f\u6e7e","codes":"NE1-CC29","line":"NE","color":"#851197","network":"mrt","year":2003}},{"type":"Feature","geometry":{"type":"Point","coordinates":[103.833674,1.288549]},"properties":{"name":"Havelock","name_zh":"\u5408\u4e50","codes":"TE16","line":"TE","color":"#9D5B25","network":"mrt","year":2022}},{"type":"Feature","geometry":{"type":"Point","coordinates":[103.781853,1.282678]},"properties":{"name":"Haw Par Villa","name_zh":"\u864e\u8c79\u522b\u5885","codes":"CC25","line":"CC","color":"#F79F07","network":"mrt","year":2011}},{"type":"Feature","geometry":{"type":"Point","coordinates":[103.767463,1.362349]},"properties":{"name":"Hillview","name_zh":"\u5c71\u666f","codes":"DT3","line":"DT","color":"#03529F","network":"mrt","year":2015}},{"type":"Feature","geometry":{"type":"Point","coordinates":[103.79641,1.311731]},"properties":{"name":"Holland Village","name_zh":"\u8377\u5170\u6751","codes":"CC21","line":"CC","color":"#F79F07","network":"mrt","year":2011}},{"type":"Feature","geometry":{"type":"Point","coordinates":[103.892754,1.371904]},"properties":{"name":"Hougang","name_zh":"\u540e\u6e2f","codes":"NE14","line":"NE","color":"#851197","network":"mrt","year":2003}},{"type":"Feature","geometry":{"type":"Point","coordinates":[103.769124,1.354468]},"properties":{"name":"Hume","name_zh":"\u8c26\u9053","codes":"DT4","line":"DT","color":"#03529F","network":"mrt","year":2025}},{"type":"Feature","geometry":{"type":"Point","coordinates":[103.855563,1.305374]},"properties":{"name":"Jalan Besar","name_zh":"\u60f9\u5170\u52ff\u5239","codes":"DT22","line":"DT","color":"#03529F","network":"mrt","year":2017}},{"type":"Feature","geometry":{"type":"Point","coordinates":[103.764514,1.386694]},"properties":{"name":"Jelapang","name_zh":"\u6cfd\u62c9\u90a6","codes":"BP12","line":"BP","color":"#748477","network":"lrt","year":1999}},{"type":"Feature","geometry":{"type":"Point","coordinates":[103.678222,1.327735]},"properties":{"name":"Joo Koon","name_zh":"\u88d5\u7fa4","codes":"EW29","line":"EW","color":"#009D57","network":"mrt","year":2009}},{"type":"Feature","geometry":{"type":"Point","coordinates":[103.742294,1.333108]},"properties":{"name":"Jurong East","name_zh":"\u88d5\u5eca\u4e1c","codes":"NS1-EW24","line":"NS","color":"#DF2518","network":"mrt","year":1988}},{"type":"Feature","geometry":{"type":"Point","coordinates":[103.916508,1.399549]},"properties":{"name":"Kadaloor","name_zh":"\u5361\u8fbe\u9c81","codes":"PE5","line":"PE","color":"#748477","network":"lrt","year":2005}},{"type":"Feature","geometry":{"type":"Point","coordinates":[103.908372,1.335069]},"properties":{"name":"Kaki Bukit ","name_zh":"\u52a0\u57fa\u6b66\u5409","codes":"DT28","line":"DT","color":"#03529F","network":"mrt","year":2017}},{"type":"Feature","geometry":{"type":"Point","coordinates":[103.871339,1.311467]},"properties":{"name":"Kallang","name_zh":"\u52a0\u51b7","codes":"EW10","line":"EW","color":"#009D57","network":"mrt","year":1989}},{"type":"Feature","geometry":{"type":"Point","coordinates":[103.902205,1.383929]},"properties":{"name":"Kangkar","name_zh":"\u6e2f\u811a","codes":"SE4","line":"SE","color":"#748477","network":"lrt","year":2003}},{"type":"Feature","geometry":{"type":"Point","coordinates":[103.886218,1.297961]},"properties":{"name":"Katong Park","name_zh":"\u52a0\u4e1c\u516c\u56ed","codes":"TE24","line":"TE","color":"#9D5B25","network":"mrt","year":2024}},{"type":"Feature","geometry":{"type":"Point","coordinates":[103.749021,1.378603]},"properties":{"name":"Keat Hong","name_zh":"\u5409\u4e30","codes":"BP3","line":"BP","color":"#748477","network":"lrt","year":1999}},{"type":"Feature","geometry":{"type":"Point","coordinates":[103.912927,1.321032]},"properties":{"name":"Kembangan","name_zh":"\u666f\u4e07\u5cb8","codes":"EW6","line":"EW","color":"#009D57","network":"mrt","year":1989}},{"type":"Feature","geometry":{"type":"Point","coordinates":[103.784681,1.29326]},"properties":{"name":"Kent Ridge","name_zh":"\u80af\u7279\u5c97","codes":"CC24","line":"CC","color":"#F79F07","network":"mrt","year":2011}},{"type":"Feature","geometry":{"type":"Point","coordinates":[103.833018,1.41736]},"properties":{"name":"Khatib","name_zh":"\u5361\u8fea","codes":"NS14","line":"NS","color":"#DF2518","network":"mrt","year":1988}},{"type":"Feature","geometry":{"type":"Point","coordinates":[103.783826,1.335663]},"properties":{"name":"King Albert Park","name_zh":"\u963f\u5c14\u67cf\u738b\u56ed","codes":"DT6","line":"DT","color":"#03529F","network":"mrt","year":2015}},{"type":"Feature","geometry":{"type":"Point","coordinates":[103.885,1.36021]},"properties":{"name":"Kovan","name_zh":"\u9ad8\u6587","codes":"NE13","line":"NE","color":"#851197","network":"mrt","year":2003}},{"type":"Feature","geometry":{"type":"Point","coordinates":[103.761989,1.425219]},"properties":{"name":"Kranji","name_zh":"\u514b\u5170\u829d","codes":"NS7","line":"NS","color":"#DF2518","network":"mrt","year":1996}},{"type":"Feature","geometry":{"type":"Point","coordinates":[103.881246,1.398204]},"properties":{"name":"Kupang","name_zh":"\u53e4\u90a6","codes":"SW3","line":"SW","color":"#748477","network":"lrt","year":2005}},{"type":"Feature","geometry":{"type":"Point","coordinates":[103.802995,1.272251]},"properties":{"name":"Labrador Park","name_zh":"\u62c9\u67cf\u591a\u516c\u56ed","codes":"CC27","line":"CC","color":"#F79F07","network":"mrt","year":2011}},{"type":"Feature","geometry":{"type":"Point","coordinates":[103.720693,1.34425]},"properties":{"name":"Lakeside","name_zh":"\u6e56\u7554","codes":"EW26","line":"EW","color":"#009D57","network":"mrt","year":1988}},{"type":"Feature","geometry":{"type":"Point","coordinates":[103.862774,1.307361]},"properties":{"name":"Lavender","name_zh":"\u52b3\u660e\u8fbe","codes":"EW11","line":"EW","color":"#009D57","network":"mrt","year":1989}},{"type":"Feature","geometry":{"type":"Point","coordinates":[103.880032,1.392085]},"properties":{"name":"Layar","name_zh":"\u62c9\u96c5","codes":"SW6","line":"SW","color":"#748477","network":"lrt","year":2005}},{"type":"Feature","geometry":{"type":"Point","coordinates":[103.83637,1.384749]},"properties":{"name":"Lentor","name_zh":"\u4f26\u591a","codes":"TE5","line":"TE","color":"#9D5B25","network":"mrt","year":2021}},{"type":"Feature","geometry":{"type":"Point","coordinates":[103.849174,1.306879]},"properties":{"name":"Little India","name_zh":"\u5c0f\u5370\u5ea6","codes":"NE7-DT12","line":"NE","color":"#851197","network":"mrt","year":2003}},{"type":"Feature","geometry":{"type":"Point","coordinates":[103.863955,1.351543]},"properties":{"name":"Lorong Chuan","name_zh":"\u7f57\u5f04\u6cc9","codes":"CC14","line":"CC","color":"#F79F07","network":"mrt","year":2009}},{"type":"Feature","geometry":{"type":"Point","coordinates":[103.88956,1.326231]},"properties":{"name":"MacPherson","name_zh":"\u9ea6\u6ce2\u7533","codes":"CC10-DT26","line":"CC","color":"#F79F07","network":"mrt","year":2010}},{"type":"Feature","geometry":{"type":"Point","coordinates":[103.85531,1.275471]},"properties":{"name":"Marina Bay","name_zh":"\u6ee8\u6d77\u6e7e","codes":"NS27-CE2-TE20-CC33","line":"NS","color":"#DF2518","network":"mrt","year":1989}},{"type":"Feature","geometry":{"type":"Point","coordinates":[103.86282,1.271446]},"properties":{"name":"Marina South Pier","name_zh":"\u6ee8\u6d77\u5357\u7801\u5934","codes":"NS28","line":"NS","color":"#DF2518","network":"mrt","year":2014}},{"type":"Feature","geometry":{"type":"Point","coordinates":[103.907073,1.303709]},"properties":{"name":"Marine Parade","name_zh":"\u9a6c\u6797\u767e\u5217","codes":"TE26","line":"TE","color":"#9D5B25","network":"mrt","year":2024}},{"type":"Feature","geometry":{"type":"Point","coordinates":[103.915061,1.306605]},"properties":{"name":"Marine Terrace","name_zh":"\u9a6c\u6797\u53f0","codes":"TE27","line":"TE","color":"#9D5B25","network":"mrt","year":2024}},{"type":"Feature","geometry":{"type":"Point","coordinates":[103.774124,1.43257]},"properties":{"name":"Marsiling","name_zh":"\u9a6c\u897f\u5cad","codes":"NS8","line":"NS","color":"#DF2518","network":"mrt","year":1996}},{"type":"Feature","geometry":{"type":"Point","coordinates":[103.839545,1.34863]},"properties":{"name":"Marymount","name_zh":"\u739b\u4e3d\u8499","codes":"CC16","line":"CC","color":"#F79F07","network":"mrt","year":2009}},{"type":"Feature","geometry":{"type":"Point","coordinates":[103.88334,1.326848]},"properties":{"name":"Mattar","name_zh":"\u739b\u8fbe","codes":"DT25","line":"DT","color":"#03529F","network":"mrt","year":2017}},{"type":"Feature","geometry":{"type":"Point","coordinates":[103.843882,1.280622]},"properties":{"name":"Maxwell","name_zh":"\u9ea6\u58eb\u5a01","codes":"TE18","line":"TE","color":"#9D5B25","network":"mrt","year":2022}},{"type":"Feature","geometry":{"type":"Point","coordinates":[103.836895,1.372232]},"properties":{"name":"Mayflower","name_zh":"\u7f8e\u534e","codes":"TE6","line":"TE","color":"#9D5B25","network":"mrt","year":2021}},{"type":"Feature","geometry":{"type":"Point","coordinates":[103.908883,1.396937]},"properties":{"name":"Meridian","name_zh":"\u4e3d\u56ed","codes":"PE2","line":"PE","color":"#748477","network":"lrt","year":2005}},{"type":"Feature","geometry":{"type":"Point","coordinates":[103.882442,1.306393]},"properties":{"name":"Mountbatten","name_zh":"\u8499\u5df4\u767b","codes":"CC7","line":"CC","color":"#F79F07","network":"mrt","year":2010}},{"type":"Feature","geometry":{"type":"Point","coordinates":[103.819149,1.306715]},"properties":{"name":"Napier","name_zh":"\u7eb3\u6bd4\u96c5","codes":"TE12","line":"TE","color":"#9D5B25","network":"mrt","year":2022}},{"type":"Feature","geometry":{"type":"Point","coordinates":[103.83784,1.313064]},"properties":{"name":"Newton","name_zh":"\u7ebd\u987f","codes":"NS21-DT11","line":"NS","color":"#DF2518","network":"mrt","year":1987}},{"type":"Feature","geometry":{"type":"Point","coordinates":[103.900353,1.411861]},"properties":{"name":"Nibong","name_zh":"\u5c3c\u8499","codes":"PW5","line":"PW","color":"#748477","network":"lrt","year":2014}},{"type":"Feature","geometry":{"type":"Point","coordinates":[103.863866,1.299838]},"properties":{"name":"Nicoll Highway","name_zh":"\u5c3c\u8bf0\u5927\u9053","codes":"CC5","line":"CC","color":"#F79F07","network":"mrt","year":2010}},{"type":"Feature","geometry":{"type":"Point","coordinates":[103.843871,1.320516]},"properties":{"name":"Novena","name_zh":"\u8bfa\u7ef4\u5a1c","codes":"NS20","line":"NS","color":"#DF2518","network":"mrt","year":1987}},{"type":"Feature","geometry":{"type":"Point","coordinates":[103.912734,1.40229]},"properties":{"name":"Oasis","name_zh":"\u7eff\u6d32","codes":"PE6","line":"PE","color":"#748477","network":"lrt","year":2005}},{"type":"Feature","geometry":{"type":"Point","coordinates":[103.787387,1.29965]},"properties":{"name":"one-north","name_zh":"\u7eac\u58f9","codes":"CC23","line":"CC","color":"#F79F07","network":"mrt","year":2011}},{"type":"Feature","geometry":{"type":"Point","coordinates":[103.831416,1.303126]},"properties":{"name":"Orchard","name_zh":"\u4e4c\u8282","codes":"NS22-TE14","line":"NS","color":"#DF2518","network":"mrt","year":1987}},{"type":"Feature","geometry":{"type":"Point","coordinates":[103.823867,1.303188]},"properties":{"name":"Orchard Boulevard","name_zh":"\u4e4c\u8282\u5927\u9053","codes":"TE13","line":"TE","color":"#9D5B25","network":"mrt","year":2022}},{"type":"Feature","geometry":{"type":"Point","coordinates":[103.840241,1.280685]},"properties":{"name":"Outram Park","name_zh":"\u6b27\u5357\u56ed","codes":"EW16-NE3-TE17","line":"EW","color":"#009D57","network":"mrt","year":1987}},{"type":"Feature","geometry":{"type":"Point","coordinates":[103.791354,1.2762]},"properties":{"name":"Pasir Panjang","name_zh":"\u5df4\u897f\u73ed\u8ba9","codes":"CC26","line":"CC","color":"#F79F07","network":"mrt","year":2011}},{"type":"Feature","geometry":{"type":"Point","coordinates":[103.949473,1.37129]},"properties":{"name":"Pasir Ris","name_zh":"\u5df4\u897f\u7acb","codes":"EW1","line":"EW","color":"#009D57","network":"mrt","year":1989}},{"type":"Feature","geometry":{"type":"Point","coordinates":[103.892657,1.317498]},"properties":{"name":"Paya Lebar","name_zh":"\u5df4\u8036\u5229\u5cc7","codes":"EW8-CC9","line":"EW","color":"#009D57","network":"mrt","year":1989}},{"type":"Feature","geometry":{"type":"Point","coordinates":[103.771259,1.376184]},"properties":{"name":"Pending","name_zh":"\u79c9\u5b9a","codes":"BP8","line":"BP","color":"#748477","network":"lrt","year":1999}},{"type":"Feature","geometry":{"type":"Point","coordinates":[103.766629,1.377765]},"properties":{"name":"Petir","name_zh":"\u67cf\u63d0","codes":"BP7","line":"BP","color":"#748477","network":"lrt","year":1999}},{"type":"Feature","geometry":{"type":"Point","coordinates":[103.758008,1.378616]},"properties":{"name":"Phoenix","name_zh":"\u51e4\u51f0","codes":"BP5","line":"BP","color":"#748477","network":"lrt","year":1999}},{"type":"Feature","geometry":{"type":"Point","coordinates":[103.69741,1.337588]},"properties":{"name":"Pioneer","name_zh":"\u5148\u9a71","codes":"EW28","line":"EW","color":"#009D57","network":"mrt","year":2009}},{"type":"Feature","geometry":{"type":"Point","coordinates":[103.869039,1.331433]},"properties":{"name":"Potong Pasir","name_zh":"\u6ce2\u4e1c\u5df4\u897f","codes":"NE10","line":"NE","color":"#851197","network":"mrt","year":2003}},{"type":"Feature","geometry":{"type":"Point","coordinates":[103.860565,1.293114]},"properties":{"name":"Promenade","name_zh":"\u5b9d\u95e8\u5eca","codes":"CC4-DT15","line":"CC","color":"#F79F07","network":"mrt","year":2010}},{"type":"Feature","geometry":{"type":"Point","coordinates":[103.90264,1.405383]},"properties":{"name":"Punggol","name_zh":"\u699c\u9e45","codes":"NE17-PTC","line":"NE","color":"#851197","network":"mrt","year":2003}},{"type":"Feature","geometry":{"type":"Point","coordinates":[103.910117,1.414966]},"properties":{"name":"Punggol Coast","name_zh":"\u699c\u9e45\u6d77\u5cb8","codes":"NE18","line":"NE","color":"#851197","network":"mrt","year":2024}},{"type":"Feature","geometry":{"type":"Point","coordinates":[103.906651,1.416852]},"properties":{"name":"Punggol Point","name_zh":"\u699c\u9e45\u574a","codes":"PW3","line":"PW","color":"#748477","network":"lrt","year":2016}},{"type":"Feature","geometry":{"type":"Point","coordinates":[103.806037,1.294623]},"properties":{"name":"Queenstown","name_zh":"\u5973\u7687\u9547","codes":"EW19","line":"EW","color":"#009D57","network":"mrt","year":1988}},{"type":"Feature","geometry":{"type":"Point","coordinates":[103.85176,1.283477]},"properties":{"name":"Raffles Place","name_zh":"\u83b1\u4f5b\u58eb\u574a","codes":"NS26-EW14","line":"NS","color":"#DF2518","network":"mrt","year":1987}},{"type":"Feature","geometry":{"type":"Point","coordinates":[103.897361,1.384046]},"properties":{"name":"Ranggung","name_zh":"\u5170\u5c97","codes":"SE5","line":"SE","color":"#748477","network":"lrt","year":2003}},{"type":"Feature","geometry":{"type":"Point","coordinates":[103.816768,1.289648]},"properties":{"name":"Redhill","name_zh":"\u7ea2\u5c71","codes":"EW18","line":"EW","color":"#009D57","network":"mrt","year":1988}},{"type":"Feature","geometry":{"type":"Point","coordinates":[103.890533,1.386729]},"properties":{"name":"Renjong","name_zh":"\u4ec1\u5b97","codes":"SW8","line":"SW","color":"#748477","network":"lrt","year":2005}},{"type":"Feature","geometry":{"type":"Point","coordinates":[103.91615,1.394546]},"properties":{"name":"Riviera","name_zh":"\u91cc\u7ef4\u62c9","codes":"PE4","line":"PE","color":"#748477","network":"lrt","year":2005}},{"type":"Feature","geometry":{"type":"Point","coordinates":[103.852465,1.303943]},"properties":{"name":"Rochor","name_zh":"\u68a7\u69fd","codes":"DT13","line":"DT","color":"#03529F","network":"mrt","year":2015}},{"type":"Feature","geometry":{"type":"Point","coordinates":[103.905973,1.391475]},"properties":{"name":"Rumbia","name_zh":"\u68d5\u7f8e","codes":"SE2","line":"SE","color":"#748477","network":"lrt","year":2003}},{"type":"Feature","geometry":{"type":"Point","coordinates":[103.904884,1.409717]},"properties":{"name":"Sam Kee","name_zh":"\u4e09\u8bb0","codes":"PW1","line":"PW","color":"#748477","network":"lrt","year":2016}},{"type":"Feature","geometry":{"type":"Point","coordinates":[103.90214,1.415889]},"properties":{"name":"Samudera","name_zh":"\u5c71\u59c6","codes":"PW4","line":"PW","color":"#748477","network":"lrt","year":2017}},{"type":"Feature","geometry":{"type":"Point","coordinates":[103.76958,1.387785]},"properties":{"name":"Segar","name_zh":"\u5b9e\u52a0","codes":"BP11","line":"BP","color":"#748477","network":"lrt","year":1999}},{"type":"Feature","geometry":{"type":"Point","coordinates":[103.820055,1.449093]},"properties":{"name":"Sembawang","name_zh":"\u4e09\u5df4\u65fa","codes":"NS11","line":"NS","color":"#DF2518","network":"mrt","year":1996}},{"type":"Feature","geometry":{"type":"Point","coordinates":[103.895483,1.391699]},"properties":{"name":"Sengkang","name_zh":"\u76db\u6e2f","codes":"NE16-STC","line":"NE","color":"#851197","network":"mrt","year":2003}},{"type":"Feature","geometry":{"type":"Point","coordinates":[103.762382,1.382678]},"properties":{"name":"Senja","name_zh":"\u4fe1\u4f73","codes":"BP13","line":"BP","color":"#748477","network":"lrt","year":1999}},{"type":"Feature","geometry":{"type":"Point","coordinates":[103.872678,1.349806]},"properties":{"name":"Serangoon","name_zh":"\u5b9e\u9f99\u5c97","codes":"NE12-CC13","line":"NE","color":"#851197","network":"mrt","year":2003}},{"type":"Feature","geometry":{"type":"Point","coordinates":[103.850919,1.277534]},"properties":{"name":"Shenton Way","name_zh":"\u73ca\u987f\u9053","codes":"TE19","line":"TE","color":"#9D5B25","network":"mrt","year":2022}},{"type":"Feature","geometry":{"type":"Point","coordinates":[103.930025,1.309591]},"properties":{"name":"Siglap","name_zh":"\u5b9e\u4e5e\u7eb3","codes":"TE28","line":"TE","color":"#9D5B25","network":"mrt","year":2024}},{"type":"Feature","geometry":{"type":"Point","coordinates":[103.953371,1.343188]},"properties":{"name":"Simei","name_zh":"\u56db\u7f8e","codes":"EW3","line":"EW","color":"#009D57","network":"mrt","year":1989}},{"type":"Feature","geometry":{"type":"Point","coordinates":[103.797246,1.331095]},"properties":{"name":"Sixth Avenue","name_zh":"\u7b2c\u516d\u9053","codes":"DT7","line":"DT","color":"#03529F","network":"mrt","year":2015}},{"type":"Feature","geometry":{"type":"Point","coordinates":[103.839134,1.30033]},"properties":{"name":"Somerset","name_zh":"\u7d22\u7f8e\u585e","codes":"NS23","line":"NS","color":"#DF2518","network":"mrt","year":1987}},{"type":"Feature","geometry":{"type":"Point","coordinates":[103.897268,1.405332]},"properties":{"name":"Soo Teck","name_zh":"\u6811\u5fb7","codes":"PW7","line":"PW","color":"#748477","network":"lrt","year":2014}},{"type":"Feature","geometry":{"type":"Point","coordinates":[103.745283,1.380272]},"properties":{"name":"South View","name_zh":"\u5357\u666f","codes":"BP2","line":"BP","color":"#748477","network":"lrt","year":1999}},{"type":"Feature","geometry":{"type":"Point","coordinates":[103.817858,1.398167]},"properties":{"name":"Springleaf","name_zh":"\u6625\u53f6","codes":"TE4","line":"TE","color":"#9D5B25","network":"mrt","year":2021}},{"type":"Feature","geometry":{"type":"Point","coordinates":[103.875351,1.302872]},"properties":{"name":"Stadium","name_zh":"\u4f53\u80b2\u573a","codes":"CC6","line":"CC","color":"#F79F07","network":"mrt","year":2010}},{"type":"Feature","geometry":{"type":"Point","coordinates":[103.825763,1.319976]},"properties":{"name":"Stevens","name_zh":"\u53f2\u8482\u82ac","codes":"DT10-TE11","line":"DT","color":"#03529F","network":"mrt","year":2015}},{"type":"Feature","geometry":{"type":"Point","coordinates":[103.898564,1.408461]},"properties":{"name":"Sumang","name_zh":"\u82cf\u8292","codes":"PW6","line":"PW","color":"#748477","network":"lrt","year":2014}},{"type":"Feature","geometry":{"type":"Point","coordinates":[103.888209,1.335401]},"properties":{"name":"Tai Seng","name_zh":"\u5927\u6210","codes":"CC11","line":"CC","color":"#F79F07","network":"mrt","year":2010}},{"type":"Feature","geometry":{"type":"Point","coordinates":[103.944083,1.354229]},"properties":{"name":"Tampines","name_zh":"\u6de1\u6ee8\u5c3c","codes":"EW2-DT32","line":"EW","color":"#009D57","network":"mrt","year":1989}},{"type":"Feature","geometry":{"type":"Point","coordinates":[103.954731,1.355994]},"properties":{"name":"Tampines East","name_zh":"\u6de1\u6ee8\u5c3c\u4e1c","codes":"DT33","line":"DT","color":"#03529F","network":"mrt","year":2017}},{"type":"Feature","geometry":{"type":"Point","coordinates":[103.938528,1.345703]},"properties":{"name":"Tampines West","name_zh":"\u6de1\u6ee8\u5c3c\u897f","codes":"DT31","line":"DT","color":"#03529F","network":"mrt","year":2017}},{"type":"Feature","geometry":{"type":"Point","coordinates":[103.80726,1.325903]},"properties":{"name":"Tan Kah Kee","name_zh":"\u9648\u5609\u5e9a","codes":"DT8","line":"DT","color":"#03529F","network":"mrt","year":2015}},{"type":"Feature","geometry":{"type":"Point","coordinates":[103.946486,1.327178]},"properties":{"name":"Tanah Merah","name_zh":"\u4e39\u90a3\u7f8e\u62c9","codes":"EW4-CG","line":"EW","color":"#009D57","network":"mrt","year":1989}},{"type":"Feature","geometry":{"type":"Point","coordinates":[103.897378,1.299594]},"properties":{"name":"Tanjong Katong","name_zh":"\u4e39\u620e\u52a0\u4e1c","codes":"TE25","line":"TE","color":"#9D5B25","network":"mrt","year":2024}},{"type":"Feature","geometry":{"type":"Point","coordinates":[103.845712,1.27661]},"properties":{"name":"Tanjong Pagar","name_zh":"\u4e39\u620e\u5df4\u845b","codes":"EW15","line":"EW","color":"#009D57","network":"mrt","year":1987}},{"type":"Feature","geometry":{"type":"Point","coordinates":[103.873459,1.297343]},"properties":{"name":"Tanjong Rhu","name_zh":"\u4e39\u620e\u79ba","codes":"TE23","line":"TE","color":"#9D5B25","network":"mrt","year":2024}},{"type":"Feature","geometry":{"type":"Point","coordinates":[103.906589,1.412782]},"properties":{"name":"Teck Lee","name_zh":"\u5fb7\u5229","codes":"PW2","line":"PW","color":"#748477","network":"lrt","year":2014}},{"type":"Feature","geometry":{"type":"Point","coordinates":[103.753647,1.37667]},"properties":{"name":"Teck Whye","name_zh":"\u5fb7\u60e0","codes":"BP4","line":"BP","color":"#748477","network":"lrt","year":1999}},{"type":"Feature","geometry":{"type":"Point","coordinates":[103.848275,1.282355]},"properties":{"name":"Telok Ayer","name_zh":"\u76f4\u843d\u4e9a\u9038","codes":"DT18","line":"DT","color":"#03529F","network":"mrt","year":2013}},{"type":"Feature","geometry":{"type":"Point","coordinates":[103.809874,1.27089]},"properties":{"name":"Telok Blangah","name_zh":"\u76f4\u843d\u5e03\u5170\u96c5","codes":"CC28","line":"CC","color":"#F79F07","network":"mrt","year":2011}},{"type":"Feature","geometry":{"type":"Point","coordinates":[103.875635,1.397333]},"properties":{"name":"Thanggam","name_zh":"\u4e39\u7518","codes":"SW4","line":"SW","color":"#748477","network":"lrt","year":2005}},{"type":"Feature","geometry":{"type":"Point","coordinates":[103.826956,1.286132]},"properties":{"name":"Tiong Bahru","name_zh":"\u4e2d\u5cc7\u9c81","codes":"EW17","line":"EW","color":"#009D57","network":"mrt","year":1988}},{"type":"Feature","geometry":{"type":"Point","coordinates":[103.847141,1.332617]},"properties":{"name":"Toa Payoh","name_zh":"\u5927\u5df4\u7a91","codes":"NS19","line":"NS","color":"#DF2518","network":"mrt","year":1987}},{"type":"Feature","geometry":{"type":"Point","coordinates":[103.885827,1.389408]},"properties":{"name":"Tongkang","name_zh":"\u540c\u6e2f","codes":"SW7","line":"SW","color":"#748477","network":"lrt","year":2005}},{"type":"Feature","geometry":{"type":"Point","coordinates":[103.648906,1.321158]},"properties":{"name":"Tuas Crescent","name_zh":"\u5927\u58eb\u5f2f","codes":"EW31","line":"EW","color":"#009D57","network":"mrt","year":2017}},{"type":"Feature","geometry":{"type":"Point","coordinates":[103.636772,1.340294]},"properties":{"name":"Tuas Link","name_zh":"\u5927\u58eb\u8fde\u8def","codes":"EW33","line":"EW","color":"#009D57","network":"mrt","year":2017}},{"type":"Feature","geometry":{"type":"Point","coordinates":[103.639569,1.330052]},"properties":{"name":"Tuas West Road","name_zh":"\u5927\u58eb\u897f\u8def","codes":"EW32","line":"EW","color":"#009D57","network":"mrt","year":2017}},{"type":"Feature","geometry":{"type":"Point","coordinates":[103.899249,1.329941]},"properties":{"name":"Ubi","name_zh":"\u4e4c\u7f8e","codes":"DT27","line":"DT","color":"#03529F","network":"mrt","year":2017}},{"type":"Feature","geometry":{"type":"Point","coordinates":[103.961471,1.341902]},"properties":{"name":"Upper Changi","name_zh":"\u6a1f\u5b9c\u4e0a\u6bb5","codes":"DT34","line":"DT","color":"#03529F","network":"mrt","year":2017}},{"type":"Feature","geometry":{"type":"Point","coordinates":[103.832827,1.354569]},"properties":{"name":"Upper Thomson","name_zh":"\u6c64\u7533\u8def\u4e0a\u6bb5","codes":"TE8","line":"TE","color":"#9D5B25","network":"mrt","year":2021}},{"type":"Feature","geometry":{"type":"Point","coordinates":[103.787462,1.43591]},"properties":{"name":"Woodlands","name_zh":"\u5140\u5170","codes":"NS9-TE2","line":"NS","color":"#DF2518","network":"mrt","year":1996}},{"type":"Feature","geometry":{"type":"Point","coordinates":[103.785713,1.448289]},"properties":{"name":"Woodlands North","name_zh":"\u5140\u5170\u5317","codes":"TE1","line":"TE","color":"#9D5B25","network":"mrt","year":2020}},{"type":"Feature","geometry":{"type":"Point","coordinates":[103.79378,1.426733]},"properties":{"name":"Woodlands South","name_zh":"\u5140\u5170\u5357","codes":"TE3","line":"TE","color":"#9D5B25","network":"mrt","year":2020}},{"type":"Feature","geometry":{"type":"Point","coordinates":[103.870752,1.339202]},"properties":{"name":"Woodleigh","name_zh":"\u5140\u91cc","codes":"NE11","line":"NE","color":"#851197","network":"mrt","year":2011}},{"type":"Feature","geometry":{"type":"Point","coordinates":[103.747401,1.397461]},"properties":{"name":"Yew Tee","name_zh":"\u6cb9\u6c60","codes":"NS5","line":"NS","color":"#DF2518","network":"mrt","year":1996}},{"type":"Feature","geometry":{"type":"Point","coordinates":[103.844936,1.38179]},"properties":{"name":"Yio Chu Kang","name_zh":"\u6768\u539d\u6e2f","codes":"NS15","line":"NS","color":"#DF2518","network":"mrt","year":1987}},{"type":"Feature","geometry":{"type":"Point","coordinates":[103.835028,1.429384]},"properties":{"name":"Yishun","name_zh":"\u4e49\u987a","codes":"NS13","line":"NS","color":"#DF2518","network":"mrt","year":1988}},{"type":"Feature","geometry":{"type":"Point","coordinates":[103.830708,1.270462]},"properties":{"name":"Keppel","name_zh":null,"codes":"CC30","line":"CC","color":"#F79F07","network":"mrt","year":2026}},{"type":"Feature","geometry":{"type":"Point","coordinates":[103.837062,1.273107]},"properties":{"name":"Cantonment","name_zh":null,"codes":"CC31","line":"CC","color":"#F79F07","network":"mrt","year":2026}},{"type":"Feature","geometry":{"type":"Point","coordinates":[103.847099,1.273286]},"properties":{"name":"Prince Edward Road","name_zh":null,"codes":"CC32","line":"CC","color":"#F79F07","network":"mrt","year":2026}},{"type":"Feature","geometry":{"type":"Point","coordinates":[103.949051,1.316441]},"properties":{"name":"Bedok South","name_zh":null,"codes":"TE30","line":"TE","color":"#9D5B25","network":"mrt","year":2026}},{"type":"Feature","geometry":{"type":"Point","coordinates":[103.95726,1.320391]},"properties":{"name":"Sungei Bedok","name_zh":null,"codes":"TE31","line":"TE","color":"#9D5B25","network":"mrt","year":2026}}]}