{"type": "FeatureCollection", "note": "Driving routes from OSRM (OpenStreetMap data, ODbL). timestamps = seconds from departure, spread along the route by distance.", "features": [{"type": "Feature", "properties": {"name": "Changi Airport \u2192 Marina Bay", "from": "Changi Airport", "to": "Marina Bay", "distance_km": 19.6, "duration_min": 20, "timestamps": [0, 9, 10, 10, 11, 11, 20, 24, 24, 26, 27, 27, 28, 29, 29, 30, 31, 32, 34, 35, 36, 36, 37, 38, 46, 46, 47, 48, 49, 51, 56, 67, 74, 76, 86, 87, 90, 93, 96, 98, 106, 108, 110, 113, 118, 120, 125, 127, 130, 133, 136, 137, 148, 165, 169, 172, 178, 196, 203, 206, 208, 211, 215, 219, 225, 252, 255, 258, 274, 290, 315, 331, 334, 339, 345, 350, 355, 359, 364, 384, 387, 398, 424, 449, 460, 463, 464, 465, 467, 470, 475, 479, 489, 499, 507, 512, 515, 518, 522, 529, 547, 549, 558, 562, 564, 564, 565, 572, 577, 579, 580, 611, 614, 623, 623, 624, 626, 633, 640, 643, 646, 661, 663, 669, 674, 692, 693, 695, 697, 699, 710, 729, 740, 743, 744, 775, 789, 800, 816, 827, 843, 845, 849, 858, 864, 866, 869, 872, 874, 877, 878, 879, 880, 884, 888, 894, 903, 904, 909, 911, 913, 926, 930, 934, 934, 934, 939, 956, 976, 980, 984, 992, 993, 994, 997, 1001, 1020, 1022, 1032, 1034, 1045, 1047, 1064, 1068, 1079, 1081, 1083, 1085, 1086, 1088, 1090, 1091, 1093, 1094, 1096, 1098, 1100, 1102, 1103, 1106, 1110, 1116, 1119, 1125, 1132, 1140, 1143, 1147, 1153, 1157, 1159, 1162, 1165, 1168, 1169, 1171, 1172, 1172, 1173, 1173, 1173, 1173, 1173, 1177, 1179, 1180, 1180, 1180, 1180, 1180, 1180, 1181, 1181, 1181, 1182, 1182, 1182, 1182, 1182, 1185, 1185, 1185, 1186, 1186, 1186, 1186, 1188, 1188, 1188, 1189, 1189, 1189, 1191, 1193, 1193, 1194, 1194, 1194, 1194, 1195, 1195, 1196, 1197, 1197, 1200]}, "geometry": {"type": "LineString", "coordinates": [[103.99026, 1.36153], [103.99152, 1.36099], [103.99158, 1.36093], [103.9916, 1.36085], [103.99161, 1.3608], [103.9916, 1.36071], [103.99113, 1.35952], [103.99091, 1.35899], [103.99089, 1.35894], [103.99068, 1.35902], [103.99055, 1.35902], [103.99049, 1.35901], [103.99037, 1.35897], [103.9903, 1.35898], [103.9902, 1.35904], [103.99008, 1.35905], [103.98992, 1.35901], [103.98978, 1.35896], [103.98956, 1.35888], [103.98944, 1.35884], [103.98931, 1.35877], [103.98924, 1.35871], [103.98916, 1.35863], [103.9891, 1.35851], [103.98868, 1.35751], [103.98864, 1.3574], [103.98861, 1.35731], [103.98857, 1.35722], [103.9885, 1.35703], [103.9884, 1.35672], [103.98813, 1.35607], [103.98756, 1.35464], [103.98711, 1.35364], [103.98698, 1.35335], [103.98637, 1.35203], [103.9863, 1.35187], [103.98613, 1.35147], [103.98594, 1.35108], [103.98578, 1.3507], [103.98567, 1.35042], [103.98521, 1.3493], [103.98512, 1.3491], [103.98498, 1.34874], [103.98484, 1.34833], [103.98457, 1.34771], [103.98443, 1.34739], [103.98416, 1.34674], [103.98408, 1.34654], [103.98389, 1.3461], [103.98371, 1.34568], [103.98351, 1.34521], [103.98346, 1.34509], [103.98288, 1.34367], [103.98186, 1.34128], [103.98165, 1.34078], [103.98144, 1.34038], [103.98113, 1.33965], [103.98007, 1.33724], [103.97963, 1.33627], [103.97944, 1.33589], [103.97929, 1.33561], [103.97909, 1.33526], [103.97877, 1.33476], [103.97838, 1.33421], [103.97789, 1.33351], [103.97574, 1.33029], [103.97545, 1.32986], [103.97524, 1.32953], [103.97394, 1.32757], [103.97253, 1.32559], [103.97052, 1.3226], [103.96912, 1.32068], [103.96886, 1.32032], [103.9684, 1.31976], [103.96782, 1.31917], [103.96715, 1.31865], [103.96657, 1.3183], [103.96604, 1.31804], [103.96531, 1.31772], [103.96271, 1.31665], [103.96226, 1.31647], [103.96073, 1.31585], [103.95718, 1.31439], [103.9538, 1.313], [103.95234, 1.3124], [103.95188, 1.31223], [103.95181, 1.31221], [103.9517, 1.31216], [103.95134, 1.31204], [103.95089, 1.31192], [103.95015, 1.31179], [103.9497, 1.31176], [103.94819, 1.31172], [103.94668, 1.31167], [103.94556, 1.31164], [103.94475, 1.3116], [103.94429, 1.31156], [103.94388, 1.31149], [103.94341, 1.31138], [103.94236, 1.31109], [103.93983, 1.31037], [103.93947, 1.31027], [103.93826, 1.30992], [103.93763, 1.30976], [103.93748, 1.30971], [103.93742, 1.3097], [103.93734, 1.30967], [103.93632, 1.30937], [103.93561, 1.30916], [103.93528, 1.30906], [103.93515, 1.30902], [103.93073, 1.30781], [103.93036, 1.3077], [103.92915, 1.3073], [103.92903, 1.30725], [103.92891, 1.3072], [103.9287, 1.30709], [103.92777, 1.30659], [103.9269, 1.30613], [103.92647, 1.30594], [103.92603, 1.30577], [103.92396, 1.3052], [103.92362, 1.30511], [103.92276, 1.30487], [103.92204, 1.30467], [103.91961, 1.30397], [103.91937, 1.3039], [103.91909, 1.30382], [103.91884, 1.30375], [103.9186, 1.30368], [103.91703, 1.30323], [103.91431, 1.30247], [103.91284, 1.30203], [103.91239, 1.3019], [103.91228, 1.30186], [103.90786, 1.30065], [103.90588, 1.30006], [103.90428, 1.29954], [103.90219, 1.29876], [103.90063, 1.29818], [103.89844, 1.29734], [103.89812, 1.29722], [103.89764, 1.29704], [103.89638, 1.29656], [103.89555, 1.29625], [103.89533, 1.29617], [103.89491, 1.29601], [103.89442, 1.29584], [103.89413, 1.29575], [103.8938, 1.29567], [103.89362, 1.29564], [103.89343, 1.2956], [103.8933, 1.29558], [103.89271, 1.2955], [103.89218, 1.29549], [103.89131, 1.29548], [103.88998, 1.29555], [103.88972, 1.29556], [103.88912, 1.29559], [103.88869, 1.29559], [103.88848, 1.29561], [103.88661, 1.2957], [103.88598, 1.29572], [103.88542, 1.2957], [103.8854, 1.2957], [103.88536, 1.2957], [103.8846, 1.29567], [103.88215, 1.29559], [103.87926, 1.29546], [103.87867, 1.29545], [103.8781, 1.29543], [103.87693, 1.29537], [103.87677, 1.29537], [103.87657, 1.29536], [103.87617, 1.29534], [103.87556, 1.29534], [103.87272, 1.29525], [103.87254, 1.29523], [103.87103, 1.29516], [103.8707, 1.2951], [103.86919, 1.29479], [103.86885, 1.29472], [103.86634, 1.29424], [103.86577, 1.2941], [103.86421, 1.29383], [103.86401, 1.29378], [103.86369, 1.2937], [103.86344, 1.29361], [103.86325, 1.29354], [103.86299, 1.29341], [103.86278, 1.29326], [103.86262, 1.29313], [103.86245, 1.29296], [103.86229, 1.2928], [103.86216, 1.29265], [103.86197, 1.2923], [103.8619, 1.29208], [103.86183, 1.29182], [103.86179, 1.29159], [103.86175, 1.29122], [103.86172, 1.29062], [103.86168, 1.2897], [103.86168, 1.28924], [103.86164, 1.28849], [103.86162, 1.28744], [103.8616, 1.28625], [103.86159, 1.28583], [103.86156, 1.28513], [103.8615, 1.28434], [103.86144, 1.28379], [103.86136, 1.28341], [103.86125, 1.28298], [103.86111, 1.28254], [103.86101, 1.28223], [103.86094, 1.28203], [103.86081, 1.28172], [103.86071, 1.28166], [103.86068, 1.28164], [103.86065, 1.28162], [103.86061, 1.28161], [103.86058, 1.28161], [103.86055, 1.28161], [103.86054, 1.28162], [103.86016, 1.28186], [103.85984, 1.28206], [103.8598, 1.28212], [103.85979, 1.28214], [103.85977, 1.28216], [103.85977, 1.28217], [103.85977, 1.28219], [103.85977, 1.2822], [103.85979, 1.28224], [103.85982, 1.28228], [103.85987, 1.28235], [103.8599, 1.28237], [103.85992, 1.28238], [103.85994, 1.28238], [103.85997, 1.28238], [103.85999, 1.28237], [103.86028, 1.28213], [103.86031, 1.28208], [103.86031, 1.28205], [103.8603, 1.28202], [103.86029, 1.28199], [103.86027, 1.28196], [103.86025, 1.28193], [103.86043, 1.28181], [103.86047, 1.2818], [103.86051, 1.28179], [103.86053, 1.28178], [103.86062, 1.28179], [103.86063, 1.28181], [103.86074, 1.28207], [103.86064, 1.28227], [103.86064, 1.28229], [103.86061, 1.28237], [103.8606, 1.2824], [103.8606, 1.28243], [103.86064, 1.28247], [103.86065, 1.2825], [103.86072, 1.28259], [103.8608, 1.2827], [103.86082, 1.28275], [103.86083, 1.28283], [103.86089, 1.28324]]}}, {"type": "Feature", "properties": {"name": "Jurong East \u2192 Raffles Place", "from": "Jurong East", "to": "Raffles Place", "distance_km": 16.2, "duration_min": 17, "timestamps": [0, 7, 11, 12, 12, 13, 13, 14, 16, 18, 20, 21, 22, 22, 23, 25, 27, 29, 31, 36, 37, 38, 43, 43, 45, 46, 47, 51, 54, 55, 57, 58, 59, 59, 60, 60, 61, 62, 63, 63, 66, 71, 71, 72, 72, 75, 75, 76, 77, 81, 82, 84, 86, 88, 90, 91, 93, 96, 102, 103, 103, 104, 105, 107, 108, 110, 113, 115, 116, 119, 120, 120, 126, 126, 127, 128, 138, 142, 147, 151, 158, 161, 163, 166, 168, 170, 173, 176, 177, 183, 194, 195, 199, 201, 205, 208, 212, 215, 216, 227, 229, 232, 240, 242, 248, 256, 257, 260, 261, 261, 262, 268, 271, 271, 275, 276, 284, 286, 288, 291, 293, 297, 300, 302, 305, 309, 314, 315, 318, 323, 334, 337, 341, 352, 353, 357, 367, 378, 389, 391, 392, 395, 397, 401, 402, 411, 414, 416, 421, 425, 431, 434, 435, 436, 439, 443, 445, 448, 458, 462, 466, 473, 479, 484, 500, 515, 519, 521, 521, 524, 524, 526, 533, 536, 542, 544, 547, 551, 554, 556, 558, 564, 566, 567, 574, 578, 582, 586, 590, 596, 623, 637, 639, 652, 658, 663, 668, 674, 679, 685, 688, 690, 705, 708, 710, 714, 717, 720, 723, 731, 732, 733, 736, 738, 740, 745, 747, 752, 752, 753, 754, 756, 759, 761, 765, 771, 773, 776, 778, 781, 783, 784, 787, 790, 792, 793, 795, 798, 801, 804, 807, 809, 811, 813, 816, 820, 822, 824, 828, 831, 837, 838, 846, 851, 854, 856, 858, 860, 862, 863, 866, 869, 872, 874, 876, 878, 879, 881, 882, 883, 888, 890, 894, 896, 897, 899, 900, 901, 903, 904, 905, 909, 911, 913, 915, 918, 921, 922, 922, 923, 924, 926, 929, 930, 931, 936, 941, 942, 944, 945, 948, 950, 950, 953, 954, 955, 956, 957, 959, 960, 960, 961, 963, 963, 963, 964, 966, 970, 971, 976, 976, 977, 979, 980, 982, 984, 986, 987, 987, 989, 992, 994, 995, 996, 998, 1001, 1002, 1006, 1006, 1007, 1010, 1010, 1010, 1013, 1013, 1014, 1015, 1016, 1016, 1017, 1018, 1018, 1019, 1020, 1020]}, "geometry": {"type": "LineString", "coordinates": [[103.74269, 1.33334], [103.74315, 1.3324], [103.74347, 1.33282], [103.74354, 1.33277], [103.74359, 1.33273], [103.74364, 1.33269], [103.74367, 1.33268], [103.74376, 1.3328], [103.74393, 1.33303], [103.74409, 1.33326], [103.74427, 1.33353], [103.74432, 1.3336], [103.74439, 1.33372], [103.74448, 1.33363], [103.74453, 1.33358], [103.74469, 1.33342], [103.74492, 1.33324], [103.74515, 1.33305], [103.74548, 1.33282], [103.74594, 1.33244], [103.74612, 1.33231], [103.74623, 1.33222], [103.74673, 1.33184], [103.74682, 1.33176], [103.74696, 1.33163], [103.74685, 1.33148], [103.7468, 1.33141], [103.74645, 1.33094], [103.74622, 1.33062], [103.74612, 1.33049], [103.74591, 1.33023], [103.74581, 1.33009], [103.74576, 1.33003], [103.74573, 1.32999], [103.7457, 1.32994], [103.74564, 1.32986], [103.74559, 1.32979], [103.74554, 1.32971], [103.74543, 1.32955], [103.74542, 1.32954], [103.74514, 1.32917], [103.74489, 1.3286], [103.74487, 1.32848], [103.74487, 1.32842], [103.74491, 1.32834], [103.74503, 1.32805], [103.7451, 1.32798], [103.74516, 1.3279], [103.74521, 1.32783], [103.7455, 1.32729], [103.74558, 1.32713], [103.74568, 1.32685], [103.74573, 1.32668], [103.74579, 1.32626], [103.74581, 1.32606], [103.74582, 1.32593], [103.74584, 1.32556], [103.74586, 1.32517], [103.74588, 1.32431], [103.74589, 1.3242], [103.7459, 1.32412], [103.74593, 1.32401], [103.74599, 1.32389], [103.74618, 1.32368], [103.74625, 1.32365], [103.7466, 1.32352], [103.747, 1.3234], [103.74728, 1.32333], [103.74735, 1.32331], [103.74778, 1.3232], [103.74793, 1.32316], [103.74799, 1.32314], [103.74873, 1.32293], [103.74881, 1.32291], [103.74886, 1.3229], [103.74904, 1.32285], [103.75037, 1.32242], [103.75089, 1.32227], [103.75159, 1.32207], [103.75223, 1.32185], [103.75307, 1.32158], [103.75357, 1.32141], [103.7538, 1.32133], [103.75415, 1.32121], [103.75443, 1.32105], [103.75471, 1.32089], [103.75501, 1.32063], [103.75534, 1.32032], [103.75544, 1.32021], [103.75599, 1.31953], [103.75703, 1.31835], [103.7571, 1.31827], [103.75745, 1.31783], [103.75765, 1.31759], [103.75806, 1.31715], [103.75832, 1.31685], [103.75869, 1.31643], [103.759, 1.31608], [103.75908, 1.31599], [103.76007, 1.31482], [103.76027, 1.3146], [103.76058, 1.3143], [103.76142, 1.31346], [103.76157, 1.31331], [103.7622, 1.31269], [103.76297, 1.31191], [103.7631, 1.31178], [103.76344, 1.31144], [103.76349, 1.31139], [103.76352, 1.31135], [103.76363, 1.31125], [103.76424, 1.31062], [103.76448, 1.31039], [103.76454, 1.31032], [103.76496, 1.30987], [103.76505, 1.30976], [103.76569, 1.3089], [103.76587, 1.30865], [103.76607, 1.30838], [103.76627, 1.3081], [103.76646, 1.30784], [103.76676, 1.30744], [103.76708, 1.30713], [103.76728, 1.30692], [103.76766, 1.30658], [103.76809, 1.30625], [103.76862, 1.30581], [103.76875, 1.3057], [103.76902, 1.30549], [103.76962, 1.30508], [103.77101, 1.30434], [103.77142, 1.30415], [103.77198, 1.30392], [103.77334, 1.30325], [103.7735, 1.30317], [103.77402, 1.30285], [103.77519, 1.30218], [103.77659, 1.30136], [103.77796, 1.30056], [103.77816, 1.30044], [103.77826, 1.30037], [103.77866, 1.30012], [103.7789, 1.29998], [103.77938, 1.29967], [103.77952, 1.29959], [103.78059, 1.29895], [103.78102, 1.2987], [103.78123, 1.29859], [103.78185, 1.29825], [103.78239, 1.29794], [103.78311, 1.29752], [103.7835, 1.29722], [103.78357, 1.29716], [103.78366, 1.29708], [103.78402, 1.29674], [103.78438, 1.29632], [103.78453, 1.29615], [103.78479, 1.29584], [103.78575, 1.29476], [103.78616, 1.29423], [103.7865, 1.29382], [103.78723, 1.29308], [103.78781, 1.29261], [103.78845, 1.29221], [103.79037, 1.29101], [103.79221, 1.2898], [103.79268, 1.28944], [103.79283, 1.28932], [103.79287, 1.28929], [103.79317, 1.28904], [103.79326, 1.28897], [103.79343, 1.28883], [103.7943, 1.28825], [103.79466, 1.28802], [103.79537, 1.28762], [103.79559, 1.2875], [103.79594, 1.2873], [103.7965, 1.28693], [103.7968, 1.28673], [103.79702, 1.28659], [103.79736, 1.28637], [103.79797, 1.28594], [103.79825, 1.28575], [103.79839, 1.28565], [103.79914, 1.2851], [103.79971, 1.28475], [103.80023, 1.2845], [103.80076, 1.28432], [103.80131, 1.28421], [103.80207, 1.28412], [103.80604, 1.28388], [103.80796, 1.28377], [103.80824, 1.28375], [103.81015, 1.28364], [103.81091, 1.28357], [103.81169, 1.28345], [103.81242, 1.28328], [103.81314, 1.28305], [103.81379, 1.2828], [103.81456, 1.28243], [103.81499, 1.28219], [103.81528, 1.28202], [103.81705, 1.28091], [103.81745, 1.28067], [103.81766, 1.28053], [103.81817, 1.2802], [103.8185, 1.28], [103.81882, 1.2798], [103.8193, 1.27952], [103.82034, 1.27915], [103.82051, 1.2791], [103.82066, 1.27907], [103.82107, 1.27899], [103.82126, 1.27896], [103.82155, 1.27894], [103.82227, 1.27894], [103.82255, 1.27894], [103.82326, 1.27888], [103.82334, 1.27883], [103.82341, 1.2788], [103.82355, 1.27876], [103.82387, 1.27864], [103.82416, 1.27852], [103.82449, 1.27837], [103.82502, 1.27808], [103.82568, 1.27771], [103.82598, 1.27758], [103.82638, 1.27748], [103.82671, 1.27745], [103.82706, 1.27749], [103.82734, 1.27756], [103.8276, 1.27765], [103.82788, 1.27781], [103.82821, 1.27808], [103.82839, 1.27827], [103.82855, 1.27848], [103.82871, 1.27872], [103.82896, 1.27907], [103.82919, 1.27939], [103.82947, 1.27971], [103.82975, 1.28002], [103.82991, 1.2802], [103.83013, 1.28041], [103.83036, 1.2806], [103.8307, 1.28092], [103.83116, 1.28124], [103.83134, 1.28136], [103.83168, 1.28157], [103.8321, 1.28182], [103.83256, 1.28205], [103.83324, 1.28231], [103.83339, 1.28237], [103.83455, 1.28277], [103.83522, 1.28302], [103.83552, 1.28314], [103.83584, 1.28329], [103.83609, 1.28342], [103.83628, 1.28361], [103.83645, 1.28378], [103.8366, 1.28396], [103.83683, 1.28428], [103.83705, 1.28463], [103.83728, 1.28502], [103.83747, 1.2853], [103.83761, 1.28548], [103.83777, 1.28565], [103.83795, 1.28581], [103.83811, 1.28592], [103.83821, 1.28599], [103.83833, 1.28609], [103.83893, 1.28646], [103.83929, 1.28668], [103.83973, 1.28695], [103.83994, 1.28708], [103.84006, 1.28716], [103.84031, 1.28734], [103.84048, 1.28746], [103.84058, 1.28754], [103.84071, 1.28766], [103.84081, 1.28775], [103.8409, 1.28788], [103.84126, 1.28846], [103.84136, 1.28868], [103.84147, 1.28899], [103.84153, 1.28917], [103.84178, 1.28948], [103.84211, 1.28984], [103.8422, 1.2899], [103.8423, 1.28993], [103.84241, 1.28993], [103.8425, 1.28991], [103.84279, 1.2898], [103.84315, 1.2896], [103.84329, 1.28952], [103.84345, 1.28941], [103.84399, 1.28904], [103.84449, 1.28862], [103.84468, 1.28846], [103.84489, 1.28832], [103.84499, 1.28823], [103.84533, 1.28794], [103.84551, 1.28781], [103.84554, 1.28779], [103.84592, 1.28753], [103.846, 1.28748], [103.84615, 1.28738], [103.84608, 1.28729], [103.84601, 1.28721], [103.84578, 1.28693], [103.84567, 1.2868], [103.84566, 1.28678], [103.84557, 1.28668], [103.84556, 1.2865], [103.84556, 1.28649], [103.84558, 1.28639], [103.84562, 1.28632], [103.84589, 1.28616], [103.84642, 1.28586], [103.84652, 1.28581], [103.84712, 1.28548], [103.84717, 1.28545], [103.84725, 1.28541], [103.84747, 1.28528], [103.84763, 1.28519], [103.84781, 1.28509], [103.8481, 1.28493], [103.84836, 1.28478], [103.84844, 1.28473], [103.84848, 1.28471], [103.84876, 1.28454], [103.8491, 1.28435], [103.84932, 1.28417], [103.84946, 1.28405], [103.84954, 1.28397], [103.84969, 1.2838], [103.8499, 1.28344], [103.85001, 1.28324], [103.8503, 1.28281], [103.85035, 1.28277], [103.85043, 1.28269], [103.85079, 1.28265], [103.85083, 1.28266], [103.85091, 1.28268], [103.85122, 1.28267], [103.85122, 1.28273], [103.85124, 1.2829], [103.85125, 1.28299], [103.85126, 1.28312], [103.85126, 1.2832], [103.85127, 1.28326], [103.85128, 1.28343], [103.85129, 1.28349], [103.85129, 1.28365], [103.85128, 1.28369], [103.85125, 1.28371]]}}, {"type": "Feature", "properties": {"name": "Woodlands \u2192 Orchard", "from": "Woodlands", "to": "Orchard", "distance_km": 20.0, "duration_min": 22, "timestamps": [0, 0, 1, 2, 2, 3, 4, 4, 5, 6, 6, 7, 9, 10, 10, 11, 12, 13, 14, 15, 21, 24, 26, 27, 28, 29, 29, 30, 32, 34, 36, 37, 40, 44, 47, 50, 51, 55, 58, 62, 63, 64, 64, 65, 66, 68, 71, 72, 72, 74, 76, 78, 88, 91, 93, 95, 97, 103, 106, 107, 109, 111, 112, 112, 113, 113, 117, 118, 121, 123, 126, 134, 135, 135, 136, 137, 138, 138, 139, 140, 140, 149, 172, 179, 184, 190, 199, 206, 209, 213, 222, 225, 242, 245, 261, 270, 273, 277, 279, 281, 286, 292, 300, 305, 307, 317, 329, 335, 339, 342, 346, 353, 358, 361, 369, 375, 378, 396, 400, 407, 411, 418, 425, 435, 439, 442, 444, 460, 464, 474, 480, 482, 489, 496, 498, 502, 506, 510, 517, 525, 531, 534, 541, 542, 545, 548, 549, 550, 557, 571, 573, 585, 596, 603, 604, 612, 622, 625, 632, 636, 641, 644, 650, 656, 659, 662, 667, 672, 678, 682, 685, 687, 690, 694, 698, 703, 703, 706, 708, 711, 713, 716, 722, 730, 733, 738, 740, 742, 744, 747, 750, 751, 754, 756, 758, 759, 760, 765, 766, 774, 776, 779, 781, 783, 786, 792, 795, 801, 805, 810, 813, 817, 822, 826, 834, 851, 881, 884, 889, 890, 893, 914, 920, 927, 935, 941, 945, 958, 965, 968, 971, 975, 977, 980, 982, 985, 989, 993, 1003, 1007, 1008, 1014, 1027, 1032, 1034, 1034, 1039, 1042, 1056, 1060, 1063, 1067, 1070, 1074, 1083, 1084, 1084, 1084, 1085, 1086, 1090, 1091, 1092, 1093, 1095, 1097, 1099, 1101, 1102, 1103, 1104, 1105, 1105, 1106, 1107, 1107, 1108, 1109, 1109, 1110, 1112, 1113, 1115, 1116, 1117, 1119, 1123, 1127, 1129, 1133, 1134, 1135, 1139, 1140, 1142, 1145, 1145, 1146, 1147, 1151, 1154, 1155, 1155, 1156, 1157, 1159, 1159, 1161, 1163, 1164, 1165, 1166, 1167, 1169, 1169, 1170, 1171, 1171, 1172, 1174, 1174, 1175, 1179, 1180, 1182, 1183, 1186, 1187, 1189, 1191, 1193, 1195, 1195, 1199, 1200, 1203, 1206, 1208, 1208, 1209, 1210, 1212, 1214, 1216, 1218, 1220, 1222, 1224, 1226, 1227, 1230, 1233, 1236, 1237, 1239, 1240, 1244, 1245, 1248, 1249, 1249, 1251, 1258, 1260, 1261, 1261, 1262, 1264, 1266, 1267, 1269, 1271, 1273, 1278, 1281, 1286, 1287, 1289, 1294, 1294, 1295, 1300, 1301, 1302, 1303, 1309, 1311, 1312, 1313, 1313, 1315, 1316, 1317, 1317, 1318, 1319, 1319, 1320]}, "geometry": {"type": "LineString", "coordinates": [[103.78655, 1.43587], [103.78653, 1.43586], [103.78637, 1.4358], [103.78634, 1.43575], [103.78633, 1.4357], [103.78634, 1.43562], [103.78624, 1.43558], [103.78614, 1.43553], [103.78606, 1.43551], [103.786, 1.43548], [103.78593, 1.43546], [103.78575, 1.43538], [103.78555, 1.43537], [103.78546, 1.43539], [103.78537, 1.43543], [103.7853, 1.43547], [103.78521, 1.43555], [103.78515, 1.43569], [103.78511, 1.43579], [103.78508, 1.4359], [103.7842, 1.43559], [103.78383, 1.43545], [103.78356, 1.43535], [103.7835, 1.43533], [103.78341, 1.43528], [103.78329, 1.43521], [103.78324, 1.43517], [103.78317, 1.4351], [103.78299, 1.43493], [103.7827, 1.43467], [103.78254, 1.43451], [103.78243, 1.43441], [103.78216, 1.43413], [103.78181, 1.43378], [103.78147, 1.43345], [103.78117, 1.43322], [103.78105, 1.43314], [103.78061, 1.43287], [103.78018, 1.43266], [103.77967, 1.43245], [103.7796, 1.43242], [103.77947, 1.43237], [103.77942, 1.43235], [103.77935, 1.43233], [103.77926, 1.43231], [103.77897, 1.43224], [103.77853, 1.43219], [103.77841, 1.43218], [103.77832, 1.43218], [103.77811, 1.43218], [103.77779, 1.43218], [103.77757, 1.43217], [103.77626, 1.43216], [103.77578, 1.43216], [103.77557, 1.43216], [103.77529, 1.43216], [103.77493, 1.43217], [103.7741, 1.43216], [103.77375, 1.43216], [103.77354, 1.43216], [103.77332, 1.43217], [103.7731, 1.43217], [103.77295, 1.43215], [103.77291, 1.43215], [103.77281, 1.43213], [103.77277, 1.43213], [103.7722, 1.432], [103.7721, 1.43198], [103.77178, 1.43193], [103.77141, 1.43186], [103.77099, 1.4318], [103.77002, 1.43161], [103.7699, 1.43154], [103.76984, 1.43149], [103.76972, 1.43143], [103.76962, 1.43135], [103.76958, 1.43129], [103.76954, 1.43123], [103.7695, 1.43114], [103.76948, 1.43105], [103.76948, 1.43093], [103.76969, 1.4298], [103.77058, 1.42682], [103.77086, 1.42587], [103.77102, 1.42525], [103.77118, 1.42438], [103.77129, 1.42324], [103.77136, 1.42217], [103.77137, 1.42177], [103.77138, 1.42131], [103.77141, 1.42002], [103.77142, 1.41958], [103.77145, 1.41734], [103.77146, 1.41683], [103.77149, 1.41476], [103.77156, 1.41354], [103.77158, 1.41302], [103.7716, 1.41249], [103.77161, 1.41229], [103.77164, 1.41204], [103.7717, 1.41137], [103.77173, 1.4105], [103.77188, 1.40941], [103.77202, 1.40868], [103.77206, 1.40845], [103.77235, 1.40719], [103.7728, 1.40554], [103.77301, 1.40473], [103.77315, 1.40423], [103.77326, 1.4038], [103.77336, 1.40336], [103.77355, 1.40234], [103.77367, 1.40163], [103.77373, 1.40127], [103.77387, 1.40024], [103.77394, 1.39936], [103.77397, 1.39892], [103.77402, 1.39654], [103.77402, 1.39602], [103.77405, 1.39506], [103.77406, 1.3945], [103.77414, 1.39353], [103.77424, 1.39253], [103.77441, 1.39118], [103.77448, 1.39066], [103.77456, 1.39023], [103.77458, 1.39004], [103.77484, 1.38789], [103.77492, 1.38729], [103.7751, 1.38596], [103.77518, 1.38511], [103.77522, 1.38482], [103.77533, 1.3839], [103.77545, 1.38297], [103.77549, 1.38274], [103.77558, 1.38219], [103.77567, 1.38168], [103.77578, 1.3811], [103.77598, 1.38013], [103.77627, 1.37913], [103.77649, 1.37832], [103.77662, 1.37786], [103.77687, 1.37694], [103.77689, 1.37686], [103.77699, 1.37652], [103.7771, 1.3761], [103.77713, 1.376], [103.77718, 1.37579], [103.77744, 1.37491], [103.77796, 1.37304], [103.77805, 1.37272], [103.77847, 1.37117], [103.77887, 1.36974], [103.7791, 1.36878], [103.77913, 1.36866], [103.77933, 1.36766], [103.77956, 1.36633], [103.77963, 1.36582], [103.77976, 1.36497], [103.77986, 1.36433], [103.77995, 1.36375], [103.78004, 1.36327], [103.78025, 1.36247], [103.78047, 1.36175], [103.78066, 1.36133], [103.78078, 1.36104], [103.78109, 1.36031], [103.78137, 1.35975], [103.78175, 1.35908], [103.78205, 1.3586], [103.78233, 1.35819], [103.7825, 1.35798], [103.78274, 1.35766], [103.78307, 1.35725], [103.78341, 1.35689], [103.78387, 1.35642], [103.78394, 1.35635], [103.78417, 1.35614], [103.78441, 1.35591], [103.78471, 1.35567], [103.78498, 1.35545], [103.78525, 1.35524], [103.78595, 1.35476], [103.78686, 1.35417], [103.78714, 1.35398], [103.78777, 1.35357], [103.78796, 1.35346], [103.78821, 1.3533], [103.78849, 1.35312], [103.78882, 1.35291], [103.78914, 1.35264], [103.78921, 1.35258], [103.7895, 1.3523], [103.78973, 1.35206], [103.78986, 1.35191], [103.78999, 1.35183], [103.79008, 1.35175], [103.79053, 1.35123], [103.79063, 1.3511], [103.79126, 1.35026], [103.79151, 1.35003], [103.79181, 1.34985], [103.79207, 1.34975], [103.79238, 1.3497], [103.79284, 1.3497], [103.79365, 1.34968], [103.79404, 1.34965], [103.79477, 1.34948], [103.79536, 1.34935], [103.79597, 1.34915], [103.79643, 1.34895], [103.7969, 1.3487], [103.7974, 1.34839], [103.79784, 1.34805], [103.79863, 1.34732], [103.80028, 1.34562], [103.80307, 1.34269], [103.80342, 1.34235], [103.80385, 1.3419], [103.80402, 1.34173], [103.80429, 1.34144], [103.80631, 1.33947], [103.80689, 1.33894], [103.80758, 1.33834], [103.80844, 1.33756], [103.80907, 1.33699], [103.80943, 1.33666], [103.81071, 1.33546], [103.81143, 1.33479], [103.81179, 1.33455], [103.81217, 1.33433], [103.81259, 1.33418], [103.81289, 1.33408], [103.81333, 1.33394], [103.81354, 1.33387], [103.8139, 1.33375], [103.81443, 1.33358], [103.81497, 1.33336], [103.81619, 1.33271], [103.81667, 1.33245], [103.81679, 1.33238], [103.81745, 1.33202], [103.81906, 1.33115], [103.81963, 1.33082], [103.81985, 1.33071], [103.81985, 1.33071], [103.82053, 1.3304], [103.82087, 1.33026], [103.82266, 1.32951], [103.82317, 1.32928], [103.8235, 1.32911], [103.82398, 1.32881], [103.82434, 1.32852], [103.82471, 1.32815], [103.82556, 1.3273], [103.82565, 1.32728], [103.82569, 1.32726], [103.82572, 1.32723], [103.82578, 1.32719], [103.82596, 1.32707], [103.82635, 1.32688], [103.82653, 1.32683], [103.82673, 1.32679], [103.82681, 1.32677], [103.82704, 1.32675], [103.82731, 1.32676], [103.82767, 1.32679], [103.82786, 1.32684], [103.82805, 1.32689], [103.82814, 1.32695], [103.82823, 1.32705], [103.82826, 1.32713], [103.82827, 1.32724], [103.82826, 1.32735], [103.82823, 1.32743], [103.82819, 1.3275], [103.82814, 1.32754], [103.82806, 1.32759], [103.82796, 1.32761], [103.82782, 1.3276], [103.8276, 1.32755], [103.82743, 1.32746], [103.82729, 1.32734], [103.82717, 1.32721], [103.82708, 1.32705], [103.82701, 1.32687], [103.82683, 1.32627], [103.82672, 1.32575], [103.82671, 1.32548], [103.82674, 1.32503], [103.82677, 1.32488], [103.82679, 1.32476], [103.82684, 1.32413], [103.82684, 1.32402], [103.82674, 1.32384], [103.82654, 1.32347], [103.8265, 1.32339], [103.82649, 1.32336], [103.8264, 1.32319], [103.82618, 1.32274], [103.82604, 1.32235], [103.82599, 1.32218], [103.82598, 1.32215], [103.82595, 1.32207], [103.82589, 1.32189], [103.82583, 1.32172], [103.8258, 1.32165], [103.8257, 1.32137], [103.82561, 1.32116], [103.82559, 1.32104], [103.82556, 1.32085], [103.82556, 1.32075], [103.82555, 1.32057], [103.82554, 1.32037], [103.82554, 1.3203], [103.82554, 1.32024], [103.82555, 1.32013], [103.82555, 1.32008], [103.82557, 1.31994], [103.82559, 1.31973], [103.8256, 1.31969], [103.82562, 1.31952], [103.82567, 1.319], [103.8257, 1.31881], [103.82573, 1.3186], [103.82576, 1.31841], [103.82581, 1.3181], [103.82586, 1.3179], [103.82591, 1.31765], [103.82594, 1.31741], [103.82598, 1.31706], [103.826, 1.31688], [103.82601, 1.31682], [103.8261, 1.31628], [103.82611, 1.3162], [103.82619, 1.3157], [103.82623, 1.31541], [103.82626, 1.31514], [103.82628, 1.31511], [103.82633, 1.31498], [103.82642, 1.31477], [103.82657, 1.31455], [103.82674, 1.31436], [103.82694, 1.31419], [103.82714, 1.31406], [103.82735, 1.3139], [103.82757, 1.31373], [103.82781, 1.3136], [103.82809, 1.31349], [103.82823, 1.31345], [103.82854, 1.31336], [103.82903, 1.31325], [103.8294, 1.31315], [103.82956, 1.31311], [103.8298, 1.31305], [103.82993, 1.31302], [103.83048, 1.31287], [103.8306, 1.31284], [103.83093, 1.31276], [103.83106, 1.31273], [103.83117, 1.3127], [103.83135, 1.31266], [103.83228, 1.31243], [103.83254, 1.31234], [103.8327, 1.31227], [103.83273, 1.31224], [103.83282, 1.31217], [103.833, 1.312], [103.83312, 1.31181], [103.83321, 1.31159], [103.83326, 1.31141], [103.83332, 1.31113], [103.83335, 1.31085], [103.83346, 1.3101], [103.8335, 1.30979], [103.83357, 1.30908], [103.8336, 1.30893], [103.83365, 1.30864], [103.83342, 1.3081], [103.83339, 1.30804], [103.83332, 1.30786], [103.83306, 1.30723], [103.83302, 1.30714], [103.83297, 1.30703], [103.83292, 1.30691], [103.83261, 1.30619], [103.83249, 1.30596], [103.83241, 1.30579], [103.83239, 1.30573], [103.83234, 1.30566], [103.8323, 1.30547], [103.83227, 1.30533], [103.83223, 1.30521], [103.83221, 1.30509], [103.83224, 1.30499], [103.83229, 1.30491], [103.83234, 1.30485], [103.8324, 1.30481]]}}, {"type": "Feature", "properties": {"name": "Tampines \u2192 one-north", "from": "Tampines", "to": "one-north", "distance_km": 23.4, "duration_min": 26, "timestamps": [0, 0, 1, 2, 3, 5, 6, 6, 7, 7, 8, 8, 9, 10, 12, 13, 14, 15, 16, 16, 16, 18, 18, 18, 19, 19, 20, 21, 22, 24, 28, 28, 29, 34, 36, 38, 40, 40, 41, 41, 41, 42, 44, 46, 50, 51, 53, 54, 55, 64, 67, 68, 70, 70, 71, 72, 74, 76, 76, 77, 79, 80, 81, 81, 82, 84, 84, 87, 88, 90, 93, 97, 101, 102, 103, 104, 108, 111, 112, 114, 119, 119, 120, 120, 120, 120, 120, 121, 123, 124, 125, 126, 127, 129, 131, 131, 132, 133, 135, 147, 149, 150, 150, 151, 153, 153, 156, 158, 159, 162, 166, 170, 171, 172, 173, 175, 175, 175, 176, 177, 179, 181, 183, 185, 186, 186, 188, 190, 195, 196, 197, 199, 199, 203, 205, 206, 207, 207, 208, 209, 209, 209, 209, 209, 209, 210, 222, 238, 242, 247, 251, 255, 258, 260, 263, 265, 267, 270, 275, 276, 278, 280, 281, 297, 299, 314, 316, 334, 337, 344, 353, 363, 371, 379, 381, 386, 397, 401, 404, 406, 408, 410, 416, 418, 436, 444, 453, 458, 461, 464, 474, 488, 504, 513, 517, 530, 555, 563, 566, 569, 576, 577, 577, 577, 579, 581, 585, 586, 587, 589, 598, 605, 609, 614, 622, 626, 628, 629, 630, 631, 633, 635, 638, 643, 648, 649, 651, 653, 654, 655, 656, 659, 660, 661, 662, 664, 665, 668, 670, 685, 686, 702, 708, 711, 715, 718, 718, 720, 722, 723, 725, 727, 732, 734, 737, 740, 742, 744, 746, 748, 751, 758, 759, 761, 764, 765, 767, 771, 773, 775, 777, 778, 781, 783, 785, 786, 789, 790, 792, 793, 795, 797, 799, 800, 801, 803, 805, 810, 812, 813, 817, 825, 828, 830, 832, 835, 836, 838, 840, 856, 861, 862, 863, 877, 884, 889, 890, 894, 901, 906, 909, 911, 919, 921, 922, 928, 933, 936, 940, 942, 944, 947, 950, 953, 962, 967, 971, 975, 977, 979, 998, 999, 1001, 1005, 1011, 1012, 1014, 1016, 1017, 1019, 1022, 1024, 1031, 1036, 1040, 1041, 1042, 1043, 1044, 1048, 1055, 1058, 1060, 1061, 1062, 1065, 1068, 1072, 1084, 1088, 1092, 1098, 1116, 1121, 1122, 1128, 1129, 1130, 1131, 1132, 1135, 1137, 1138, 1139, 1141, 1143, 1144, 1145, 1149, 1151, 1152, 1153, 1154, 1157, 1160, 1161, 1162, 1163, 1164, 1165, 1166, 1170, 1173, 1174, 1175, 1176, 1177, 1178, 1179, 1181, 1183, 1187, 1193, 1200, 1202, 1205, 1207, 1208, 1215, 1222, 1224, 1225, 1226, 1228, 1230, 1235, 1238, 1240, 1243, 1244, 1246, 1250, 1255, 1256, 1258, 1260, 1260, 1261, 1262, 1271, 1279, 1280, 1281, 1281, 1282, 1283, 1286, 1287, 1291, 1293, 1296, 1297, 1300, 1303, 1303, 1303, 1303, 1305, 1307, 1310, 1312, 1313, 1314, 1316, 1318, 1318, 1320, 1321, 1321, 1323, 1327, 1329, 1332, 1333, 1333, 1335, 1336, 1336, 1338, 1341, 1341, 1344, 1345, 1348, 1350, 1352, 1352, 1353, 1358, 1359, 1360, 1361, 1361, 1361, 1362, 1363, 1364, 1365, 1366, 1368, 1368, 1370, 1373, 1376, 1379, 1380, 1381, 1382, 1383, 1384, 1384, 1385, 1386, 1387, 1388, 1390, 1391, 1392, 1394, 1397, 1400, 1401, 1401, 1402, 1403, 1404, 1406, 1407, 1409, 1410, 1411, 1414, 1416, 1420, 1423, 1424, 1425, 1425, 1426, 1426, 1431, 1432, 1434, 1436, 1437, 1437, 1442, 1444, 1446, 1447, 1449, 1452, 1454, 1457, 1458, 1458, 1459, 1460, 1461, 1461, 1462, 1462, 1462, 1463, 1463, 1463, 1464, 1464, 1465, 1467, 1468, 1469, 1469, 1469, 1469, 1470, 1470, 1470, 1470, 1471, 1471, 1472, 1473, 1475, 1476, 1478, 1480, 1481, 1483, 1485, 1489, 1489, 1492, 1492, 1493, 1493, 1497, 1501, 1504, 1505, 1509, 1511, 1512, 1513, 1515, 1515, 1516, 1516, 1517, 1518, 1519, 1522, 1523, 1526, 1529, 1530, 1530, 1531, 1533, 1534, 1542, 1544, 1546, 1548, 1548, 1549, 1549, 1550, 1551, 1552, 1555, 1556, 1559, 1560, 1560]}, "geometry": {"type": "LineString", "coordinates": [[103.94501, 1.3496], [103.94501, 1.34959], [103.94501, 1.34952], [103.94486, 1.34959], [103.94473, 1.34972], [103.9446, 1.34994], [103.94457, 1.35003], [103.94457, 1.3501], [103.94459, 1.35017], [103.94464, 1.35021], [103.94468, 1.35023], [103.94476, 1.35027], [103.94483, 1.35031], [103.94473, 1.35044], [103.9446, 1.3506], [103.9445, 1.35079], [103.94446, 1.35088], [103.94444, 1.351], [103.94442, 1.35113], [103.94442, 1.35115], [103.94442, 1.35118], [103.94442, 1.3514], [103.94442, 1.35142], [103.94442, 1.35146], [103.94442, 1.3515], [103.94441, 1.35161], [103.94441, 1.3517], [103.94432, 1.35169], [103.94421, 1.35168], [103.94386, 1.35167], [103.94335, 1.35168], [103.94328, 1.35168], [103.94321, 1.35168], [103.94252, 1.35168], [103.94229, 1.35168], [103.94193, 1.35168], [103.94176, 1.35165], [103.94169, 1.35161], [103.94165, 1.35158], [103.94164, 1.35157], [103.9416, 1.35153], [103.94155, 1.35144], [103.94155, 1.35115], [103.94156, 1.35087], [103.94161, 1.35039], [103.94164, 1.35023], [103.9417, 1.34991], [103.94171, 1.34986], [103.94174, 1.34973], [103.94207, 1.34848], [103.94214, 1.34816], [103.94219, 1.34796], [103.94223, 1.3478], [103.94225, 1.34772], [103.94227, 1.34767], [103.94233, 1.3475], [103.94242, 1.34726], [103.94252, 1.34706], [103.94257, 1.34697], [103.94262, 1.3469], [103.94278, 1.3467], [103.94291, 1.34655], [103.94293, 1.34652], [103.94297, 1.34647], [103.94308, 1.34635], [103.94293, 1.34622], [103.94288, 1.34618], [103.94253, 1.3459], [103.9425, 1.34587], [103.94222, 1.34568], [103.94196, 1.34552], [103.94138, 1.34522], [103.94095, 1.34502], [103.94078, 1.34496], [103.94072, 1.34494], [103.94053, 1.34489], [103.94009, 1.34479], [103.93967, 1.34473], [103.93944, 1.34471], [103.93922, 1.34469], [103.93861, 1.34467], [103.93853, 1.34463], [103.9385, 1.34461], [103.93848, 1.34459], [103.93847, 1.34458], [103.93846, 1.34456], [103.93845, 1.34454], [103.93842, 1.34449], [103.93838, 1.34413], [103.93837, 1.344], [103.93837, 1.34388], [103.93834, 1.34379], [103.93829, 1.34364], [103.93816, 1.34337], [103.93804, 1.34316], [103.93801, 1.34311], [103.93795, 1.34303], [103.93793, 1.34299], [103.93779, 1.34274], [103.93706, 1.34131], [103.93686, 1.34103], [103.93683, 1.34098], [103.93679, 1.3409], [103.93673, 1.34082], [103.93663, 1.34062], [103.93657, 1.34054], [103.93633, 1.34024], [103.93617, 1.34005], [103.93607, 1.33995], [103.93582, 1.33965], [103.9354, 1.33922], [103.93508, 1.33888], [103.935, 1.33879], [103.93484, 1.33865], [103.93472, 1.33856], [103.93459, 1.33848], [103.93459, 1.33848], [103.93452, 1.33844], [103.93445, 1.3384], [103.9343, 1.33832], [103.93404, 1.33821], [103.93381, 1.33813], [103.93358, 1.33805], [103.93331, 1.33798], [103.93321, 1.33792], [103.93316, 1.33786], [103.93309, 1.33771], [103.93316, 1.33738], [103.93329, 1.33675], [103.93331, 1.33664], [103.93335, 1.33648], [103.93342, 1.33621], [103.93344, 1.33614], [103.93356, 1.33569], [103.93361, 1.33545], [103.93364, 1.33527], [103.9336, 1.33518], [103.93356, 1.33513], [103.93346, 1.33504], [103.93342, 1.33502], [103.93341, 1.33502], [103.9334, 1.33501], [103.93338, 1.335], [103.93335, 1.33499], [103.93333, 1.33499], [103.9333, 1.33498], [103.93159, 1.3352], [103.92946, 1.33545], [103.92902, 1.33544], [103.92833, 1.33541], [103.92779, 1.33536], [103.92725, 1.33527], [103.9268, 1.33519], [103.92649, 1.33513], [103.92618, 1.33506], [103.92593, 1.335], [103.92565, 1.33493], [103.92529, 1.33482], [103.92459, 1.3346], [103.92443, 1.33454], [103.9242, 1.33446], [103.92399, 1.33437], [103.92379, 1.33428], [103.92194, 1.33343], [103.92168, 1.33331], [103.91981, 1.33243], [103.91954, 1.33231], [103.91734, 1.33127], [103.91705, 1.33113], [103.9161, 1.33069], [103.91509, 1.33022], [103.91386, 1.32964], [103.91292, 1.32919], [103.91193, 1.32871], [103.91166, 1.32856], [103.91106, 1.32823], [103.90982, 1.32755], [103.90934, 1.32727], [103.90899, 1.32711], [103.90869, 1.32699], [103.90845, 1.3269], [103.90822, 1.32683], [103.90743, 1.32661], [103.90713, 1.32652], [103.90475, 1.3258], [103.90383, 1.32553], [103.90257, 1.32525], [103.90189, 1.3251], [103.90149, 1.32502], [103.90118, 1.32495], [103.89976, 1.32468], [103.8979, 1.32432], [103.89581, 1.32391], [103.89466, 1.32368], [103.89415, 1.32359], [103.89244, 1.32322], [103.88913, 1.32243], [103.88811, 1.32228], [103.88766, 1.32223], [103.88719, 1.32217], [103.88634, 1.32214], [103.88619, 1.32214], [103.88616, 1.32214], [103.88612, 1.32213], [103.88597, 1.32213], [103.88564, 1.32212], [103.88507, 1.32207], [103.88495, 1.32204], [103.88482, 1.32202], [103.88454, 1.32194], [103.88345, 1.32152], [103.88262, 1.32118], [103.88209, 1.32097], [103.8814, 1.32069], [103.88047, 1.32031], [103.8799, 1.32008], [103.87966, 1.32], [103.87952, 1.31996], [103.87941, 1.31993], [103.87929, 1.31991], [103.87906, 1.31987], [103.87882, 1.31982], [103.87839, 1.31977], [103.87774, 1.31979], [103.87702, 1.31981], [103.87682, 1.31983], [103.87657, 1.31988], [103.87631, 1.31995], [103.87625, 1.31997], [103.87613, 1.32003], [103.87598, 1.3201], [103.87559, 1.32029], [103.87547, 1.32037], [103.87536, 1.32044], [103.87523, 1.32052], [103.87501, 1.32069], [103.87493, 1.32076], [103.87469, 1.32096], [103.87446, 1.32122], [103.87327, 1.32279], [103.87313, 1.32295], [103.87189, 1.32458], [103.87137, 1.3253], [103.87118, 1.32556], [103.87076, 1.32608], [103.87054, 1.3263], [103.87048, 1.32636], [103.87032, 1.32654], [103.87018, 1.32667], [103.87006, 1.32679], [103.86988, 1.32696], [103.86961, 1.32718], [103.8691, 1.32756], [103.86883, 1.32774], [103.8685, 1.32795], [103.86822, 1.3281], [103.86798, 1.32822], [103.86772, 1.32834], [103.86748, 1.32844], [103.86719, 1.32855], [103.86681, 1.32868], [103.86594, 1.32893], [103.86576, 1.32898], [103.86546, 1.32907], [103.86515, 1.32916], [103.86494, 1.32924], [103.86473, 1.32933], [103.86423, 1.32956], [103.86403, 1.32966], [103.86376, 1.3298], [103.86359, 1.32989], [103.86337, 1.33], [103.8631, 1.33012], [103.86284, 1.33023], [103.86255, 1.33032], [103.86236, 1.33037], [103.86204, 1.33042], [103.86184, 1.33045], [103.86162, 1.33048], [103.86145, 1.33048], [103.86126, 1.33046], [103.86097, 1.33042], [103.86075, 1.33036], [103.86054, 1.33029], [103.86038, 1.33024], [103.86019, 1.33017], [103.85995, 1.33008], [103.85925, 1.32983], [103.85903, 1.32976], [103.85885, 1.3297], [103.85834, 1.32953], [103.85743, 1.32923], [103.85698, 1.32909], [103.85672, 1.32903], [103.85645, 1.329], [103.85604, 1.329], [103.85592, 1.32901], [103.85565, 1.32903], [103.85534, 1.32905], [103.85323, 1.32921], [103.8525, 1.32926], [103.85235, 1.32928], [103.85223, 1.32929], [103.85042, 1.32944], [103.84951, 1.32953], [103.84883, 1.32958], [103.8487, 1.32959], [103.84816, 1.32964], [103.84722, 1.32968], [103.84651, 1.32969], [103.84604, 1.32967], [103.84587, 1.32965], [103.84477, 1.32959], [103.8445, 1.32958], [103.84437, 1.32957], [103.84352, 1.32953], [103.84289, 1.32949], [103.8424, 1.32944], [103.84199, 1.32937], [103.84173, 1.32929], [103.84148, 1.3292], [103.84106, 1.32903], [103.84065, 1.32885], [103.84027, 1.32865], [103.83927, 1.32807], [103.83874, 1.32775], [103.83825, 1.3275], [103.83775, 1.32729], [103.83745, 1.32718], [103.83725, 1.32712], [103.83479, 1.32633], [103.83469, 1.3263], [103.83438, 1.3262], [103.83381, 1.32602], [103.83312, 1.32582], [103.83291, 1.32577], [103.83273, 1.32574], [103.83248, 1.32572], [103.83222, 1.32573], [103.83197, 1.32577], [103.83158, 1.32585], [103.83136, 1.32596], [103.83052, 1.32649], [103.82988, 1.32671], [103.82937, 1.32678], [103.82923, 1.32679], [103.82912, 1.32678], [103.82903, 1.32676], [103.82888, 1.32673], [103.82831, 1.32665], [103.82735, 1.32648], [103.82697, 1.3265], [103.82674, 1.32651], [103.82666, 1.32653], [103.82643, 1.32659], [103.82613, 1.3267], [103.82576, 1.32693], [103.82529, 1.32732], [103.82419, 1.32846], [103.82382, 1.32872], [103.82326, 1.32904], [103.82256, 1.32938], [103.8203, 1.33028], [103.81976, 1.33056], [103.81955, 1.33068], [103.81887, 1.33106], [103.81871, 1.33109], [103.8186, 1.33112], [103.8185, 1.33115], [103.8184, 1.3312], [103.81806, 1.33136], [103.81776, 1.33148], [103.81762, 1.33149], [103.81749, 1.33147], [103.81731, 1.33141], [103.81705, 1.33129], [103.81689, 1.33123], [103.81671, 1.33119], [103.81625, 1.33119], [103.81597, 1.33116], [103.81582, 1.33109], [103.81573, 1.33102], [103.81562, 1.33092], [103.81541, 1.33058], [103.81521, 1.33025], [103.81513, 1.33014], [103.81505, 1.33002], [103.81494, 1.32986], [103.81492, 1.32982], [103.81481, 1.32967], [103.81472, 1.32953], [103.8144, 1.32906], [103.81427, 1.32879], [103.81422, 1.32866], [103.81418, 1.32855], [103.81413, 1.32842], [103.81409, 1.32828], [103.81405, 1.32808], [103.81402, 1.32795], [103.81398, 1.3277], [103.81396, 1.32745], [103.81392, 1.32689], [103.81385, 1.32614], [103.81376, 1.3252], [103.81372, 1.32488], [103.81365, 1.32455], [103.81358, 1.3243], [103.81355, 1.32413], [103.81337, 1.32323], [103.81319, 1.32223], [103.81314, 1.32205], [103.81306, 1.32182], [103.813, 1.32169], [103.8129, 1.32154], [103.81272, 1.32131], [103.81227, 1.32081], [103.81197, 1.32048], [103.81177, 1.32028], [103.81154, 1.32008], [103.81141, 1.31998], [103.81118, 1.31984], [103.81071, 1.31959], [103.81011, 1.31931], [103.80994, 1.31923], [103.80972, 1.31913], [103.80952, 1.319], [103.80944, 1.31896], [103.80939, 1.31892], [103.8092, 1.31878], [103.80836, 1.31804], [103.80752, 1.31725], [103.80745, 1.31719], [103.80739, 1.31714], [103.80732, 1.31707], [103.80726, 1.31701], [103.8072, 1.31696], [103.80688, 1.31665], [103.80674, 1.31651], [103.80636, 1.31619], [103.80619, 1.31603], [103.80589, 1.31575], [103.80582, 1.31568], [103.80544, 1.31532], [103.80523, 1.31509], [103.8052, 1.31506], [103.80518, 1.31503], [103.80516, 1.31501], [103.80505, 1.31488], [103.80485, 1.31459], [103.80472, 1.31429], [103.8046, 1.314], [103.80456, 1.31386], [103.80451, 1.31373], [103.80441, 1.31345], [103.80436, 1.31331], [103.80433, 1.31322], [103.80427, 1.31305], [103.80422, 1.3129], [103.80422, 1.31285], [103.80418, 1.31255], [103.80406, 1.31208], [103.80399, 1.31183], [103.80391, 1.31148], [103.80387, 1.31133], [103.80386, 1.3113], [103.80378, 1.31098], [103.80376, 1.31094], [103.80375, 1.3109], [103.80367, 1.31059], [103.80337, 1.31067], [103.80331, 1.31069], [103.80294, 1.31079], [103.80277, 1.31083], [103.80242, 1.31093], [103.80218, 1.31099], [103.80193, 1.31106], [103.80189, 1.31107], [103.80178, 1.3111], [103.80118, 1.31128], [103.80102, 1.31134], [103.80086, 1.3114], [103.80075, 1.31144], [103.80072, 1.31145], [103.80069, 1.31147], [103.80068, 1.31147], [103.80056, 1.31153], [103.80036, 1.31163], [103.80032, 1.31165], [103.80014, 1.31177], [103.79996, 1.3119], [103.79989, 1.31195], [103.79972, 1.31206], [103.79931, 1.31231], [103.79901, 1.31251], [103.79865, 1.31271], [103.79854, 1.31276], [103.79843, 1.3128], [103.79832, 1.31283], [103.79821, 1.31286], [103.79808, 1.31288], [103.79798, 1.31288], [103.79788, 1.31288], [103.79778, 1.31286], [103.79764, 1.31283], [103.79752, 1.31279], [103.79728, 1.31269], [103.79711, 1.31262], [103.79701, 1.31257], [103.79672, 1.31241], [103.79641, 1.31225], [103.79605, 1.31205], [103.79597, 1.31203], [103.79592, 1.31201], [103.79581, 1.31199], [103.79569, 1.31197], [103.79553, 1.31195], [103.79532, 1.31196], [103.7951, 1.312], [103.79493, 1.31206], [103.79477, 1.31214], [103.79461, 1.31224], [103.79434, 1.31246], [103.79415, 1.3126], [103.79373, 1.31291], [103.79337, 1.3132], [103.79324, 1.31321], [103.79316, 1.31322], [103.7931, 1.3132], [103.793, 1.31316], [103.79295, 1.3131], [103.79256, 1.31268], [103.7924, 1.31251], [103.79222, 1.31232], [103.79207, 1.31218], [103.792, 1.31209], [103.79196, 1.31206], [103.79149, 1.31161], [103.79133, 1.31142], [103.79119, 1.31118], [103.79115, 1.31095], [103.79116, 1.31068], [103.79121, 1.31037], [103.79129, 1.31006], [103.7914, 1.30973], [103.79144, 1.30962], [103.79146, 1.30956], [103.7915, 1.30939], [103.79153, 1.30927], [103.79155, 1.30919], [103.79155, 1.30912], [103.79155, 1.30906], [103.79155, 1.309], [103.79155, 1.30899], [103.79158, 1.30895], [103.7916, 1.30891], [103.7916, 1.30889], [103.79161, 1.30885], [103.7916, 1.30882], [103.79157, 1.30863], [103.79152, 1.30845], [103.79146, 1.3083], [103.79143, 1.3082], [103.79142, 1.30817], [103.79141, 1.30814], [103.7914, 1.30811], [103.79139, 1.30808], [103.79138, 1.30803], [103.79137, 1.30799], [103.79135, 1.30797], [103.79133, 1.30796], [103.79127, 1.30793], [103.79124, 1.3078], [103.79122, 1.30772], [103.79114, 1.30747], [103.79108, 1.30727], [103.79102, 1.30702], [103.79095, 1.30681], [103.79086, 1.30661], [103.79077, 1.30642], [103.79066, 1.30622], [103.79037, 1.30576], [103.79031, 1.30567], [103.79013, 1.30545], [103.79011, 1.30543], [103.79002, 1.30533], [103.78997, 1.3053], [103.7896, 1.30503], [103.78915, 1.30473], [103.78879, 1.30451], [103.7886, 1.30438], [103.78824, 1.30415], [103.78804, 1.30399], [103.78789, 1.30387], [103.78776, 1.30374], [103.78762, 1.3036], [103.78759, 1.30356], [103.78754, 1.30347], [103.78751, 1.30342], [103.78747, 1.30335], [103.78742, 1.30325], [103.78732, 1.30308], [103.78718, 1.30271], [103.78714, 1.30254], [103.78706, 1.30215], [103.78694, 1.3018], [103.78689, 1.30169], [103.78687, 1.30164], [103.78685, 1.30157], [103.78674, 1.30134], [103.78668, 1.30123], [103.78606, 1.30038], [103.78589, 1.30015], [103.78575, 1.29992], [103.78565, 1.29968], [103.78565, 1.29957], [103.78565, 1.29951], [103.78567, 1.29944], [103.7857, 1.29939], [103.7858, 1.29928], [103.78595, 1.2992], [103.78629, 1.29905], [103.78637, 1.29901], [103.78674, 1.29887], [103.78691, 1.29879], [103.78691, 1.29879]]}}, {"type": "Feature", "properties": {"name": "HarbourFront \u2192 Ang Mo Kio", "from": "HarbourFront", "to": "Ang Mo Kio", "distance_km": 15.6, "duration_min": 17, "timestamps": [0, 1, 4, 4, 4, 5, 5, 5, 6, 6, 6, 7, 7, 12, 16, 17, 19, 22, 22, 23, 23, 25, 26, 26, 28, 30, 31, 32, 33, 34, 35, 37, 40, 40, 42, 43, 43, 44, 44, 45, 45, 50, 51, 56, 57, 58, 59, 60, 61, 62, 64, 65, 67, 68, 69, 70, 71, 71, 72, 72, 72, 73, 73, 74, 76, 77, 78, 78, 79, 82, 83, 84, 86, 88, 89, 93, 94, 94, 97, 97, 101, 102, 103, 103, 104, 105, 105, 106, 106, 110, 110, 111, 112, 112, 113, 113, 114, 115, 115, 115, 116, 118, 124, 125, 126, 126, 127, 127, 128, 129, 130, 130, 131, 133, 134, 135, 137, 140, 143, 143, 144, 144, 146, 148, 150, 152, 153, 154, 155, 155, 156, 156, 157, 157, 157, 158, 162, 164, 165, 166, 167, 168, 168, 168, 169, 169, 171, 173, 175, 177, 179, 183, 184, 186, 187, 190, 190, 191, 191, 192, 193, 193, 194, 195, 196, 197, 203, 208, 211, 215, 217, 220, 223, 227, 232, 233, 242, 248, 250, 253, 255, 257, 258, 260, 263, 266, 269, 272, 273, 275, 277, 278, 279, 280, 285, 288, 292, 294, 295, 297, 299, 300, 301, 302, 305, 312, 318, 319, 326, 326, 339, 346, 348, 350, 354, 357, 362, 366, 369, 378, 383, 388, 395, 401, 404, 407, 409, 412, 413, 420, 426, 427, 431, 433, 437, 439, 442, 444, 447, 450, 452, 454, 456, 458, 462, 465, 468, 471, 474, 483, 485, 490, 493, 495, 499, 502, 506, 508, 512, 520, 521, 525, 528, 531, 535, 538, 542, 546, 549, 551, 553, 558, 559, 567, 572, 573, 586, 591, 593, 598, 601, 605, 610, 614, 617, 621, 625, 626, 635, 640, 642, 645, 645, 648, 653, 660, 663, 665, 667, 670, 672, 677, 681, 685, 687, 688, 693, 694, 696, 697, 698, 700, 716, 718, 722, 724, 733, 735, 739, 743, 747, 751, 756, 759, 761, 762, 764, 767, 770, 772, 776, 778, 784, 793, 799, 802, 802, 811, 818, 827, 835, 856, 857, 860, 861, 868, 873, 874, 874, 874, 875, 876, 882, 883, 888, 889, 891, 895, 896, 897, 898, 900, 901, 904, 907, 909, 910, 912, 915, 916, 922, 923, 924, 925, 925, 927, 928, 930, 932, 934, 935, 940, 940, 941, 942, 943, 946, 947, 949, 950, 951, 952, 952, 953, 953, 955, 956, 957, 959, 960, 962, 964, 965, 967, 969, 972, 974, 975, 979, 980, 982, 984, 986, 987, 988, 988, 989, 998, 1004, 1006, 1008, 1010, 1011, 1012, 1012, 1013, 1016, 1020, 1020]}, "geometry": {"type": "LineString", "coordinates": [[103.82198, 1.26557], [103.82182, 1.26556], [103.82144, 1.26554], [103.82141, 1.26556], [103.82139, 1.26558], [103.82136, 1.26561], [103.82135, 1.26565], [103.82135, 1.26569], [103.82135, 1.26573], [103.82136, 1.26578], [103.8214, 1.26581], [103.82144, 1.26582], [103.82155, 1.26583], [103.82224, 1.26586], [103.82273, 1.26589], [103.82289, 1.26589], [103.82309, 1.2659], [103.82349, 1.26593], [103.82355, 1.26593], [103.82362, 1.26594], [103.82374, 1.26595], [103.82394, 1.26596], [103.82404, 1.26597], [103.82406, 1.26597], [103.82433, 1.26599], [103.8246, 1.26602], [103.82479, 1.26607], [103.82495, 1.26611], [103.82509, 1.26616], [103.82521, 1.26621], [103.82533, 1.26627], [103.82547, 1.26637], [103.82576, 1.26665], [103.82584, 1.26672], [103.82596, 1.26694], [103.826, 1.26701], [103.82601, 1.26704], [103.82603, 1.26713], [103.82603, 1.2672], [103.82601, 1.26727], [103.82598, 1.26736], [103.82567, 1.26788], [103.82559, 1.26803], [103.82528, 1.26861], [103.8252, 1.26877], [103.82515, 1.26891], [103.82511, 1.26903], [103.8251, 1.26909], [103.82507, 1.26931], [103.82506, 1.26944], [103.82507, 1.26964], [103.82507, 1.26976], [103.82511, 1.27012], [103.82512, 1.2702], [103.82512, 1.27042], [103.82512, 1.27048], [103.82512, 1.27063], [103.82516, 1.27063], [103.82521, 1.27062], [103.82526, 1.27063], [103.82532, 1.27063], [103.82536, 1.27064], [103.82543, 1.27065], [103.82557, 1.27069], [103.82575, 1.27075], [103.82592, 1.27082], [103.826, 1.27086], [103.82608, 1.2709], [103.82623, 1.27097], [103.82648, 1.27112], [103.82659, 1.2712], [103.82672, 1.2713], [103.82691, 1.27147], [103.82714, 1.27166], [103.82726, 1.27177], [103.8277, 1.27214], [103.82776, 1.27218], [103.82783, 1.27225], [103.82809, 1.27247], [103.82814, 1.27251], [103.82851, 1.27286], [103.82859, 1.27294], [103.82867, 1.27303], [103.82871, 1.27311], [103.82873, 1.27319], [103.82874, 1.27326], [103.82873, 1.27334], [103.82871, 1.27343], [103.82869, 1.27351], [103.82856, 1.27394], [103.82853, 1.27403], [103.8285, 1.27414], [103.8285, 1.27419], [103.82849, 1.27425], [103.82849, 1.27433], [103.8285, 1.27439], [103.82852, 1.27446], [103.82858, 1.27458], [103.8286, 1.27463], [103.82863, 1.27468], [103.82868, 1.27474], [103.82889, 1.27498], [103.8294, 1.27558], [103.82948, 1.27568], [103.82956, 1.27575], [103.82963, 1.27581], [103.8297, 1.27585], [103.82975, 1.27588], [103.82982, 1.27593], [103.82995, 1.27599], [103.83003, 1.27603], [103.83011, 1.27605], [103.83018, 1.27607], [103.83048, 1.27612], [103.8306, 1.27615], [103.83073, 1.27617], [103.83097, 1.2762], [103.83142, 1.27626], [103.83175, 1.27631], [103.83183, 1.27632], [103.83191, 1.27633], [103.83198, 1.27635], [103.83229, 1.27638], [103.83256, 1.2764], [103.83281, 1.2764], [103.83311, 1.27641], [103.83319, 1.27648], [103.83326, 1.27657], [103.83329, 1.27668], [103.83329, 1.27673], [103.83327, 1.27678], [103.83322, 1.27686], [103.83318, 1.2769], [103.83315, 1.27693], [103.83311, 1.27696], [103.833, 1.27704], [103.83253, 1.27729], [103.83238, 1.27736], [103.83217, 1.27747], [103.8321, 1.27751], [103.83201, 1.27755], [103.83188, 1.27762], [103.83185, 1.27764], [103.83179, 1.27767], [103.83173, 1.2777], [103.83168, 1.27772], [103.83152, 1.2778], [103.83124, 1.27794], [103.83099, 1.27805], [103.83069, 1.27814], [103.83044, 1.2782], [103.82995, 1.27842], [103.82987, 1.27847], [103.82959, 1.27862], [103.82948, 1.2787], [103.82914, 1.2789], [103.82909, 1.27893], [103.82905, 1.27895], [103.82898, 1.279], [103.82898, 1.27917], [103.82898, 1.27923], [103.82898, 1.27928], [103.82899, 1.27941], [103.82902, 1.27953], [103.82908, 1.27964], [103.82917, 1.27974], [103.82982, 1.28026], [103.83031, 1.28065], [103.8307, 1.28092], [103.83116, 1.28124], [103.83134, 1.28136], [103.83168, 1.28157], [103.8321, 1.28182], [103.83256, 1.28205], [103.83324, 1.28231], [103.83339, 1.28237], [103.83455, 1.28277], [103.83522, 1.28302], [103.83552, 1.28314], [103.83584, 1.28329], [103.83609, 1.28342], [103.83628, 1.28361], [103.83645, 1.28378], [103.8366, 1.28396], [103.83683, 1.28428], [103.83705, 1.28463], [103.83728, 1.28502], [103.83747, 1.2853], [103.83761, 1.28548], [103.83777, 1.28565], [103.83795, 1.28581], [103.83811, 1.28592], [103.83821, 1.28599], [103.83833, 1.28609], [103.83893, 1.28646], [103.83929, 1.28668], [103.83973, 1.28695], [103.83994, 1.28708], [103.84006, 1.28716], [103.84031, 1.28734], [103.84048, 1.28746], [103.84058, 1.28754], [103.84071, 1.28766], [103.84081, 1.28775], [103.84112, 1.28808], [103.84167, 1.28874], [103.84213, 1.2895], [103.84216, 1.28955], [103.84261, 1.29042], [103.84263, 1.29045], [103.84347, 1.292], [103.84391, 1.29288], [103.84403, 1.2931], [103.84416, 1.29342], [103.84426, 1.29385], [103.84427, 1.29437], [103.84421, 1.29498], [103.84406, 1.29557], [103.84397, 1.29595], [103.84342, 1.29706], [103.84328, 1.29775], [103.84335, 1.29838], [103.84346, 1.29936], [103.84337, 1.30013], [103.84325, 1.30062], [103.84314, 1.3009], [103.84298, 1.30114], [103.84269, 1.30147], [103.84255, 1.30158], [103.84189, 1.30213], [103.84126, 1.30267], [103.84107, 1.30283], [103.8407, 1.30319], [103.84052, 1.30346], [103.84026, 1.3039], [103.84015, 1.30419], [103.84005, 1.30455], [103.83999, 1.30485], [103.83997, 1.30525], [103.83999, 1.30555], [103.84005, 1.3059], [103.8401, 1.30611], [103.84023, 1.30646], [103.84031, 1.30662], [103.84056, 1.30707], [103.84087, 1.30742], [103.8411, 1.30771], [103.84143, 1.30803], [103.84181, 1.30829], [103.84275, 1.30892], [103.843, 1.30912], [103.84346, 1.30957], [103.84376, 1.30988], [103.84396, 1.31014], [103.84425, 1.31063], [103.8444, 1.31099], [103.84455, 1.31144], [103.84463, 1.31174], [103.84474, 1.31236], [103.84498, 1.31339], [103.845, 1.31346], [103.84521, 1.31394], [103.84542, 1.31435], [103.84566, 1.31475], [103.84594, 1.31514], [103.84624, 1.31551], [103.84661, 1.31592], [103.84691, 1.31625], [103.84724, 1.31654], [103.84748, 1.31671], [103.84772, 1.31689], [103.84828, 1.31721], [103.84846, 1.3173], [103.84945, 1.31775], [103.85007, 1.31802], [103.85021, 1.31807], [103.85181, 1.31876], [103.85244, 1.31904], [103.85269, 1.31917], [103.85325, 1.31945], [103.8537, 1.3197], [103.85415, 1.31997], [103.85467, 1.32031], [103.85513, 1.32068], [103.85552, 1.32096], [103.85592, 1.32133], [103.85626, 1.32169], [103.85633, 1.32177], [103.85713, 1.32271], [103.85756, 1.32323], [103.85781, 1.3235], [103.85801, 1.32374], [103.85806, 1.32379], [103.85839, 1.32408], [103.85883, 1.32449], [103.85954, 1.32515], [103.85984, 1.32542], [103.86009, 1.32564], [103.86023, 1.32578], [103.86056, 1.32609], [103.86076, 1.32627], [103.86119, 1.32676], [103.86153, 1.32726], [103.86178, 1.32775], [103.86186, 1.32795], [103.86195, 1.32817], [103.86213, 1.32871], [103.86218, 1.32892], [103.86222, 1.32913], [103.86225, 1.32928], [103.86227, 1.32945], [103.86227, 1.32976], [103.86226, 1.33196], [103.86224, 1.33222], [103.86221, 1.33269], [103.8622, 1.33306], [103.86214, 1.33419], [103.86212, 1.33444], [103.8621, 1.33501], [103.8621, 1.33553], [103.86208, 1.33608], [103.86206, 1.33675], [103.86203, 1.33743], [103.86202, 1.33779], [103.862, 1.33801], [103.86198, 1.33816], [103.86194, 1.33841], [103.86186, 1.33893], [103.86178, 1.33927], [103.86168, 1.33959], [103.8615, 1.34008], [103.86143, 1.34028], [103.86113, 1.34114], [103.86075, 1.34223], [103.86046, 1.34307], [103.86035, 1.34336], [103.86031, 1.34348], [103.85991, 1.34458], [103.85958, 1.34549], [103.85913, 1.34659], [103.85874, 1.34769], [103.8578, 1.35037], [103.85777, 1.35048], [103.85763, 1.35085], [103.85755, 1.35106], [103.85729, 1.35194], [103.85711, 1.35253], [103.857, 1.35264], [103.85698, 1.35269], [103.85696, 1.35272], [103.85694, 1.35278], [103.85688, 1.35297], [103.8567, 1.35367], [103.85663, 1.35393], [103.85644, 1.3545], [103.85635, 1.3547], [103.85623, 1.35495], [103.85599, 1.35537], [103.85592, 1.35551], [103.85582, 1.35564], [103.85572, 1.35576], [103.85556, 1.3559], [103.85541, 1.35603], [103.85514, 1.35624], [103.85489, 1.35648], [103.85471, 1.3567], [103.85459, 1.35686], [103.85442, 1.35715], [103.8543, 1.35744], [103.85421, 1.35763], [103.85387, 1.35833], [103.85382, 1.35843], [103.85375, 1.35855], [103.85369, 1.35865], [103.85368, 1.35867], [103.85352, 1.35893], [103.85342, 1.35908], [103.85332, 1.35922], [103.8531, 1.35949], [103.85297, 1.35964], [103.85281, 1.35979], [103.85237, 1.36018], [103.85232, 1.36023], [103.85222, 1.36031], [103.85228, 1.36045], [103.85231, 1.36051], [103.85249, 1.36089], [103.85259, 1.3611], [103.85266, 1.36128], [103.85273, 1.36149], [103.85277, 1.36163], [103.85279, 1.36168], [103.85281, 1.36174], [103.85283, 1.36185], [103.85284, 1.3619], [103.85286, 1.36205], [103.85288, 1.36222], [103.85289, 1.3624], [103.85289, 1.3626], [103.85288, 1.36278], [103.85284, 1.3631], [103.8528, 1.36327], [103.85275, 1.36346], [103.85266, 1.36372], [103.85256, 1.36396], [103.85236, 1.36435], [103.85225, 1.36454], [103.85214, 1.36471], [103.85186, 1.36517], [103.85179, 1.36528], [103.85169, 1.36548], [103.85154, 1.36574], [103.85142, 1.36597], [103.85131, 1.36614], [103.85126, 1.36623], [103.85122, 1.36629], [103.8512, 1.36634], [103.85057, 1.36749], [103.8502, 1.36813], [103.85003, 1.36839], [103.84987, 1.36865], [103.84976, 1.36885], [103.8497, 1.36893], [103.84964, 1.36904], [103.84959, 1.36912], [103.84957, 1.36918], [103.84936, 1.36954], [103.84909, 1.37002], [103.84908, 1.37004]]}}]}
