{"type": "FeatureCollection", "note": "Simulated morning commutes routed by OSRM (OpenStreetMap data, ODbL). timestamps = seconds from 07:00.", "features": [{"type": "Feature", "properties": {"from": "Pasir Ris", "to": "Orchard", "timestamps": [239, 249, 254, 322, 348, 361, 448, 547, 603, 656, 678, 709, 718, 725, 733, 827, 869, 1020, 1073, 1100, 1162, 1210, 1226, 1308, 1380, 1401, 1430, 1477, 1517, 1560]}, "geometry": {"type": "LineString", "coordinates": [[103.94903, 1.37209], [103.94789, 1.37271], [103.94738, 1.37227], [103.94534, 1.36383], [103.94255, 1.36193], [103.94217, 1.36031], [103.93106, 1.36018], [103.92536, 1.34886], [103.91906, 1.34532], [103.91799, 1.33865], [103.91824, 1.33584], [103.91977, 1.33212], [103.92077, 1.33163], [103.92088, 1.33253], [103.91981, 1.33243], [103.90899, 1.32711], [103.90383, 1.32553], [103.88482, 1.32202], [103.87839, 1.31977], [103.87501, 1.32069], [103.87006, 1.32679], [103.86424, 1.32901], [103.86234, 1.32817], [103.85524, 1.32053], [103.84702, 1.31609], [103.84547, 1.31397], [103.84442, 1.31044], [103.83881, 1.31266], [103.83442, 1.30991], [103.8324, 1.30481]]}}, {"type": "Feature", "properties": {"from": "Clementi", "to": "Raffles Place", "timestamps": [550, 569, 572, 585, 615, 634, 653, 687, 774, 826, 942, 1037, 1055, 1098, 1112, 1130, 1159, 1171, 1205, 1247, 1268, 1297, 1318, 1354, 1363, 1394, 1410, 1417, 1425]}, "geometry": {"type": "LineString", "coordinates": [[103.76503, 1.31501], [103.76622, 1.31286], [103.76659, 1.31302], [103.76795, 1.31214], [103.76632, 1.30859], [103.76766, 1.30658], [103.76962, 1.30508], [103.7735, 1.30317], [103.78311, 1.29752], [103.78781, 1.29261], [103.80023, 1.2845], [103.81242, 1.28328], [103.81456, 1.28243], [103.8193, 1.27952], [103.82107, 1.27899], [103.82326, 1.27888], [103.82671, 1.27745], [103.82821, 1.27808], [103.83116, 1.28124], [103.83609, 1.28342], [103.83777, 1.28565], [103.84081, 1.28775], [103.8423, 1.28993], [103.84615, 1.28738], [103.84562, 1.28632], [103.8491, 1.28435], [103.85043, 1.28269], [103.85122, 1.28267], [103.85125, 1.28371]]}}, {"type": "Feature", "properties": {"from": "Ang Mo Kio", "to": "Marina Bay", "timestamps": [298, 359, 406, 486, 514, 551, 580, 604, 732, 820, 926, 973, 1043, 1069, 1113, 1132, 1165, 1206, 1236, 1248, 1261, 1301, 1327, 1338, 1351]}, "geometry": {"type": "LineString", "coordinates": [[103.84908, 1.37004], [103.84763, 1.37681], [103.84848, 1.37155], [103.85286, 1.36347], [103.85255, 1.36033], [103.85485, 1.35677], [103.8574, 1.35484], [103.85746, 1.3521], [103.86213, 1.33828], [103.86216, 1.32824], [103.85438, 1.31898], [103.85884, 1.31611], [103.86361, 1.30968], [103.86448, 1.30695], [103.86729, 1.30276], [103.8662, 1.30093], [103.8631, 1.29882], [103.86243, 1.29415], [103.86298, 1.29076], [103.86243, 1.28951], [103.86099, 1.28956], [103.86082, 1.28503], [103.85951, 1.28242], [103.86062, 1.28179], [103.86089, 1.28324]]}}, {"type": "Feature", "properties": {"from": "Jurong East", "to": "Raffles Place", "timestamps": [100, 108, 121, 144, 172, 207, 272, 421, 539, 588, 695, 783, 839, 868, 895, 907, 938, 977, 997, 1023, 1042, 1075, 1084, 1113, 1128, 1134, 1141]}, "geometry": {"type": "LineString", "coordinates": [[103.74269, 1.33334], [103.74315, 1.3324], [103.74439, 1.33372], [103.74696, 1.33163], [103.74487, 1.32848], [103.74618, 1.32368], [103.75471, 1.32089], [103.76875, 1.3057], [103.78311, 1.29752], [103.78781, 1.29261], [103.80023, 1.2845], [103.81242, 1.28328], [103.8193, 1.27952], [103.82326, 1.27888], [103.82671, 1.27745], [103.82821, 1.27808], [103.83116, 1.28124], [103.83609, 1.28342], [103.83777, 1.28565], [103.84081, 1.28775], [103.8423, 1.28993], [103.84615, 1.28738], [103.84562, 1.28632], [103.8491, 1.28435], [103.85043, 1.28269], [103.85122, 1.28267], [103.85125, 1.28371]]}}, {"type": "Feature", "properties": {"from": "Bukit Timah", "to": "Novena", "timestamps": [241, 249, 265, 267, 316, 397, 462, 602, 656, 671, 700, 714, 721, 728, 743, 758, 764, 772]}, "geometry": {"type": "LineString", "coordinates": [[103.79954, 1.32914], [103.79987, 1.33005], [103.79818, 1.33067], [103.79816, 1.33093], [103.80361, 1.32903], [103.81151, 1.32374], [103.81911, 1.32291], [103.83468, 1.31809], [103.83927, 1.31357], [103.84063, 1.31461], [103.84166, 1.31786], [103.84274, 1.31901], [103.84358, 1.31932], [103.84409, 1.31876], [103.84591, 1.31852], [103.84542, 1.32014], [103.84487, 1.32064], [103.84417, 1.32015]]}}, {"type": "Feature", "properties": {"from": "Yishun", "to": "Marina Bay", "timestamps": [167, 236, 366, 419, 463, 625, 657, 795, 861, 971, 1100, 1169, 1194, 1274, 1315, 1435, 1479, 1541, 1558, 1614, 1624, 1635]}, "geometry": {"type": "LineString", "coordinates": [[103.8354, 1.4294], [103.83488, 1.42043], [103.82762, 1.40491], [103.82911, 1.39816], [103.83365, 1.39462], [103.85469, 1.39783], [103.85786, 1.39521], [103.8585, 1.37709], [103.861, 1.3689], [103.85694, 1.35497], [103.86203, 1.33888], [103.86242, 1.32983], [103.86146, 1.32681], [103.85438, 1.31898], [103.85884, 1.31611], [103.86729, 1.30276], [103.8631, 1.29882], [103.86298, 1.29076], [103.86099, 1.28956], [103.85951, 1.28242], [103.86062, 1.28179], [103.86089, 1.28324]]}}, {"type": "Feature", "properties": {"from": "Bukit Batok", "to": "Paya Lebar", "timestamps": [82, 88, 102, 122, 145, 171, 186, 245, 274, 300, 353, 377, 424, 465, 501, 526, 672, 774, 804, 826, 853, 932, 1038, 1082, 1144, 1221, 1242, 1289, 1336, 1359, 1370, 1383]}, "geometry": {"type": "LineString", "coordinates": [[103.74953, 1.34898], [103.74899, 1.34837], [103.75072, 1.34791], [103.75274, 1.34958], [103.75551, 1.3483], [103.75773, 1.34576], [103.7594, 1.34662], [103.76714, 1.34735], [103.77041, 1.34908], [103.77234, 1.3463], [103.77803, 1.34223], [103.78107, 1.34252], [103.78688, 1.34451], [103.79013, 1.34873], [103.79477, 1.34948], [103.79784, 1.34805], [103.81143, 1.33479], [103.8235, 1.32911], [103.82648, 1.32672], [103.82945, 1.32696], [103.83279, 1.32596], [103.84235, 1.3296], [103.85621, 1.32917], [103.86183, 1.33061], [103.86928, 1.32764], [103.87612, 1.32022], [103.87886, 1.31999], [103.88458, 1.32219], [103.89057, 1.32315], [103.89173, 1.32031], [103.89309, 1.32037], [103.89321, 1.31861]]}}, {"type": "Feature", "properties": {"from": "Ang Mo Kio", "to": "Novena", "timestamps": [258, 275, 289, 306, 317, 325, 371, 409, 425, 470, 504, 546, 603, 612, 625, 640, 652, 660, 686, 719, 726, 785, 816, 861, 870, 889, 898, 907]}, "geometry": {"type": "LineString", "coordinates": [[103.84908, 1.37004], [103.84831, 1.37173], [103.8481, 1.37315], [103.84628, 1.37295], [103.8461, 1.37412], [103.84527, 1.37399], [103.84565, 1.36914], [103.84357, 1.36572], [103.84332, 1.36406], [103.84145, 1.35956], [103.84163, 1.35596], [103.8402, 1.35175], [103.83917, 1.34583], [103.84003, 1.34542], [103.84015, 1.34404], [103.83912, 1.34284], [103.83956, 1.34158], [103.83939, 1.34078], [103.83746, 1.33879], [103.83707, 1.33536], [103.83725, 1.33455], [103.84064, 1.32931], [103.84205, 1.32633], [103.84189, 1.32153], [103.84245, 1.3208], [103.84433, 1.32149], [103.84493, 1.32069], [103.84417, 1.32015]]}}, {"type": "Feature", "properties": {"from": "Ang Mo Kio", "to": "Paya Lebar", "timestamps": [330, 387, 431, 506, 532, 567, 594, 616, 724, 800, 865, 941, 963, 1014, 1064, 1089, 1100, 1115]}, "geometry": {"type": "LineString", "coordinates": [[103.84908, 1.37004], [103.84763, 1.37681], [103.84848, 1.37155], [103.85286, 1.36347], [103.85255, 1.36033], [103.85485, 1.35677], [103.8574, 1.35484], [103.85746, 1.3521], [103.86203, 1.33987], [103.86294, 1.33062], [103.87001, 1.32708], [103.87612, 1.32022], [103.87886, 1.31999], [103.88458, 1.32219], [103.89057, 1.32315], [103.89173, 1.32031], [103.89309, 1.32037], [103.89321, 1.31861]]}}, {"type": "Feature", "properties": {"from": "Yishun", "to": "Marina Bay", "timestamps": [424, 493, 623, 676, 720, 882, 914, 1052, 1118, 1228, 1357, 1426, 1451, 1531, 1572, 1692, 1736, 1798, 1815, 1871, 1881, 1892]}, "geometry": {"type": "LineString", "coordinates": [[103.8354, 1.4294], [103.83488, 1.42043], [103.82762, 1.40491], [103.82911, 1.39816], [103.83365, 1.39462], [103.85469, 1.39783], [103.85786, 1.39521], [103.8585, 1.37709], [103.861, 1.3689], [103.85694, 1.35497], [103.86203, 1.33888], [103.86242, 1.32983], [103.86146, 1.32681], [103.85438, 1.31898], [103.85884, 1.31611], [103.86729, 1.30276], [103.8631, 1.29882], [103.86298, 1.29076], [103.86099, 1.28956], [103.85951, 1.28242], [103.86062, 1.28179], [103.86089, 1.28324]]}}, {"type": "Feature", "properties": {"from": "Sengkang", "to": "Raffles Place", "timestamps": [592, 602, 616, 640, 708, 759, 918, 968, 1031, 1136, 1264, 1342, 1419, 1500, 1545, 1592, 1633, 1678, 1733, 1812, 1822]}, "geometry": {"type": "LineString", "coordinates": [[103.89497, 1.39072], [103.89628, 1.39042], [103.89668, 1.39226], [103.89373, 1.39305], [103.89065, 1.38452], [103.88637, 1.37947], [103.86545, 1.37834], [103.85909, 1.37625], [103.86095, 1.36819], [103.85694, 1.35497], [103.86203, 1.33888], [103.86227, 1.32866], [103.85564, 1.32086], [103.84642, 1.31548], [103.84409, 1.31005], [103.84009, 1.30523], [103.8433, 1.301], [103.84432, 1.29506], [103.84167, 1.28834], [103.85043, 1.28269], [103.85125, 1.28371]]}}, {"type": "Feature", "properties": {"from": "Clementi", "to": "Raffles Place", "timestamps": [410, 429, 432, 445, 475, 494, 513, 547, 634, 686, 802, 897, 915, 958, 972, 990, 1019, 1031, 1065, 1107, 1128, 1157, 1178, 1214, 1223, 1254, 1270, 1277, 1285]}, "geometry": {"type": "LineString", "coordinates": [[103.76503, 1.31501], [103.76622, 1.31286], [103.76659, 1.31302], [103.76795, 1.31214], [103.76632, 1.30859], [103.76766, 1.30658], [103.76962, 1.30508], [103.7735, 1.30317], [103.78311, 1.29752], [103.78781, 1.29261], [103.80023, 1.2845], [103.81242, 1.28328], [103.81456, 1.28243], [103.8193, 1.27952], [103.82107, 1.27899], [103.82326, 1.27888], [103.82671, 1.27745], [103.82821, 1.27808], [103.83116, 1.28124], [103.83609, 1.28342], [103.83777, 1.28565], [103.84081, 1.28775], [103.8423, 1.28993], [103.84615, 1.28738], [103.84562, 1.28632], [103.8491, 1.28435], [103.85043, 1.28269], [103.85122, 1.28267], [103.85125, 1.28371]]}}, {"type": "Feature", "properties": {"from": "Sengkang", "to": "Raffles Place", "timestamps": [228, 238, 252, 276, 344, 395, 554, 604, 667, 772, 900, 978, 1055, 1136, 1181, 1228, 1269, 1314, 1369, 1448, 1458]}, "geometry": {"type": "LineString", "coordinates": [[103.89497, 1.39072], [103.89628, 1.39042], [103.89668, 1.39226], [103.89373, 1.39305], [103.89065, 1.38452], [103.88637, 1.37947], [103.86545, 1.37834], [103.85909, 1.37625], [103.86095, 1.36819], [103.85694, 1.35497], [103.86203, 1.33888], [103.86227, 1.32866], [103.85564, 1.32086], [103.84642, 1.31548], [103.84409, 1.31005], [103.84009, 1.30523], [103.8433, 1.301], [103.84432, 1.29506], [103.84167, 1.28834], [103.85043, 1.28269], [103.85125, 1.28371]]}}, {"type": "Feature", "properties": {"from": "Geylang", "to": "Orchard", "timestamps": [138, 142, 147, 159, 168, 191, 208, 213, 261, 313, 342, 358, 423, 446, 477, 496, 518, 587, 669, 692, 718, 725, 777, 823, 864, 871]}, "geometry": {"type": "LineString", "coordinates": [[103.89098, 1.31811], [103.89051, 1.31804], [103.89037, 1.31858], [103.889, 1.31837], [103.88881, 1.3194], [103.89129, 1.32012], [103.89107, 1.32205], [103.89058, 1.32242], [103.88507, 1.32207], [103.87952, 1.31996], [103.87625, 1.31997], [103.87469, 1.32096], [103.87006, 1.32679], [103.86782, 1.32808], [103.8643, 1.32903], [103.86234, 1.32817], [103.86085, 1.3261], [103.85524, 1.32053], [103.84702, 1.31609], [103.84547, 1.31397], [103.84488, 1.31107], [103.84442, 1.31044], [103.83881, 1.31266], [103.83442, 1.30991], [103.83234, 1.30566], [103.8324, 1.30481]]}}, {"type": "Feature", "properties": {"from": "Bedok", "to": "Paya Lebar", "timestamps": [50, 58, 59, 61, 91, 141, 156, 167, 198, 204, 209, 223, 301, 341, 417, 442, 448, 463, 467, 476, 490, 492]}, "geometry": {"type": "LineString", "coordinates": [[103.92998, 1.32414], [103.93092, 1.32425], [103.93103, 1.3241], [103.93097, 1.32395], [103.92725, 1.3234], [103.9264, 1.32939], [103.92458, 1.32922], [103.92324, 1.32945], [103.91998, 1.33136], [103.91931, 1.33159], [103.91862, 1.3316], [103.91705, 1.33113], [103.90845, 1.3269], [103.90383, 1.32553], [103.89466, 1.32368], [103.89175, 1.32275], [103.89127, 1.3222], [103.89159, 1.32047], [103.89205, 1.3202], [103.89309, 1.32037], [103.89345, 1.3186], [103.89321, 1.31861]]}}, {"type": "Feature", "properties": {"from": "Serangoon", "to": "Marina Bay", "timestamps": [91, 180, 265, 304, 328, 405, 502, 623, 673, 699, 745, 764, 799, 842, 873, 886, 899, 940, 967, 979, 992]}, "geometry": {"type": "LineString", "coordinates": [[103.87352, 1.34958], [103.88065, 1.35615], [103.8738, 1.34978], [103.87154, 1.34623], [103.8707, 1.3437], [103.87034, 1.33529], [103.86791, 1.32499], [103.8604, 1.31404], [103.86361, 1.30968], [103.86448, 1.30695], [103.86729, 1.30276], [103.8662, 1.30093], [103.8631, 1.29882], [103.86243, 1.29415], [103.86298, 1.29076], [103.86243, 1.28951], [103.86099, 1.28956], [103.86082, 1.28503], [103.85951, 1.28242], [103.86062, 1.28179], [103.86089, 1.28324]]}}, {"type": "Feature", "properties": {"from": "Bedok", "to": "Orchard", "timestamps": [395, 403, 432, 478, 502, 540, 622, 663, 810, 852, 872, 892, 948, 995, 1011, 1091, 1162, 1182, 1210, 1255, 1295, 1336]}, "geometry": {"type": "LineString", "coordinates": [[103.92998, 1.32414], [103.93103, 1.3241], [103.92725, 1.3234], [103.9264, 1.32939], [103.92324, 1.32945], [103.91869, 1.33161], [103.90899, 1.32711], [103.90383, 1.32553], [103.88482, 1.32202], [103.87966, 1.32], [103.87702, 1.31981], [103.87469, 1.32096], [103.87006, 1.32679], [103.8643, 1.32903], [103.86234, 1.32817], [103.85524, 1.32053], [103.84702, 1.31609], [103.84547, 1.31397], [103.84442, 1.31044], [103.83881, 1.31266], [103.83442, 1.30991], [103.8324, 1.30481]]}}, {"type": "Feature", "properties": {"from": "Bishan", "to": "Novena", "timestamps": [7, 82, 103, 130, 139, 196, 204, 225, 271, 336, 369, 418, 428, 448, 459, 468]}, "geometry": {"type": "LineString", "coordinates": [[103.84789, 1.35102], [103.84645, 1.34387], [103.84436, 1.34379], [103.84194, 1.34483], [103.84107, 1.34482], [103.83648, 1.34167], [103.83656, 1.34088], [103.83758, 1.33906], [103.83719, 1.33465], [103.84064, 1.32931], [103.84205, 1.32633], [103.84189, 1.32153], [103.84245, 1.3208], [103.84433, 1.32149], [103.84493, 1.32069], [103.84417, 1.32015]]}}, {"type": "Feature", "properties": {"from": "Jurong East", "to": "Marina Bay", "timestamps": [499, 507, 520, 543, 571, 606, 671, 819, 938, 987, 1094, 1187, 1238, 1281, 1349, 1457, 1486, 1541, 1575, 1622, 1660, 1677]}, "geometry": {"type": "LineString", "coordinates": [[103.74269, 1.33334], [103.74315, 1.3324], [103.74439, 1.33372], [103.74696, 1.33163], [103.74487, 1.32848], [103.74618, 1.32368], [103.75471, 1.32089], [103.76875, 1.3057], [103.78311, 1.29752], [103.78781, 1.29261], [103.80023, 1.2845], [103.81314, 1.28305], [103.8193, 1.27952], [103.82509, 1.27829], [103.83264, 1.27246], [103.8477, 1.27247], [103.85141, 1.27377], [103.85837, 1.27052], [103.86264, 1.27265], [103.85737, 1.27651], [103.86017, 1.28091], [103.86089, 1.28324]]}}, {"type": "Feature", "properties": {"from": "Geylang", "to": "Marina Bay", "timestamps": [109, 114, 120, 135, 160, 166, 175, 188, 261, 291, 331, 370, 422, 527, 540, 556, 609, 647, 662, 678, 728, 761, 775, 791]}, "geometry": {"type": "LineString", "coordinates": [[103.89098, 1.31811], [103.89051, 1.31804], [103.89037, 1.31858], [103.88907, 1.31838], [103.88822, 1.31632], [103.88881, 1.31626], [103.88852, 1.31554], [103.88867, 1.31438], [103.8822, 1.31311], [103.88224, 1.31045], [103.87867, 1.30956], [103.87628, 1.30699], [103.87171, 1.30629], [103.86382, 1.30093], [103.86417, 1.29987], [103.8631, 1.29882], [103.86243, 1.29415], [103.86298, 1.29076], [103.86243, 1.28951], [103.86099, 1.28956], [103.86082, 1.28503], [103.85951, 1.28242], [103.86062, 1.28179], [103.86089, 1.28324]]}}, {"type": "Feature", "properties": {"from": "Yishun", "to": "Novena", "timestamps": [169, 232, 353, 394, 444, 590, 609, 638, 750, 806, 913, 1032, 1107, 1199, 1206, 1215, 1264, 1276, 1286]}, "geometry": {"type": "LineString", "coordinates": [[103.8354, 1.4294], [103.83488, 1.42043], [103.82762, 1.40491], [103.82848, 1.39916], [103.83381, 1.39461], [103.85428, 1.3978], [103.85689, 1.39694], [103.8581, 1.39299], [103.8585, 1.37709], [103.86096, 1.36965], [103.85694, 1.35497], [103.86203, 1.33888], [103.86216, 1.32824], [103.85293, 1.31891], [103.85352, 1.31824], [103.85277, 1.31939], [103.84595, 1.3184], [103.84548, 1.32008], [103.84417, 1.32015]]}}, {"type": "Feature", "properties": {"from": "Bukit Panjang", "to": "Paya Lebar", "timestamps": [87, 135, 168, 200, 272, 303, 318, 398, 425, 449, 493, 524, 550, 571, 708, 805, 833, 854, 879, 953, 1054, 1096, 1154, 1227, 1247, 1292, 1336, 1358, 1368, 1380]}, "geometry": {"type": "LineString", "coordinates": [[103.76201, 1.378], [103.75891, 1.38381], [103.76145, 1.38002], [103.76582, 1.38104], [103.77434, 1.37594], [103.77853, 1.37528], [103.77804, 1.37329], [103.78025, 1.36247], [103.78175, 1.35908], [103.78387, 1.35642], [103.78882, 1.35291], [103.79181, 1.34985], [103.79536, 1.34935], [103.79784, 1.34805], [103.81143, 1.33479], [103.8235, 1.32911], [103.82648, 1.32672], [103.82945, 1.32696], [103.83279, 1.32596], [103.84235, 1.3296], [103.85621, 1.32917], [103.86183, 1.33061], [103.86928, 1.32764], [103.87612, 1.32022], [103.87886, 1.31999], [103.88458, 1.32219], [103.89057, 1.32315], [103.89173, 1.32031], [103.89309, 1.32037], [103.89321, 1.31861]]}}, {"type": "Feature", "properties": {"from": "Pasir Ris", "to": "Queenstown", "timestamps": [321, 331, 337, 406, 432, 446, 534, 636, 687, 717, 751, 791, 810, 865, 938, 1001, 1068, 1129, 1165, 1257, 1331, 1356, 1425, 1460, 1487, 1575, 1620, 1676, 1761, 1836, 1898, 1915, 1930, 1946, 1950]}, "geometry": {"type": "LineString", "coordinates": [[103.94903, 1.37209], [103.94789, 1.37271], [103.94738, 1.37227], [103.94534, 1.36383], [103.94255, 1.36193], [103.94217, 1.36031], [103.93106, 1.36018], [103.92523, 1.34871], [103.91946, 1.34586], [103.91666, 1.34339], [103.91418, 1.33984], [103.90966, 1.33761], [103.90736, 1.33751], [103.90058, 1.339], [103.89242, 1.34325], [103.88477, 1.3408], [103.87712, 1.34418], [103.86957, 1.34262], [103.86531, 1.34423], [103.85387, 1.34313], [103.84455, 1.34392], [103.84162, 1.34499], [103.83408, 1.34053], [103.82965, 1.34045], [103.82642, 1.33933], [103.8172, 1.33339], [103.81418, 1.32855], [103.8129, 1.32154], [103.80485, 1.31459], [103.80183, 1.30567], [103.80053, 1.29799], [103.80265, 1.29763], [103.80375, 1.29601], [103.8025, 1.2945], [103.80284, 1.29406]]}}, {"type": "Feature", "properties": {"from": "Choa Chu Kang", "to": "HarbourFront", "timestamps": [366, 385, 402, 503, 523, 600, 660, 716, 789, 895, 985, 1069, 1144, 1208, 1317, 1373, 1489, 1588, 1658, 1695, 1736, 1803, 1842]}, "geometry": {"type": "LineString", "coordinates": [[103.7441, 1.38481], [103.74638, 1.38504], [103.7476, 1.38338], [103.7591, 1.37879], [103.7614, 1.37986], [103.76363, 1.37079], [103.76758, 1.36455], [103.76757, 1.35771], [103.77036, 1.34918], [103.77931, 1.3398], [103.77781, 1.32893], [103.77089, 1.32124], [103.77239, 1.31226], [103.77165, 1.3044], [103.78311, 1.29752], [103.78781, 1.29261], [103.79971, 1.28475], [103.81169, 1.28345], [103.8193, 1.27952], [103.82387, 1.27911], [103.82309, 1.27417], [103.82662, 1.26686], [103.82198, 1.26557]]}}, {"type": "Feature", "properties": {"from": "Bedok", "to": "Novena", "timestamps": [191, 199, 228, 275, 299, 327, 337, 351, 419, 460, 575, 608, 660, 676, 688, 747, 767, 795, 811, 826, 883, 913, 917, 922, 928, 936, 953, 989, 1002, 1009, 1015]}, "geometry": {"type": "LineString", "coordinates": [[103.92998, 1.32414], [103.93103, 1.3241], [103.92725, 1.3234], [103.9264, 1.32939], [103.92324, 1.32945], [103.92003, 1.33134], [103.91876, 1.33161], [103.91705, 1.33113], [103.90899, 1.32711], [103.90383, 1.32553], [103.88913, 1.32243], [103.88482, 1.32202], [103.87839, 1.31977], [103.87631, 1.31995], [103.87501, 1.32069], [103.87006, 1.32679], [103.86782, 1.32808], [103.8643, 1.32903], [103.86234, 1.32817], [103.86125, 1.32653], [103.85603, 1.32122], [103.85293, 1.31891], [103.85289, 1.31837], [103.85352, 1.31824], [103.85376, 1.31905], [103.85277, 1.31939], [103.85054, 1.31929], [103.84595, 1.3184], [103.84548, 1.32008], [103.84487, 1.32064], [103.84417, 1.32015]]}}, {"type": "Feature", "properties": {"from": "Hougang", "to": "Novena", "timestamps": [75, 101, 133, 353, 382, 419, 461, 503, 564, 573, 607, 630, 648, 716, 751, 756, 761, 765, 770, 779, 801, 843, 859, 867, 875]}, "geometry": {"type": "LineString", "coordinates": [[103.89195, 1.37127], [103.88984, 1.36929], [103.89233, 1.36689], [103.87459, 1.35063], [103.87254, 1.34817], [103.87083, 1.34451], [103.87088, 1.33987], [103.87034, 1.33529], [103.8687, 1.32882], [103.86821, 1.32799], [103.86461, 1.32909], [103.86234, 1.32817], [103.86125, 1.32653], [103.85603, 1.32122], [103.85293, 1.31891], [103.85289, 1.31837], [103.85337, 1.31818], [103.85376, 1.31839], [103.85383, 1.31892], [103.85287, 1.31939], [103.85054, 1.31929], [103.84595, 1.3184], [103.84548, 1.32008], [103.84487, 1.32064], [103.84417, 1.32015]]}}, {"type": "Feature", "properties": {"from": "Ang Mo Kio", "to": "one-north", "timestamps": [516, 543, 559, 568, 575, 616, 650, 704, 734, 801, 815, 830, 862, 900, 934, 958, 1056, 1105, 1164, 1249, 1289, 1337, 1363, 1385, 1408, 1428, 1451, 1484, 1519, 1532]}, "geometry": {"type": "LineString", "coordinates": [[103.84908, 1.37004], [103.8481, 1.37315], [103.84628, 1.37295], [103.8461, 1.37412], [103.84527, 1.37399], [103.84565, 1.36914], [103.84357, 1.36572], [103.84145, 1.35956], [103.84163, 1.35596], [103.83951, 1.34827], [103.83786, 1.34828], [103.83863, 1.34663], [103.83808, 1.34288], [103.83408, 1.34053], [103.83004, 1.34051], [103.82733, 1.33976], [103.81735, 1.33355], [103.81418, 1.32855], [103.813, 1.32169], [103.8052, 1.31506], [103.80367, 1.31059], [103.79832, 1.31283], [103.79532, 1.31196], [103.793, 1.31316], [103.79119, 1.31118], [103.7916, 1.30882], [103.79066, 1.30622], [103.78762, 1.3036], [103.78575, 1.29992], [103.78691, 1.29879]]}}, {"type": "Feature", "properties": {"from": "Bukit Timah", "to": "Queenstown", "timestamps": [570, 579, 595, 597, 648, 725, 750, 768, 784, 814, 859, 873, 951, 1021, 1040, 1057, 1075, 1080]}, "geometry": {"type": "LineString", "coordinates": [[103.79954, 1.32914], [103.79987, 1.33005], [103.79818, 1.33067], [103.79816, 1.33093], [103.80361, 1.32903], [103.81086, 1.32434], [103.81359, 1.32387], [103.81321, 1.32184], [103.81211, 1.32045], [103.8092, 1.31878], [103.80544, 1.31532], [103.8046, 1.314], [103.80183, 1.30567], [103.80053, 1.29799], [103.80265, 1.29763], [103.80375, 1.29601], [103.8025, 1.2945], [103.80284, 1.29406]]}}, {"type": "Feature", "properties": {"from": "Pasir Ris", "to": "Queenstown", "timestamps": [393, 403, 409, 478, 504, 518, 606, 708, 759, 789, 823, 863, 882, 937, 1010, 1073, 1140, 1201, 1237, 1329, 1403, 1428, 1497, 1532, 1559, 1647, 1692, 1748, 1833, 1908, 1970, 1987, 2002, 2018, 2022]}, "geometry": {"type": "LineString", "coordinates": [[103.94903, 1.37209], [103.94789, 1.37271], [103.94738, 1.37227], [103.94534, 1.36383], [103.94255, 1.36193], [103.94217, 1.36031], [103.93106, 1.36018], [103.92523, 1.34871], [103.91946, 1.34586], [103.91666, 1.34339], [103.91418, 1.33984], [103.90966, 1.33761], [103.90736, 1.33751], [103.90058, 1.339], [103.89242, 1.34325], [103.88477, 1.3408], [103.87712, 1.34418], [103.86957, 1.34262], [103.86531, 1.34423], [103.85387, 1.34313], [103.84455, 1.34392], [103.84162, 1.34499], [103.83408, 1.34053], [103.82965, 1.34045], [103.82642, 1.33933], [103.8172, 1.33339], [103.81418, 1.32855], [103.8129, 1.32154], [103.80485, 1.31459], [103.80183, 1.30567], [103.80053, 1.29799], [103.80265, 1.29763], [103.80375, 1.29601], [103.8025, 1.2945], [103.80284, 1.29406]]}}, {"type": "Feature", "properties": {"from": "Bedok", "to": "Marina Bay", "timestamps": [444, 452, 480, 505, 513, 522, 547, 589, 628, 634, 648, 669, 705, 865, 964, 1022, 1136, 1193, 1205, 1214, 1275, 1293, 1300, 1302, 1309, 1320]}, "geometry": {"type": "LineString", "coordinates": [[103.92998, 1.32414], [103.93103, 1.3241], [103.92747, 1.32323], [103.92805, 1.32003], [103.92862, 1.31911], [103.92974, 1.31852], [103.93289, 1.31894], [103.93389, 1.31341], [103.9352, 1.30855], [103.93485, 1.3078], [103.9331, 1.30829], [103.93036, 1.3077], [103.92603, 1.30577], [103.90588, 1.30006], [103.89362, 1.29564], [103.88598, 1.29572], [103.87103, 1.29516], [103.86369, 1.2937], [103.86229, 1.2928], [103.86183, 1.29182], [103.86144, 1.28379], [103.86055, 1.28161], [103.85977, 1.28219], [103.85997, 1.28238], [103.86062, 1.28179], [103.86089, 1.28324]]}}, {"type": "Feature", "properties": {"from": "Bishan", "to": "Paya Lebar", "timestamps": [274, 296, 332, 345, 374, 393, 430, 474, 539, 552, 589, 609, 681, 694, 712, 765, 789, 817, 823, 844, 856, 871, 873]}, "geometry": {"type": "LineString", "coordinates": [[103.84789, 1.35102], [103.84736, 1.34857], [103.85147, 1.34763], [103.85242, 1.34645], [103.85577, 1.34564], [103.85647, 1.34354], [103.86073, 1.34324], [103.86227, 1.33835], [103.86279, 1.33081], [103.86407, 1.32994], [103.86807, 1.32838], [103.87001, 1.32708], [103.87534, 1.32065], [103.87677, 1.32003], [103.87886, 1.31999], [103.88458, 1.32219], [103.88745, 1.32237], [103.89057, 1.32315], [103.89111, 1.32268], [103.89173, 1.32031], [103.89309, 1.32037], [103.89345, 1.3186], [103.89321, 1.31861]]}}, {"type": "Feature", "properties": {"from": "Hougang", "to": "HarbourFront", "timestamps": [523, 546, 573, 787, 819, 891, 951, 980, 1000, 1081, 1157, 1208, 1244, 1268, 1303, 1364, 1413, 1441, 1464, 1501, 1526, 1564, 1597, 1609, 1621, 1655, 1666, 1685, 1700, 1724]}, "geometry": {"type": "LineString", "coordinates": [[103.89195, 1.37127], [103.88984, 1.36929], [103.89233, 1.36689], [103.87254, 1.34817], [103.87083, 1.34451], [103.87034, 1.33529], [103.86821, 1.32799], [103.86461, 1.32909], [103.86234, 1.32817], [103.85524, 1.32053], [103.84677, 1.31585], [103.84409, 1.31005], [103.84063, 1.307], [103.84038, 1.30395], [103.84343, 1.30065], [103.84408, 1.29297], [103.84078, 1.28756], [103.83785, 1.28556], [103.8361, 1.28331], [103.8317, 1.28141], [103.82952, 1.27922], [103.83372, 1.27669], [103.82967, 1.27572], [103.82869, 1.2745], [103.82881, 1.27294], [103.82548, 1.27036], [103.82537, 1.26885], [103.82662, 1.26686], [103.825, 1.26581], [103.82198, 1.26557]]}}, {"type": "Feature", "properties": {"from": "Serangoon", "to": "Queenstown", "timestamps": [571, 650, 739, 792, 834, 928, 1005, 1033, 1102, 1135, 1162, 1250, 1301, 1361, 1408, 1453, 1524, 1588, 1606, 1622, 1638, 1642]}, "geometry": {"type": "LineString", "coordinates": [[103.87352, 1.34958], [103.88065, 1.35615], [103.87291, 1.3486], [103.87029, 1.34265], [103.86531, 1.34423], [103.85387, 1.34313], [103.84455, 1.34392], [103.84128, 1.34498], [103.83408, 1.34053], [103.83004, 1.34051], [103.82684, 1.33954], [103.81776, 1.33389], [103.81422, 1.32866], [103.8129, 1.32154], [103.80836, 1.31804], [103.8046, 1.314], [103.80183, 1.30567], [103.80053, 1.29799], [103.80265, 1.29763], [103.80375, 1.29601], [103.8025, 1.2945], [103.80284, 1.29406]]}}, {"type": "Feature", "properties": {"from": "Bukit Batok", "to": "Raffles Place", "timestamps": [408, 513, 576, 603, 638, 705, 857, 977, 1027, 1126, 1144, 1225, 1282, 1312, 1339, 1351, 1383, 1422, 1442, 1469, 1489, 1522, 1531, 1560, 1576, 1582, 1589]}, "geometry": {"type": "LineString", "coordinates": [[103.74953, 1.34898], [103.74079, 1.33765], [103.74696, 1.33163], [103.74487, 1.32848], [103.74599, 1.32389], [103.75471, 1.32089], [103.76875, 1.3057], [103.78311, 1.29752], [103.78781, 1.29261], [103.79914, 1.2851], [103.80131, 1.28421], [103.81242, 1.28328], [103.8193, 1.27952], [103.82326, 1.27888], [103.82671, 1.27745], [103.82821, 1.27808], [103.83116, 1.28124], [103.83609, 1.28342], [103.83777, 1.28565], [103.84081, 1.28775], [103.8423, 1.28993], [103.84615, 1.28738], [103.84562, 1.28632], [103.8491, 1.28435], [103.85043, 1.28269], [103.85122, 1.28267], [103.85125, 1.28371]]}}, {"type": "Feature", "properties": {"from": "Ang Mo Kio", "to": "HarbourFront", "timestamps": [336, 387, 426, 493, 516, 570, 692, 767, 842, 916, 963, 997, 1019, 1052, 1109, 1155, 1258, 1294, 1324, 1345, 1376, 1403, 1438]}, "geometry": {"type": "LineString", "coordinates": [[103.84908, 1.37004], [103.84763, 1.37681], [103.84848, 1.37155], [103.85286, 1.36347], [103.85255, 1.36033], [103.8574, 1.35484], [103.86203, 1.33888], [103.86227, 1.32866], [103.85564, 1.32086], [103.84677, 1.31585], [103.84409, 1.31005], [103.84063, 1.307], [103.84038, 1.30395], [103.84343, 1.30065], [103.84408, 1.29297], [103.84078, 1.28756], [103.82952, 1.27922], [103.83372, 1.27669], [103.82967, 1.27572], [103.82881, 1.27294], [103.82548, 1.27036], [103.82662, 1.26686], [103.82198, 1.26557]]}}, {"type": "Feature", "properties": {"from": "Pasir Ris", "to": "HarbourFront", "timestamps": [239, 251, 296, 354, 525, 579, 789, 831, 866, 966, 1019, 1090, 1132, 1203, 1281, 1326, 1349, 1505, 1565, 1594, 1700, 1765, 1790]}, "geometry": {"type": "LineString", "coordinates": [[103.94903, 1.37209], [103.94738, 1.37227], [103.94579, 1.366], [103.93973, 1.37172], [103.91739, 1.38136], [103.91106, 1.3769], [103.89877, 1.3495], [103.89914, 1.34354], [103.89734, 1.33895], [103.88554, 1.33088], [103.88387, 1.32348], [103.87512, 1.31831], [103.87519, 1.31237], [103.87828, 1.30267], [103.87529, 1.29199], [103.87834, 1.28632], [103.87771, 1.2831], [103.85938, 1.27029], [103.85151, 1.27353], [103.84757, 1.27229], [103.83243, 1.27226], [103.82559, 1.26606], [103.82198, 1.26557]]}}, {"type": "Feature", "properties": {"from": "Bukit Panjang", "to": "Queenstown", "timestamps": [236, 294, 349, 416, 481, 513, 541, 582, 620, 651, 691, 739, 784, 832, 870, 892, 924, 1000, 1040, 1118, 1163, 1187, 1286, 1306, 1325, 1342, 1359, 1364]}, "geometry": {"type": "LineString", "coordinates": [[103.76201, 1.378], [103.75891, 1.38381], [103.762, 1.37831], [103.76363, 1.37079], [103.76758, 1.36455], [103.76708, 1.36085], [103.76757, 1.35771], [103.7696, 1.35345], [103.77036, 1.34918], [103.77234, 1.3463], [103.77625, 1.34376], [103.7794, 1.33939], [103.77806, 1.33441], [103.77781, 1.32893], [103.7751, 1.32549], [103.77284, 1.32436], [103.77089, 1.32124], [103.77235, 1.31268], [103.77693, 1.31241], [103.78463, 1.30798], [103.7898, 1.3084], [103.79237, 1.30743], [103.80104, 1.30023], [103.80053, 1.29799], [103.80265, 1.29763], [103.80377, 1.29596], [103.8025, 1.2945], [103.80284, 1.29406]]}}, {"type": "Feature", "properties": {"from": "Ang Mo Kio", "to": "Marina Bay", "timestamps": [289, 350, 397, 477, 505, 542, 571, 595, 723, 811, 917, 964, 1034, 1060, 1104, 1123, 1156, 1197, 1227, 1239, 1252, 1292, 1318, 1329, 1342]}, "geometry": {"type": "LineString", "coordinates": [[103.84908, 1.37004], [103.84763, 1.37681], [103.84848, 1.37155], [103.85286, 1.36347], [103.85255, 1.36033], [103.85485, 1.35677], [103.8574, 1.35484], [103.85746, 1.3521], [103.86213, 1.33828], [103.86216, 1.32824], [103.85438, 1.31898], [103.85884, 1.31611], [103.86361, 1.30968], [103.86448, 1.30695], [103.86729, 1.30276], [103.8662, 1.30093], [103.8631, 1.29882], [103.86243, 1.29415], [103.86298, 1.29076], [103.86243, 1.28951], [103.86099, 1.28956], [103.86082, 1.28503], [103.85951, 1.28242], [103.86062, 1.28179], [103.86089, 1.28324]]}}, {"type": "Feature", "properties": {"from": "Tampines", "to": "Queenstown", "timestamps": [240, 256, 277, 317, 337, 355, 388, 420, 441, 471, 500, 641, 788, 820, 868, 894, 960, 1019, 1064, 1168, 1247, 1272, 1294, 1319, 1359, 1381, 1405, 1457, 1525, 1545, 1606, 1664, 1680, 1695, 1709, 1713]}, "geometry": {"type": "LineString", "coordinates": [[103.94501, 1.3496], [103.94441, 1.3517], [103.9416, 1.35153], [103.94308, 1.34635], [103.94078, 1.34496], [103.93848, 1.34459], [103.93657, 1.34054], [103.93316, 1.33786], [103.93342, 1.33502], [103.92946, 1.33545], [103.92565, 1.33493], [103.90845, 1.3269], [103.88913, 1.32243], [103.88482, 1.32202], [103.87882, 1.31982], [103.87536, 1.32044], [103.86961, 1.32718], [103.86236, 1.33037], [103.85645, 1.329], [103.8424, 1.32944], [103.83248, 1.32572], [103.82937, 1.32678], [103.82643, 1.32659], [103.82382, 1.32872], [103.81887, 1.33106], [103.81597, 1.33116], [103.81413, 1.32842], [103.8129, 1.32154], [103.80589, 1.31575], [103.80441, 1.31345], [103.80183, 1.30567], [103.80053, 1.29799], [103.80265, 1.29763], [103.80375, 1.29601], [103.8025, 1.2945], [103.80284, 1.29406]]}}, {"type": "Feature", "properties": {"from": "Ang Mo Kio", "to": "Raffles Place", "timestamps": [114, 165, 205, 273, 296, 328, 351, 372, 475, 530, 551, 569, 632, 703, 751, 792, 808, 841, 888, 937, 999, 1015, 1021, 1029]}, "geometry": {"type": "LineString", "coordinates": [[103.84908, 1.37004], [103.84763, 1.37681], [103.84848, 1.37155], [103.85286, 1.36347], [103.85255, 1.36033], [103.85485, 1.35677], [103.8574, 1.35484], [103.85746, 1.3521], [103.86203, 1.33888], [103.86242, 1.33157], [103.86227, 1.32866], [103.86125, 1.32653], [103.85524, 1.32053], [103.84677, 1.31585], [103.84409, 1.31005], [103.84021, 1.30608], [103.84038, 1.30395], [103.84343, 1.30065], [103.84438, 1.29436], [103.84167, 1.28834], [103.8491, 1.28435], [103.85043, 1.28269], [103.85122, 1.28267], [103.85125, 1.28371]]}}, {"type": "Feature", "properties": {"from": "Bedok", "to": "Queenstown", "timestamps": [591, 599, 626, 670, 693, 729, 807, 846, 985, 1025, 1044, 1063, 1126, 1178, 1222, 1324, 1400, 1424, 1445, 1470, 1509, 1530, 1554, 1605, 1670, 1690, 1749, 1806, 1821, 1835, 1850, 1854]}, "geometry": {"type": "LineString", "coordinates": [[103.92998, 1.32414], [103.93103, 1.3241], [103.92725, 1.3234], [103.9264, 1.32939], [103.92324, 1.32945], [103.91869, 1.33161], [103.90899, 1.32711], [103.90383, 1.32553], [103.88482, 1.32202], [103.87966, 1.32], [103.87702, 1.31981], [103.87469, 1.32096], [103.8691, 1.32756], [103.86236, 1.33037], [103.85645, 1.329], [103.8424, 1.32944], [103.83248, 1.32572], [103.82937, 1.32678], [103.82643, 1.32659], [103.82382, 1.32872], [103.81887, 1.33106], [103.81597, 1.33116], [103.81413, 1.32842], [103.8129, 1.32154], [103.80589, 1.31575], [103.80441, 1.31345], [103.80183, 1.30567], [103.80053, 1.29799], [103.80265, 1.29763], [103.80375, 1.29601], [103.8025, 1.2945], [103.80284, 1.29406]]}}, {"type": "Feature", "properties": {"from": "Bedok", "to": "Paya Lebar", "timestamps": [264, 272, 273, 275, 305, 355, 370, 381, 412, 418, 423, 437, 515, 555, 631, 656, 662, 677, 681, 690, 704, 706]}, "geometry": {"type": "LineString", "coordinates": [[103.92998, 1.32414], [103.93092, 1.32425], [103.93103, 1.3241], [103.93097, 1.32395], [103.92725, 1.3234], [103.9264, 1.32939], [103.92458, 1.32922], [103.92324, 1.32945], [103.91998, 1.33136], [103.91931, 1.33159], [103.91862, 1.3316], [103.91705, 1.33113], [103.90845, 1.3269], [103.90383, 1.32553], [103.89466, 1.32368], [103.89175, 1.32275], [103.89127, 1.3222], [103.89159, 1.32047], [103.89205, 1.3202], [103.89309, 1.32037], [103.89345, 1.3186], [103.89321, 1.31861]]}}, {"type": "Feature", "properties": {"from": "Jurong East", "to": "Raffles Place", "timestamps": [66, 74, 87, 110, 138, 173, 238, 387, 505, 554, 661, 749, 805, 834, 861, 873, 904, 943, 963, 989, 1008, 1041, 1050, 1079, 1094, 1100, 1107]}, "geometry": {"type": "LineString", "coordinates": [[103.74269, 1.33334], [103.74315, 1.3324], [103.74439, 1.33372], [103.74696, 1.33163], [103.74487, 1.32848], [103.74618, 1.32368], [103.75471, 1.32089], [103.76875, 1.3057], [103.78311, 1.29752], [103.78781, 1.29261], [103.80023, 1.2845], [103.81242, 1.28328], [103.8193, 1.27952], [103.82326, 1.27888], [103.82671, 1.27745], [103.82821, 1.27808], [103.83116, 1.28124], [103.83609, 1.28342], [103.83777, 1.28565], [103.84081, 1.28775], [103.8423, 1.28993], [103.84615, 1.28738], [103.84562, 1.28632], [103.8491, 1.28435], [103.85043, 1.28269], [103.85122, 1.28267], [103.85125, 1.28371]]}}, {"type": "Feature", "properties": {"from": "Choa Chu Kang", "to": "HarbourFront", "timestamps": [360, 379, 396, 497, 517, 594, 654, 710, 783, 889, 979, 1063, 1138, 1202, 1311, 1367, 1483, 1582, 1652, 1689, 1730, 1797, 1836]}, "geometry": {"type": "LineString", "coordinates": [[103.7441, 1.38481], [103.74638, 1.38504], [103.7476, 1.38338], [103.7591, 1.37879], [103.7614, 1.37986], [103.76363, 1.37079], [103.76758, 1.36455], [103.76757, 1.35771], [103.77036, 1.34918], [103.77931, 1.3398], [103.77781, 1.32893], [103.77089, 1.32124], [103.77239, 1.31226], [103.77165, 1.3044], [103.78311, 1.29752], [103.78781, 1.29261], [103.79971, 1.28475], [103.81169, 1.28345], [103.8193, 1.27952], [103.82387, 1.27911], [103.82309, 1.27417], [103.82662, 1.26686], [103.82198, 1.26557]]}}, {"type": "Feature", "properties": {"from": "Hougang", "to": "Marina Bay", "timestamps": [61, 89, 122, 351, 416, 508, 609, 736, 787, 815, 863, 883, 919, 964, 997, 1010, 1024, 1067, 1095, 1107, 1121]}, "geometry": {"type": "LineString", "coordinates": [[103.89195, 1.37127], [103.88984, 1.36929], [103.89233, 1.36689], [103.87459, 1.35063], [103.87095, 1.3449], [103.87034, 1.33529], [103.86791, 1.32499], [103.8604, 1.31404], [103.86361, 1.30968], [103.86448, 1.30695], [103.86729, 1.30276], [103.8662, 1.30093], [103.8631, 1.29882], [103.86243, 1.29415], [103.86298, 1.29076], [103.86243, 1.28951], [103.86099, 1.28956], [103.86082, 1.28503], [103.85951, 1.28242], [103.86062, 1.28179], [103.86089, 1.28324]]}}, {"type": "Feature", "properties": {"from": "Bukit Panjang", "to": "Raffles Place", "timestamps": [340, 396, 435, 473, 557, 594, 611, 705, 736, 765, 817, 853, 884, 908, 1073, 1183, 1213, 1228, 1234, 1243, 1269, 1297, 1347, 1366, 1410, 1441, 1511, 1552, 1625, 1669, 1755, 1773, 1780, 1789]}, "geometry": {"type": "LineString", "coordinates": [[103.76201, 1.378], [103.75891, 1.38381], [103.76145, 1.38002], [103.76582, 1.38104], [103.77434, 1.37594], [103.77853, 1.37528], [103.77804, 1.37329], [103.78025, 1.36247], [103.78175, 1.35908], [103.78387, 1.35642], [103.78882, 1.35291], [103.79181, 1.34985], [103.79536, 1.34935], [103.79784, 1.34805], [103.81179, 1.33455], [103.8235, 1.32911], [103.82635, 1.32688], [103.82805, 1.32689], [103.82814, 1.32754], [103.82708, 1.32705], [103.82684, 1.32402], [103.82559, 1.32104], [103.82626, 1.31514], [103.82781, 1.3136], [103.83282, 1.31217], [103.83365, 1.30864], [103.82951, 1.30156], [103.83073, 1.29685], [103.83502, 1.28945], [103.84014, 1.28922], [103.8491, 1.28435], [103.85043, 1.28269], [103.85122, 1.28267], [103.85125, 1.28371]]}}, {"type": "Feature", "properties": {"from": "Punggol", "to": "one-north", "timestamps": [322, 351, 396, 480, 630, 649, 794, 849, 943, 1053, 1116, 1185, 1251, 1293, 1325, 1343, 1372, 1413, 1463, 1577, 1626, 1677, 1760, 1869, 1909, 1920]}, "geometry": {"type": "LineString", "coordinates": [[103.90205, 1.40522], [103.89777, 1.40623], [103.89585, 1.39941], [103.88303, 1.40128], [103.86003, 1.4005], [103.85724, 1.39932], [103.8585, 1.37709], [103.861, 1.3689], [103.85694, 1.35497], [103.86203, 1.33888], [103.86237, 1.3291], [103.85564, 1.32086], [103.84677, 1.31585], [103.84409, 1.31005], [103.84046, 1.30673], [103.84038, 1.30395], [103.84343, 1.30065], [103.84438, 1.29436], [103.84078, 1.28756], [103.82647, 1.27734], [103.81924, 1.27936], [103.81237, 1.28313], [103.79964, 1.28463], [103.78521, 1.29327], [103.78544, 1.2995], [103.78691, 1.29879]]}}, {"type": "Feature", "properties": {"from": "Serangoon", "to": "Novena", "timestamps": [569, 652, 732, 749, 776, 790, 823, 863, 919, 928, 960, 981, 998, 1061, 1094, 1099, 1103, 1107, 1111, 1121, 1140, 1180, 1195, 1202, 1210]}, "geometry": {"type": "LineString", "coordinates": [[103.87352, 1.34958], [103.88065, 1.35615], [103.8738, 1.34978], [103.87254, 1.34817], [103.87113, 1.34533], [103.8707, 1.3437], [103.87088, 1.33987], [103.87034, 1.33529], [103.8687, 1.32882], [103.86821, 1.32799], [103.86461, 1.32909], [103.86234, 1.32817], [103.86125, 1.32653], [103.85603, 1.32122], [103.85293, 1.31891], [103.85289, 1.31837], [103.85337, 1.31818], [103.85376, 1.31839], [103.85383, 1.31892], [103.85287, 1.31939], [103.85054, 1.31929], [103.84595, 1.3184], [103.84548, 1.32008], [103.84487, 1.32064], [103.84417, 1.32015]]}}]}
