{"type":"FeatureCollection","features":[{"type":"Feature","properties":{"kind":"meridian","label":"9\u00b0W"},"geometry":{"type":"LineString","coordinates":[[-9,49.0],[-9,49.25],[-9,49.5],[-9,49.75],[-9,50.0],[-9,50.25],[-9,50.5],[-9,50.75],[-9,51.0],[-9,51.25],[-9,51.5],[-9,51.75],[-9,52.0],[-9,52.25],[-9,52.5],[-9,52.75],[-9,53.0],[-9,53.25],[-9,53.5],[-9,53.75],[-9,54.0],[-9,54.25],[-9,54.5],[-9,54.75],[-9,55.0],[-9,55.25],[-9,55.5],[-9,55.75],[-9,56.0],[-9,56.25],[-9,56.5],[-9,56.75],[-9,57.0],[-9,57.25],[-9,57.5],[-9,57.75],[-9,58.0],[-9,58.25],[-9,58.5],[-9,58.75],[-9,59.0],[-9,59.25],[-9,59.5],[-9,59.75],[-9,60.0]]}},{"type":"Feature","properties":{"kind":"meridian","label":"8\u00b0W"},"geometry":{"type":"LineString","coordinates":[[-8,49.0],[-8,49.25],[-8,49.5],[-8,49.75],[-8,50.0],[-8,50.25],[-8,50.5],[-8,50.75],[-8,51.0],[-8,51.25],[-8,51.5],[-8,51.75],[-8,52.0],[-8,52.25],[-8,52.5],[-8,52.75],[-8,53.0],[-8,53.25],[-8,53.5],[-8,53.75],[-8,54.0],[-8,54.25],[-8,54.5],[-8,54.75],[-8,55.0],[-8,55.25],[-8,55.5],[-8,55.75],[-8,56.0],[-8,56.25],[-8,56.5],[-8,56.75],[-8,57.0],[-8,57.25],[-8,57.5],[-8,57.75],[-8,58.0],[-8,58.25],[-8,58.5],[-8,58.75],[-8,59.0],[-8,59.25],[-8,59.5],[-8,59.75],[-8,60.0]]}},{"type":"Feature","properties":{"kind":"meridian","label":"7\u00b0W"},"geometry":{"type":"LineString","coordinates":[[-7,49.0],[-7,49.25],[-7,49.5],[-7,49.75],[-7,50.0],[-7,50.25],[-7,50.5],[-7,50.75],[-7,51.0],[-7,51.25],[-7,51.5],[-7,51.75],[-7,52.0],[-7,52.25],[-7,52.5],[-7,52.75],[-7,53.0],[-7,53.25],[-7,53.5],[-7,53.75],[-7,54.0],[-7,54.25],[-7,54.5],[-7,54.75],[-7,55.0],[-7,55.25],[-7,55.5],[-7,55.75],[-7,56.0],[-7,56.25],[-7,56.5],[-7,56.75],[-7,57.0],[-7,57.25],[-7,57.5],[-7,57.75],[-7,58.0],[-7,58.25],[-7,58.5],[-7,58.75],[-7,59.0],[-7,59.25],[-7,59.5],[-7,59.75],[-7,60.0]]}},{"type":"Feature","properties":{"kind":"meridian","label":"6\u00b0W"},"geometry":{"type":"LineString","coordinates":[[-6,49.0],[-6,49.25],[-6,49.5],[-6,49.75],[-6,50.0],[-6,50.25],[-6,50.5],[-6,50.75],[-6,51.0],[-6,51.25],[-6,51.5],[-6,51.75],[-6,52.0],[-6,52.25],[-6,52.5],[-6,52.75],[-6,53.0],[-6,53.25],[-6,53.5],[-6,53.75],[-6,54.0],[-6,54.25],[-6,54.5],[-6,54.75],[-6,55.0],[-6,55.25],[-6,55.5],[-6,55.75],[-6,56.0],[-6,56.25],[-6,56.5],[-6,56.75],[-6,57.0],[-6,57.25],[-6,57.5],[-6,57.75],[-6,58.0],[-6,58.25],[-6,58.5],[-6,58.75],[-6,59.0],[-6,59.25],[-6,59.5],[-6,59.75],[-6,60.0]]}},{"type":"Feature","properties":{"kind":"meridian","label":"5\u00b0W"},"geometry":{"type":"LineString","coordinates":[[-5,49.0],[-5,49.25],[-5,49.5],[-5,49.75],[-5,50.0],[-5,50.25],[-5,50.5],[-5,50.75],[-5,51.0],[-5,51.25],[-5,51.5],[-5,51.75],[-5,52.0],[-5,52.25],[-5,52.5],[-5,52.75],[-5,53.0],[-5,53.25],[-5,53.5],[-5,53.75],[-5,54.0],[-5,54.25],[-5,54.5],[-5,54.75],[-5,55.0],[-5,55.25],[-5,55.5],[-5,55.75],[-5,56.0],[-5,56.25],[-5,56.5],[-5,56.75],[-5,57.0],[-5,57.25],[-5,57.5],[-5,57.75],[-5,58.0],[-5,58.25],[-5,58.5],[-5,58.75],[-5,59.0],[-5,59.25],[-5,59.5],[-5,59.75],[-5,60.0]]}},{"type":"Feature","properties":{"kind":"meridian","label":"4\u00b0W"},"geometry":{"type":"LineString","coordinates":[[-4,49.0],[-4,49.25],[-4,49.5],[-4,49.75],[-4,50.0],[-4,50.25],[-4,50.5],[-4,50.75],[-4,51.0],[-4,51.25],[-4,51.5],[-4,51.75],[-4,52.0],[-4,52.25],[-4,52.5],[-4,52.75],[-4,53.0],[-4,53.25],[-4,53.5],[-4,53.75],[-4,54.0],[-4,54.25],[-4,54.5],[-4,54.75],[-4,55.0],[-4,55.25],[-4,55.5],[-4,55.75],[-4,56.0],[-4,56.25],[-4,56.5],[-4,56.75],[-4,57.0],[-4,57.25],[-4,57.5],[-4,57.75],[-4,58.0],[-4,58.25],[-4,58.5],[-4,58.75],[-4,59.0],[-4,59.25],[-4,59.5],[-4,59.75],[-4,60.0]]}},{"type":"Feature","properties":{"kind":"meridian","label":"3\u00b0W"},"geometry":{"type":"LineString","coordinates":[[-3,49.0],[-3,49.25],[-3,49.5],[-3,49.75],[-3,50.0],[-3,50.25],[-3,50.5],[-3,50.75],[-3,51.0],[-3,51.25],[-3,51.5],[-3,51.75],[-3,52.0],[-3,52.25],[-3,52.5],[-3,52.75],[-3,53.0],[-3,53.25],[-3,53.5],[-3,53.75],[-3,54.0],[-3,54.25],[-3,54.5],[-3,54.75],[-3,55.0],[-3,55.25],[-3,55.5],[-3,55.75],[-3,56.0],[-3,56.25],[-3,56.5],[-3,56.75],[-3,57.0],[-3,57.25],[-3,57.5],[-3,57.75],[-3,58.0],[-3,58.25],[-3,58.5],[-3,58.75],[-3,59.0],[-3,59.25],[-3,59.5],[-3,59.75],[-3,60.0]]}},{"type":"Feature","properties":{"kind":"meridian","label":"2\u00b0W"},"geometry":{"type":"LineString","coordinates":[[-2,49.0],[-2,49.25],[-2,49.5],[-2,49.75],[-2,50.0],[-2,50.25],[-2,50.5],[-2,50.75],[-2,51.0],[-2,51.25],[-2,51.5],[-2,51.75],[-2,52.0],[-2,52.25],[-2,52.5],[-2,52.75],[-2,53.0],[-2,53.25],[-2,53.5],[-2,53.75],[-2,54.0],[-2,54.25],[-2,54.5],[-2,54.75],[-2,55.0],[-2,55.25],[-2,55.5],[-2,55.75],[-2,56.0],[-2,56.25],[-2,56.5],[-2,56.75],[-2,57.0],[-2,57.25],[-2,57.5],[-2,57.75],[-2,58.0],[-2,58.25],[-2,58.5],[-2,58.75],[-2,59.0],[-2,59.25],[-2,59.5],[-2,59.75],[-2,60.0]]}},{"type":"Feature","properties":{"kind":"meridian","label":"1\u00b0W"},"geometry":{"type":"LineString","coordinates":[[-1,49.0],[-1,49.25],[-1,49.5],[-1,49.75],[-1,50.0],[-1,50.25],[-1,50.5],[-1,50.75],[-1,51.0],[-1,51.25],[-1,51.5],[-1,51.75],[-1,52.0],[-1,52.25],[-1,52.5],[-1,52.75],[-1,53.0],[-1,53.25],[-1,53.5],[-1,53.75],[-1,54.0],[-1,54.25],[-1,54.5],[-1,54.75],[-1,55.0],[-1,55.25],[-1,55.5],[-1,55.75],[-1,56.0],[-1,56.25],[-1,56.5],[-1,56.75],[-1,57.0],[-1,57.25],[-1,57.5],[-1,57.75],[-1,58.0],[-1,58.25],[-1,58.5],[-1,58.75],[-1,59.0],[-1,59.25],[-1,59.5],[-1,59.75],[-1,60.0]]}},{"type":"Feature","properties":{"kind":"meridian","label":"0\u00b0E"},"geometry":{"type":"LineString","coordinates":[[0,49.0],[0,49.25],[0,49.5],[0,49.75],[0,50.0],[0,50.25],[0,50.5],[0,50.75],[0,51.0],[0,51.25],[0,51.5],[0,51.75],[0,52.0],[0,52.25],[0,52.5],[0,52.75],[0,53.0],[0,53.25],[0,53.5],[0,53.75],[0,54.0],[0,54.25],[0,54.5],[0,54.75],[0,55.0],[0,55.25],[0,55.5],[0,55.75],[0,56.0],[0,56.25],[0,56.5],[0,56.75],[0,57.0],[0,57.25],[0,57.5],[0,57.75],[0,58.0],[0,58.25],[0,58.5],[0,58.75],[0,59.0],[0,59.25],[0,59.5],[0,59.75],[0,60.0]]}},{"type":"Feature","properties":{"kind":"meridian","label":"1\u00b0E"},"geometry":{"type":"LineString","coordinates":[[1,49.0],[1,49.25],[1,49.5],[1,49.75],[1,50.0],[1,50.25],[1,50.5],[1,50.75],[1,51.0],[1,51.25],[1,51.5],[1,51.75],[1,52.0],[1,52.25],[1,52.5],[1,52.75],[1,53.0],[1,53.25],[1,53.5],[1,53.75],[1,54.0],[1,54.25],[1,54.5],[1,54.75],[1,55.0],[1,55.25],[1,55.5],[1,55.75],[1,56.0],[1,56.25],[1,56.5],[1,56.75],[1,57.0],[1,57.25],[1,57.5],[1,57.75],[1,58.0],[1,58.25],[1,58.5],[1,58.75],[1,59.0],[1,59.25],[1,59.5],[1,59.75],[1,60.0]]}},{"type":"Feature","properties":{"kind":"meridian","label":"2\u00b0E"},"geometry":{"type":"LineString","coordinates":[[2,49.0],[2,49.25],[2,49.5],[2,49.75],[2,50.0],[2,50.25],[2,50.5],[2,50.75],[2,51.0],[2,51.25],[2,51.5],[2,51.75],[2,52.0],[2,52.25],[2,52.5],[2,52.75],[2,53.0],[2,53.25],[2,53.5],[2,53.75],[2,54.0],[2,54.25],[2,54.5],[2,54.75],[2,55.0],[2,55.25],[2,55.5],[2,55.75],[2,56.0],[2,56.25],[2,56.5],[2,56.75],[2,57.0],[2,57.25],[2,57.5],[2,57.75],[2,58.0],[2,58.25],[2,58.5],[2,58.75],[2,59.0],[2,59.25],[2,59.5],[2,59.75],[2,60.0]]}},{"type":"Feature","properties":{"kind":"parallel","label":"50\u00b0N"},"geometry":{"type":"LineString","coordinates":[[-9.0,50],[-8.75,50],[-8.5,50],[-8.25,50],[-8.0,50],[-7.75,50],[-7.5,50],[-7.25,50],[-7.0,50],[-6.75,50],[-6.5,50],[-6.25,50],[-6.0,50],[-5.75,50],[-5.5,50],[-5.25,50],[-5.0,50],[-4.75,50],[-4.5,50],[-4.25,50],[-4.0,50],[-3.75,50],[-3.5,50],[-3.25,50],[-3.0,50],[-2.75,50],[-2.5,50],[-2.25,50],[-2.0,50],[-1.75,50],[-1.5,50],[-1.25,50],[-1.0,50],[-0.75,50],[-0.5,50],[-0.25,50],[0.0,50],[0.25,50],[0.5,50],[0.75,50],[1.0,50],[1.25,50],[1.5,50],[1.75,50],[2.0,50],[2.25,50],[2.5,50],[2.75,50],[3.0,50]]}},{"type":"Feature","properties":{"kind":"parallel","label":"51\u00b0N"},"geometry":{"type":"LineString","coordinates":[[-9.0,51],[-8.75,51],[-8.5,51],[-8.25,51],[-8.0,51],[-7.75,51],[-7.5,51],[-7.25,51],[-7.0,51],[-6.75,51],[-6.5,51],[-6.25,51],[-6.0,51],[-5.75,51],[-5.5,51],[-5.25,51],[-5.0,51],[-4.75,51],[-4.5,51],[-4.25,51],[-4.0,51],[-3.75,51],[-3.5,51],[-3.25,51],[-3.0,51],[-2.75,51],[-2.5,51],[-2.25,51],[-2.0,51],[-1.75,51],[-1.5,51],[-1.25,51],[-1.0,51],[-0.75,51],[-0.5,51],[-0.25,51],[0.0,51],[0.25,51],[0.5,51],[0.75,51],[1.0,51],[1.25,51],[1.5,51],[1.75,51],[2.0,51],[2.25,51],[2.5,51],[2.75,51],[3.0,51]]}},{"type":"Feature","properties":{"kind":"parallel","label":"52\u00b0N"},"geometry":{"type":"LineString","coordinates":[[-9.0,52],[-8.75,52],[-8.5,52],[-8.25,52],[-8.0,52],[-7.75,52],[-7.5,52],[-7.25,52],[-7.0,52],[-6.75,52],[-6.5,52],[-6.25,52],[-6.0,52],[-5.75,52],[-5.5,52],[-5.25,52],[-5.0,52],[-4.75,52],[-4.5,52],[-4.25,52],[-4.0,52],[-3.75,52],[-3.5,52],[-3.25,52],[-3.0,52],[-2.75,52],[-2.5,52],[-2.25,52],[-2.0,52],[-1.75,52],[-1.5,52],[-1.25,52],[-1.0,52],[-0.75,52],[-0.5,52],[-0.25,52],[0.0,52],[0.25,52],[0.5,52],[0.75,52],[1.0,52],[1.25,52],[1.5,52],[1.75,52],[2.0,52],[2.25,52],[2.5,52],[2.75,52],[3.0,52]]}},{"type":"Feature","properties":{"kind":"parallel","label":"53\u00b0N"},"geometry":{"type":"LineString","coordinates":[[-9.0,53],[-8.75,53],[-8.5,53],[-8.25,53],[-8.0,53],[-7.75,53],[-7.5,53],[-7.25,53],[-7.0,53],[-6.75,53],[-6.5,53],[-6.25,53],[-6.0,53],[-5.75,53],[-5.5,53],[-5.25,53],[-5.0,53],[-4.75,53],[-4.5,53],[-4.25,53],[-4.0,53],[-3.75,53],[-3.5,53],[-3.25,53],[-3.0,53],[-2.75,53],[-2.5,53],[-2.25,53],[-2.0,53],[-1.75,53],[-1.5,53],[-1.25,53],[-1.0,53],[-0.75,53],[-0.5,53],[-0.25,53],[0.0,53],[0.25,53],[0.5,53],[0.75,53],[1.0,53],[1.25,53],[1.5,53],[1.75,53],[2.0,53],[2.25,53],[2.5,53],[2.75,53],[3.0,53]]}},{"type":"Feature","properties":{"kind":"parallel","label":"54\u00b0N"},"geometry":{"type":"LineString","coordinates":[[-9.0,54],[-8.75,54],[-8.5,54],[-8.25,54],[-8.0,54],[-7.75,54],[-7.5,54],[-7.25,54],[-7.0,54],[-6.75,54],[-6.5,54],[-6.25,54],[-6.0,54],[-5.75,54],[-5.5,54],[-5.25,54],[-5.0,54],[-4.75,54],[-4.5,54],[-4.25,54],[-4.0,54],[-3.75,54],[-3.5,54],[-3.25,54],[-3.0,54],[-2.75,54],[-2.5,54],[-2.25,54],[-2.0,54],[-1.75,54],[-1.5,54],[-1.25,54],[-1.0,54],[-0.75,54],[-0.5,54],[-0.25,54],[0.0,54],[0.25,54],[0.5,54],[0.75,54],[1.0,54],[1.25,54],[1.5,54],[1.75,54],[2.0,54],[2.25,54],[2.5,54],[2.75,54],[3.0,54]]}},{"type":"Feature","properties":{"kind":"parallel","label":"55\u00b0N"},"geometry":{"type":"LineString","coordinates":[[-9.0,55],[-8.75,55],[-8.5,55],[-8.25,55],[-8.0,55],[-7.75,55],[-7.5,55],[-7.25,55],[-7.0,55],[-6.75,55],[-6.5,55],[-6.25,55],[-6.0,55],[-5.75,55],[-5.5,55],[-5.25,55],[-5.0,55],[-4.75,55],[-4.5,55],[-4.25,55],[-4.0,55],[-3.75,55],[-3.5,55],[-3.25,55],[-3.0,55],[-2.75,55],[-2.5,55],[-2.25,55],[-2.0,55],[-1.75,55],[-1.5,55],[-1.25,55],[-1.0,55],[-0.75,55],[-0.5,55],[-0.25,55],[0.0,55],[0.25,55],[0.5,55],[0.75,55],[1.0,55],[1.25,55],[1.5,55],[1.75,55],[2.0,55],[2.25,55],[2.5,55],[2.75,55],[3.0,55]]}},{"type":"Feature","properties":{"kind":"parallel","label":"56\u00b0N"},"geometry":{"type":"LineString","coordinates":[[-9.0,56],[-8.75,56],[-8.5,56],[-8.25,56],[-8.0,56],[-7.75,56],[-7.5,56],[-7.25,56],[-7.0,56],[-6.75,56],[-6.5,56],[-6.25,56],[-6.0,56],[-5.75,56],[-5.5,56],[-5.25,56],[-5.0,56],[-4.75,56],[-4.5,56],[-4.25,56],[-4.0,56],[-3.75,56],[-3.5,56],[-3.25,56],[-3.0,56],[-2.75,56],[-2.5,56],[-2.25,56],[-2.0,56],[-1.75,56],[-1.5,56],[-1.25,56],[-1.0,56],[-0.75,56],[-0.5,56],[-0.25,56],[0.0,56],[0.25,56],[0.5,56],[0.75,56],[1.0,56],[1.25,56],[1.5,56],[1.75,56],[2.0,56],[2.25,56],[2.5,56],[2.75,56],[3.0,56]]}},{"type":"Feature","properties":{"kind":"parallel","label":"57\u00b0N"},"geometry":{"type":"LineString","coordinates":[[-9.0,57],[-8.75,57],[-8.5,57],[-8.25,57],[-8.0,57],[-7.75,57],[-7.5,57],[-7.25,57],[-7.0,57],[-6.75,57],[-6.5,57],[-6.25,57],[-6.0,57],[-5.75,57],[-5.5,57],[-5.25,57],[-5.0,57],[-4.75,57],[-4.5,57],[-4.25,57],[-4.0,57],[-3.75,57],[-3.5,57],[-3.25,57],[-3.0,57],[-2.75,57],[-2.5,57],[-2.25,57],[-2.0,57],[-1.75,57],[-1.5,57],[-1.25,57],[-1.0,57],[-0.75,57],[-0.5,57],[-0.25,57],[0.0,57],[0.25,57],[0.5,57],[0.75,57],[1.0,57],[1.25,57],[1.5,57],[1.75,57],[2.0,57],[2.25,57],[2.5,57],[2.75,57],[3.0,57]]}},{"type":"Feature","properties":{"kind":"parallel","label":"58\u00b0N"},"geometry":{"type":"LineString","coordinates":[[-9.0,58],[-8.75,58],[-8.5,58],[-8.25,58],[-8.0,58],[-7.75,58],[-7.5,58],[-7.25,58],[-7.0,58],[-6.75,58],[-6.5,58],[-6.25,58],[-6.0,58],[-5.75,58],[-5.5,58],[-5.25,58],[-5.0,58],[-4.75,58],[-4.5,58],[-4.25,58],[-4.0,58],[-3.75,58],[-3.5,58],[-3.25,58],[-3.0,58],[-2.75,58],[-2.5,58],[-2.25,58],[-2.0,58],[-1.75,58],[-1.5,58],[-1.25,58],[-1.0,58],[-0.75,58],[-0.5,58],[-0.25,58],[0.0,58],[0.25,58],[0.5,58],[0.75,58],[1.0,58],[1.25,58],[1.5,58],[1.75,58],[2.0,58],[2.25,58],[2.5,58],[2.75,58],[3.0,58]]}},{"type":"Feature","properties":{"kind":"parallel","label":"59\u00b0N"},"geometry":{"type":"LineString","coordinates":[[-9.0,59],[-8.75,59],[-8.5,59],[-8.25,59],[-8.0,59],[-7.75,59],[-7.5,59],[-7.25,59],[-7.0,59],[-6.75,59],[-6.5,59],[-6.25,59],[-6.0,59],[-5.75,59],[-5.5,59],[-5.25,59],[-5.0,59],[-4.75,59],[-4.5,59],[-4.25,59],[-4.0,59],[-3.75,59],[-3.5,59],[-3.25,59],[-3.0,59],[-2.75,59],[-2.5,59],[-2.25,59],[-2.0,59],[-1.75,59],[-1.5,59],[-1.25,59],[-1.0,59],[-0.75,59],[-0.5,59],[-0.25,59],[0.0,59],[0.25,59],[0.5,59],[0.75,59],[1.0,59],[1.25,59],[1.5,59],[1.75,59],[2.0,59],[2.25,59],[2.5,59],[2.75,59],[3.0,59]]}},{"type":"Feature","properties":{"kind":"parallel","label":"60\u00b0N"},"geometry":{"type":"LineString","coordinates":[[-9.0,60],[-8.75,60],[-8.5,60],[-8.25,60],[-8.0,60],[-7.75,60],[-7.5,60],[-7.25,60],[-7.0,60],[-6.75,60],[-6.5,60],[-6.25,60],[-6.0,60],[-5.75,60],[-5.5,60],[-5.25,60],[-5.0,60],[-4.75,60],[-4.5,60],[-4.25,60],[-4.0,60],[-3.75,60],[-3.5,60],[-3.25,60],[-3.0,60],[-2.75,60],[-2.5,60],[-2.25,60],[-2.0,60],[-1.75,60],[-1.5,60],[-1.25,60],[-1.0,60],[-0.75,60],[-0.5,60],[-0.25,60],[0.0,60],[0.25,60],[0.5,60],[0.75,60],[1.0,60],[1.25,60],[1.5,60],[1.75,60],[2.0,60],[2.25,60],[2.5,60],[2.75,60],[3.0,60]]}}]}